[
  {
    "city_id": 789,
    "name_fa": "تهران",
    "name_en": "Tehran",
    "province_id": 8,
    "latitude": 35.6892523,
    "longitude": 51.3896004
  },
  {
    "city_id": 599,
    "name_fa": "اصفهان",
    "name_en": "Isfahan",
    "province_id": 4,
    "latitude": 32.6707877,
    "longitude": 51.6650002
  },
  {
    "city_id": 951,
    "name_fa": "مشهد",
    "name_en": "Mashhad",
    "province_id": 11,
    "latitude": 36.2974945,
    "longitude": 59.6059232
  },
  {
    "city_id": 474,
    "name_fa": "تبریز",
    "name_en": "Tabriz",
    "province_id": 1,
    "latitude": 38.0738612,
    "longitude": 46.2978789
  },
  {
    "city_id": 1263,
    "name_fa": "قزوین",
    "name_en": "Qazvin",
    "province_id": 18,
    "latitude": 36.2804074,
    "longitude": 50.006663
  },
  {
    "city_id": 1187,
    "name_fa": "شیراز",
    "name_en": "Shiraz",
    "province_id": 17,
    "latitude": 29.6060218,
    "longitude": 52.5378041
  },
  {
    "city_id": 631,
    "name_fa": "جندق",
    "name_en": "Jandaq",
    "province_id": 4,
    "latitude": 34.0422837,
    "longitude": 54.4150165
  },
  {
    "city_id": 523,
    "name_fa": "ارومیه",
    "name_en": "Urmia",
    "province_id": 2,
    "latitude": 37.548341,
    "longitude": 45.0667111
  },
  {
    "city_id": 1655,
    "name_fa": "میناب",
    "name_en": "Minab",
    "province_id": 29,
    "latitude": 27.1505605,
    "longitude": 57.0752814
  },
  {
    "city_id": 1368,
    "name_fa": "کهنوج",
    "name_en": "Kahnuj",
    "province_id": 21,
    "latitude": 27.9502255,
    "longitude": 57.7025775
  },
  {
    "city_id": 1114,
    "name_fa": "زاهدان",
    "name_en": "Zahedan",
    "province_id": 16,
    "latitude": 29.4928874,
    "longitude": 60.8503017
  },
  {
    "city_id": 1531,
    "name_fa": "رینه",
    "name_en": "Rineh",
    "province_id": 27,
    "latitude": 35.8819792,
    "longitude": 52.1697254
  },
  {
    "city_id": 687,
    "name_fa": "نایین",
    "name_en": "Na'in",
    "province_id": 4,
    "latitude": 32.8610688,
    "longitude": 53.085985
  },
  {
    "city_id": 1704,
    "name_fa": "زارچ",
    "name_en": "Zarch",
    "province_id": 31,
    "latitude": 31.9903361,
    "longitude": 54.2354245
  },
  {
    "city_id": 1685,
    "name_fa": "همدان",
    "name_en": "Hamadan",
    "province_id": 30,
    "latitude": 34.7992888,
    "longitude": 48.5152464
  },
  {
    "city_id": 714,
    "name_fa": "نظرآباد",
    "name_en": "Nazarabad",
    "province_id": 5,
    "latitude": 35.9558897,
    "longitude": 50.6097443
  },
  {
    "city_id": 1242,
    "name_fa": "آبیک",
    "name_en": "Abyek",
    "province_id": 18,
    "latitude": 36.0416927,
    "longitude": 50.5320519
  },
  {
    "city_id": 1249,
    "name_fa": "محمدیه",
    "name_en": "Mohammadiyeh",
    "province_id": 18,
    "latitude": 36.2255821,
    "longitude": 50.1878041
  },
  {
    "city_id": 1264,
    "name_fa": "کوهین",
    "name_en": "Kuhin",
    "province_id": 18,
    "latitude": 36.3701265,
    "longitude": 49.6631317
  },
  {
    "city_id": 565,
    "name_fa": "اردبیل",
    "name_en": "Ardabil",
    "province_id": 3,
    "latitude": 38.2515581,
    "longitude": 48.2972269
  },
  {
    "city_id": 1472,
    "name_fa": "لوشان",
    "name_en": "Lowshan",
    "province_id": 25,
    "latitude": 36.6279334,
    "longitude": 49.5162305
  },
  {
    "city_id": 1471,
    "name_fa": "رودبار",
    "name_en": "Rudbar",
    "province_id": 25,
    "latitude": 36.8219055,
    "longitude": 49.4268249
  },
  {
    "city_id": 1470,
    "name_fa": "رستم آباد",
    "name_en": "Rostam Abad",
    "province_id": 25,
    "latitude": 36.897394,
    "longitude": 49.4915717
  },
  {
    "city_id": 475,
    "name_fa": "خسروشاه",
    "name_en": "Khosrowshah",
    "province_id": 1,
    "latitude": 37.9513096,
    "longitude": 46.0509259
  },
  {
    "city_id": 492,
    "name_fa": "صوفیان",
    "name_en": "Sufian",
    "province_id": 1,
    "latitude": 38.27694,
    "longitude": 45.981373
  },
  {
    "city_id": 1604,
    "name_fa": "ساوه",
    "name_en": "Saveh",
    "province_id": 28,
    "latitude": 35.0196331,
    "longitude": 50.3652364
  },
  {
    "city_id": 1022,
    "name_fa": "دزفول",
    "name_en": "Dezful",
    "province_id": 13,
    "latitude": 32.3780257,
    "longitude": 48.4032064
  },
  {
    "city_id": 994,
    "name_fa": "اندیمشک",
    "name_en": "Andimeshk",
    "province_id": 13,
    "latitude": 32.458325,
    "longitude": 48.3521137
  },
  {
    "city_id": 1042,
    "name_fa": "شوش",
    "name_en": "Shush",
    "province_id": 13,
    "latitude": 32.2003687,
    "longitude": 48.2489839
  },
  {
    "city_id": 1518,
    "name_fa": "دورود",
    "name_en": "Dorud",
    "province_id": 26,
    "latitude": 33.4992998,
    "longitude": 49.0529575
  },
  {
    "city_id": 1396,
    "name_fa": "کرمانشاه",
    "name_en": "Kermanshah",
    "province_id": 22,
    "latitude": 34.3239414,
    "longitude": 47.0735891
  },
  {
    "city_id": 1274,
    "name_fa": "بانه",
    "name_en": "Baneh",
    "province_id": 20,
    "latitude": 35.9968045,
    "longitude": 45.8853268
  },
  {
    "city_id": 500,
    "name_fa": "مراغه",
    "name_en": "Maragheh",
    "province_id": 1,
    "latitude": 37.3913128,
    "longitude": 46.2435751
  },
  {
    "city_id": 472,
    "name_fa": "بناب",
    "name_en": "Bonab",
    "province_id": 1,
    "latitude": 37.3409239,
    "longitude": 46.050471
  },
  {
    "city_id": 513,
    "name_fa": "میانه",
    "name_en": "Mianeh",
    "province_id": 1,
    "latitude": 37.4284148,
    "longitude": 47.7058119
  },
  {
    "city_id": 1288,
    "name_fa": "سقز",
    "name_en": "Saqqez",
    "province_id": 20,
    "latitude": 36.2427456,
    "longitude": 46.2705227
  },
  {
    "city_id": 597,
    "name_fa": "مهاباد",
    "name_en": "Mahabad",
    "province_id": 4,
    "latitude": 36.7651739,
    "longitude": 45.7218136
  },
  {
    "city_id": 1455,
    "name_fa": "املش",
    "name_en": "Amlash",
    "province_id": 25,
    "latitude": 37.0961905,
    "longitude": 50.1844452
  },
  {
    "city_id": 1534,
    "name_fa": "بابل",
    "name_en": "Babol",
    "province_id": 27,
    "latitude": 36.5452581,
    "longitude": 52.6846571
  },
  {
    "city_id": 931,
    "name_fa": "سبزوار",
    "name_en": "Sabzevar",
    "province_id": 11,
    "latitude": 36.2134053,
    "longitude": 57.6808799
  },
  {
    "city_id": 962,
    "name_fa": "نیشابور",
    "name_en": "Neyshabur",
    "province_id": 11,
    "latitude": 36.2105604,
    "longitude": 58.7922291
  },
  {
    "city_id": 836,
    "name_fa": "شهرکرد",
    "name_en": "Shahr-e Kord",
    "province_id": 9,
    "latitude": 32.3257366,
    "longitude": 50.8497369
  },
  {
    "city_id": 863,
    "name_fa": "بیرجند",
    "name_en": "Birjand",
    "province_id": 10,
    "latitude": 32.8633961,
    "longitude": 59.2177294
  },
  {
    "city_id": 1362,
    "name_fa": "کرمان",
    "name_en": "Kerman",
    "province_id": 21,
    "latitude": 30.2924085,
    "longitude": 57.0645647
  },
  {
    "city_id": 1339,
    "name_fa": "سیرجان",
    "name_en": "Sirjan",
    "province_id": 21,
    "latitude": 29.4458687,
    "longitude": 55.6704717
  },
  {
    "city_id": 1313,
    "name_fa": "بم",
    "name_en": "Bam",
    "province_id": 21,
    "latitude": 29.1059864,
    "longitude": 58.3565663
  },
  {
    "city_id": 1113,
    "name_fa": "زابل",
    "name_en": "Zabol",
    "province_id": 16,
    "latitude": 31.0277779,
    "longitude": 61.4948211
  },
  {
    "city_id": 985,
    "name_fa": "آبادان",
    "name_en": "Abadan",
    "province_id": 13,
    "latitude": 30.3636097,
    "longitude": 48.2591475
  },
  {
    "city_id": 965,
    "name_fa": "بجنورد",
    "name_en": "Bojnurd",
    "province_id": 12,
    "latitude": 37.4759752,
    "longitude": 57.3319881
  },
  {
    "city_id": 740,
    "name_fa": "بوشهر",
    "name_en": "Bushehr",
    "province_id": 7,
    "latitude": 28.9310786,
    "longitude": 50.8458443
  },
  {
    "city_id": 541,
    "name_fa": "خوی",
    "name_en": "Khoy",
    "province_id": 2,
    "latitude": 38.5504343,
    "longitude": 44.95354
  },
  {
    "city_id": 1076,
    "name_fa": "زنجان",
    "name_en": "Zanjan",
    "province_id": 14,
    "latitude": 36.6700041,
    "longitude": 48.4795399
  },
  {
    "city_id": 504,
    "name_fa": "مرند",
    "name_en": "Marand",
    "province_id": 1,
    "latitude": 38.4306358,
    "longitude": 45.7741
  },
  {
    "city_id": 539,
    "name_fa": "قره ضیاءالدین",
    "name_en": "Qaraziadin",
    "province_id": 2,
    "latitude": 38.8900366,
    "longitude": 45.0282295
  },
  {
    "city_id": 550,
    "name_fa": "سلماس",
    "name_en": "Salmas",
    "province_id": 2,
    "latitude": 38.1969035,
    "longitude": 44.7685015
  },
  {
    "city_id": 534,
    "name_fa": "پیرانشهر",
    "name_en": "Piranshahr",
    "province_id": 2,
    "latitude": 36.7003004,
    "longitude": 45.140092
  },
  {
    "city_id": 470,
    "name_fa": "بستان آباد",
    "name_en": "Bostanabad",
    "province_id": 1,
    "latitude": 37.8429496,
    "longitude": 46.8339774
  },
  {
    "city_id": 536,
    "name_fa": "تکاب",
    "name_en": "Takab",
    "province_id": 2,
    "latitude": 36.4007658,
    "longitude": 47.1117125
  },
  {
    "city_id": 1581,
    "name_fa": "رویان",
    "name_en": "Royan",
    "province_id": 27,
    "latitude": 36.5696172,
    "longitude": 51.9622645
  },
  {
    "city_id": 571,
    "name_fa": "پارس آباد",
    "name_en": "Parsabad",
    "province_id": 3,
    "latitude": 39.6461735,
    "longitude": 47.918551
  },
  {
    "city_id": 708,
    "name_fa": "کرج",
    "name_en": "Karaj",
    "province_id": 5,
    "latitude": 35.8224892,
    "longitude": 50.9904681
  },
  {
    "city_id": 1278,
    "name_fa": "بیجار",
    "name_en": "Bijar",
    "province_id": 20,
    "latitude": 35.8721066,
    "longitude": 47.600064
  },
  {
    "city_id": 1295,
    "name_fa": "قروه",
    "name_en": "Qorveh",
    "province_id": 20,
    "latitude": 35.1679005,
    "longitude": 47.800886
  },
  {
    "city_id": 528,
    "name_fa": "اشنویه",
    "name_en": "Oshnaviyeh",
    "province_id": 2,
    "latitude": 37.0418235,
    "longitude": 45.0983499
  },
  {
    "city_id": 556,
    "name_fa": "بازرگان",
    "name_en": "Bazargan",
    "province_id": 2,
    "latitude": 39.3886668,
    "longitude": 44.3876859
  },
  {
    "city_id": 1185,
    "name_fa": "زرقان",
    "name_en": "Zarqan",
    "province_id": 17,
    "latitude": 29.774274,
    "longitude": 52.7215709
  },
  {
    "city_id": 1181,
    "name_fa": "سروستان",
    "name_en": "Sarvestan",
    "province_id": 17,
    "latitude": 29.2721889,
    "longitude": 53.22157
  },
  {
    "city_id": 1146,
    "name_fa": "استهبان",
    "name_en": "Estahban",
    "province_id": 17,
    "latitude": 29.1252321,
    "longitude": 54.0405113
  },
  {
    "city_id": 1194,
    "name_fa": "فسا",
    "name_en": "Fasa",
    "province_id": 17,
    "latitude": 28.9366395,
    "longitude": 53.6510677
  },
  {
    "city_id": 1170,
    "name_fa": "داراب",
    "name_en": "Darab",
    "province_id": 17,
    "latitude": 28.753194,
    "longitude": 54.548149
  },
  {
    "city_id": 1239,
    "name_fa": "قطرویه",
    "name_en": "Qatruyeh",
    "province_id": 17,
    "latitude": 29.1461299,
    "longitude": 54.7027042
  },
  {
    "city_id": 1364,
    "name_fa": "ماهان",
    "name_en": "Mahan",
    "province_id": 21,
    "latitude": 30.0536359,
    "longitude": 57.2883027
  },
  {
    "city_id": 1358,
    "name_fa": "راین",
    "name_en": "Rayen",
    "province_id": 21,
    "latitude": 29.5981294,
    "longitude": 57.4364877
  },
  {
    "city_id": 1213,
    "name_fa": "اوز",
    "name_en": "Evaz",
    "province_id": 17,
    "latitude": 27.7625325,
    "longitude": 54.0051497
  },
  {
    "city_id": 1140,
    "name_fa": "آباده",
    "name_en": "Abadeh",
    "province_id": 17,
    "latitude": 31.1627056,
    "longitude": 52.6490454
  },
  {
    "city_id": 1224,
    "name_fa": "لامرد",
    "name_en": "Lamerd",
    "province_id": 17,
    "latitude": 27.333426,
    "longitude": 53.1816105
  },
  {
    "city_id": 1305,
    "name_fa": "بافت",
    "name_en": "Baft",
    "province_id": 21,
    "latitude": 29.2356229,
    "longitude": 56.6059046
  },
  {
    "city_id": 1307,
    "name_fa": "بردسیر",
    "name_en": "Bardsir",
    "province_id": 21,
    "latitude": 29.9283973,
    "longitude": 56.5717384
  },
  {
    "city_id": 1333,
    "name_fa": "زرند",
    "name_en": "Zarand",
    "province_id": 21,
    "latitude": 30.8134822,
    "longitude": 56.5672432
  },
  {
    "city_id": 1320,
    "name_fa": "راور",
    "name_en": "Ravar",
    "province_id": 21,
    "latitude": 31.2676737,
    "longitude": 56.8069974
  },
  {
    "city_id": 1541,
    "name_fa": "بهنمیر",
    "name_en": "Bahnemir",
    "province_id": 27,
    "latitude": 36.6702899,
    "longitude": 52.7620524
  },
  {
    "city_id": 878,
    "name_fa": "طبس",
    "name_en": "Tabas",
    "province_id": 10,
    "latitude": 33.5962283,
    "longitude": 56.9249087
  },
  {
    "city_id": 633,
    "name_fa": "فرخی",
    "name_en": "Farokhi",
    "province_id": 4,
    "latitude": 33.844903,
    "longitude": 54.9470758
  },
  {
    "city_id": 942,
    "name_fa": "قوچان",
    "name_en": "Quchan",
    "province_id": 11,
    "latitude": 37.1060904,
    "longitude": 58.5086657
  },
  {
    "city_id": 704,
    "name_fa": "طالقان",
    "name_en": "Taleqan",
    "province_id": 5,
    "latitude": 36.177868,
    "longitude": 50.7655155
  },
  {
    "city_id": 739,
    "name_fa": "مهران",
    "name_en": "مهران",
    "province_id": 6,
    "latitude": 36.2059941,
    "longitude": 50.9352561
  },
  {
    "city_id": 989,
    "name_fa": "امیدیه",
    "name_en": "Omidieh",
    "province_id": 13,
    "latitude": 30.7568821,
    "longitude": 49.7017752
  },
  {
    "city_id": 901,
    "name_fa": "تربت جام",
    "name_en": "Torbat-e Jam",
    "province_id": 11,
    "latitude": 35.2432546,
    "longitude": 60.626313
  },
  {
    "city_id": 896,
    "name_fa": "طرقبه",
    "name_en": "Torghabeh",
    "province_id": 11,
    "latitude": 36.3097179,
    "longitude": 59.3741338
  },
  {
    "city_id": 1652,
    "name_fa": "هرمز",
    "name_en": "Hormuz",
    "province_id": 29,
    "latitude": 27.0955031,
    "longitude": 56.452739
  },
  {
    "city_id": 1107,
    "name_fa": "چابهار",
    "name_en": "Chabahar",
    "province_id": 16,
    "latitude": 25.2935488,
    "longitude": 60.6469115
  },
  {
    "city_id": 1130,
    "name_fa": "کنارک",
    "name_en": "Konarak",
    "province_id": 16,
    "latitude": 25.3604865,
    "longitude": 60.3981155
  },
  {
    "city_id": 1100,
    "name_fa": "شهمیرزاد",
    "name_en": "Shahmirzad",
    "province_id": 15,
    "latitude": 35.7735069,
    "longitude": 53.3279767
  },
  {
    "city_id": 1099,
    "name_fa": "درجزین",
    "name_en": "Darjazin",
    "province_id": 15,
    "latitude": 35.6539439,
    "longitude": 53.3379876
  },
  {
    "city_id": 1446,
    "name_fa": "گمیش تپه",
    "name_en": "Gumish Tappeh",
    "province_id": 24,
    "latitude": 37.0701316,
    "longitude": 54.0770395
  },
  {
    "city_id": 977,
    "name_fa": "فاروج",
    "name_en": "Faruj",
    "province_id": 12,
    "latitude": 37.2317346,
    "longitude": 58.2192859
  },
  {
    "city_id": 973,
    "name_fa": "شیروان",
    "name_en": "Shirvan",
    "province_id": 12,
    "latitude": 37.3964405,
    "longitude": 57.9303523
  },
  {
    "city_id": 981,
    "name_fa": "آشخانه",
    "name_en": "Ashkhaneh",
    "province_id": 12,
    "latitude": 37.5603754,
    "longitude": 56.922995
  },
  {
    "city_id": 1450,
    "name_fa": "مینودشت",
    "name_en": "Minudasht",
    "province_id": 24,
    "latitude": 37.2288889,
    "longitude": 55.3747222
  },
  {
    "city_id": 1422,
    "name_fa": "آزادشهر",
    "name_en": "Azadshahr",
    "province_id": 24,
    "latitude": 37.0875125,
    "longitude": 55.1725639
  },
  {
    "city_id": 1132,
    "name_fa": "میرجاوه",
    "name_en": "Mirjaveh",
    "province_id": 16,
    "latitude": 29.0149246,
    "longitude": 61.4540744
  },
  {
    "city_id": 1091,
    "name_fa": "بسطام",
    "name_en": "Bastam",
    "province_id": 15,
    "latitude": 36.4828385,
    "longitude": 55.0010241
  },
  {
    "city_id": 1560,
    "name_fa": "کیاسر",
    "name_en": "Kiasar",
    "province_id": 27,
    "latitude": 36.2366087,
    "longitude": 53.5412514
  },
  {
    "city_id": 922,
    "name_fa": "داورزن",
    "name_en": "Davarzan",
    "province_id": 11,
    "latitude": 36.3512877,
    "longitude": 56.8762448
  },
  {
    "city_id": 407,
    "name_fa": "عباس آباد",
    "name_en": "عباس آباد",
    "province_id": 27,
    "latitude": 36.3623705,
    "longitude": 56.3903371
  },
  {
    "city_id": 1102,
    "name_fa": "میامی",
    "name_en": "Mayamey",
    "province_id": 15,
    "latitude": 36.4086479,
    "longitude": 55.6545685
  },
  {
    "city_id": 937,
    "name_fa": "فریمان",
    "name_en": "Fariman",
    "province_id": 11,
    "latitude": 35.701215,
    "longitude": 59.8465304
  },
  {
    "city_id": 1466,
    "name_fa": "رضوانشهر",
    "name_en": "Rezvanshahr",
    "province_id": 25,
    "latitude": 37.5479126,
    "longitude": 49.1395774
  },
  {
    "city_id": 1561,
    "name_fa": "آلاشت",
    "name_en": "Alasht",
    "province_id": 27,
    "latitude": 36.066319,
    "longitude": 52.8366338
  },
  {
    "city_id": 694,
    "name_fa": "بادرود",
    "name_en": "Badrud",
    "province_id": 4,
    "latitude": 33.6916541,
    "longitude": 52.0076895
  },
  {
    "city_id": 1098,
    "name_fa": "گرمسار",
    "name_en": "Garmsar",
    "province_id": 15,
    "latitude": 35.2221321,
    "longitude": 52.3385276
  },
  {
    "city_id": 877,
    "name_fa": "دیهوک",
    "name_en": "Deyhuk",
    "province_id": 10,
    "latitude": 33.2914689,
    "longitude": 57.5174149
  },
  {
    "city_id": 1183,
    "name_fa": "خانه زنیان",
    "name_en": "Khaneh Zenyan",
    "province_id": 17,
    "latitude": 29.6717432,
    "longitude": 52.15202
  },
  {
    "city_id": 897,
    "name_fa": "تایباد",
    "name_en": "Taybad",
    "province_id": 11,
    "latitude": 34.7401763,
    "longitude": 60.7755127
  },
  {
    "city_id": 898,
    "name_fa": "کاریز",
    "name_en": "Kariz",
    "province_id": 11,
    "latitude": 34.8127778,
    "longitude": 60.8241667
  },
  {
    "city_id": 1175,
    "name_fa": "حاجی آباد",
    "name_en": "Hajjiabad, Taybad",
    "province_id": 17,
    "latitude": 34.697011,
    "longitude": 60.8682981
  },
  {
    "city_id": 1577,
    "name_fa": "نکا",
    "name_en": "Neka",
    "province_id": 27,
    "latitude": 36.6511824,
    "longitude": 53.2965182
  },
  {
    "city_id": 1543,
    "name_fa": "بهشهر",
    "name_en": "Behshahr",
    "province_id": 27,
    "latitude": 36.6912955,
    "longitude": 53.5432769
  },
  {
    "city_id": 770,
    "name_fa": "عسلویه",
    "name_en": "Asalouyeh",
    "province_id": 7,
    "latitude": 27.4760027,
    "longitude": 52.6070411
  },
  {
    "city_id": 955,
    "name_fa": "فیض آباد",
    "name_en": "Feyzabad",
    "province_id": 11,
    "latitude": 35.0222084,
    "longitude": 58.7859967
  },
  {
    "city_id": 954,
    "name_fa": "شادمهر",
    "name_en": "Shadmehr",
    "province_id": 11,
    "latitude": 35.1716343,
    "longitude": 59.0366756
  },
  {
    "city_id": 1671,
    "name_fa": "کبودرآهنگ",
    "name_en": "Kabudar Ahang",
    "province_id": 30,
    "latitude": 35.2083683,
    "longitude": 48.7242053
  },
  {
    "city_id": 1268,
    "name_fa": "دستجرد",
    "name_en": "Dastjerd",
    "province_id": 19,
    "latitude": 35.2492053,
    "longitude": 48.7203079
  },
  {
    "city_id": 1316,
    "name_fa": "جیرفت",
    "name_en": "Jiroft",
    "province_id": 21,
    "latitude": 28.6697367,
    "longitude": 57.7373382
  },
  {
    "city_id": 1219,
    "name_fa": "لار",
    "name_en": "Lar",
    "province_id": 17,
    "latitude": 27.6619203,
    "longitude": 54.3229561
  },
  {
    "city_id": 1212,
    "name_fa": "گراش",
    "name_en": "Gerash",
    "province_id": 17,
    "latitude": 27.6701538,
    "longitude": 54.1378384
  },
  {
    "city_id": 1410,
    "name_fa": "یاسوج",
    "name_en": "Yasuj",
    "province_id": 23,
    "latitude": 30.6681785,
    "longitude": 51.581916
  },
  {
    "city_id": 1123,
    "name_fa": "راسک",
    "name_en": "Rasak",
    "province_id": 16,
    "latitude": 26.2368044,
    "longitude": 61.3987716
  },
  {
    "city_id": 1103,
    "name_fa": "ایرانشهر",
    "name_en": "Iranshahr",
    "province_id": 16,
    "latitude": 27.2069903,
    "longitude": 60.6882515
  },
  {
    "city_id": 1523,
    "name_fa": "فیروزآباد",
    "name_en": "Firuz Abad",
    "province_id": 26,
    "latitude": 26.2864903,
    "longitude": 61.4211346
  },
  {
    "city_id": 1658,
    "name_fa": "اسدآباد",
    "name_en": "Asadabad",
    "province_id": 30,
    "latitude": 34.7825885,
    "longitude": 48.1217832
  },
  {
    "city_id": 1143,
    "name_fa": "سورمق",
    "name_en": "Surmaq",
    "province_id": 17,
    "latitude": 31.0338723,
    "longitude": 52.8397513
  },
  {
    "city_id": 681,
    "name_fa": "طالخونچه",
    "name_en": "Talkhuncheh",
    "province_id": 4,
    "latitude": 32.2661882,
    "longitude": 51.5639295
  },
  {
    "city_id": 1592,
    "name_fa": "خمین",
    "name_en": "Khomein",
    "province_id": 28,
    "latitude": 33.6446965,
    "longitude": 50.0801376
  },
  {
    "city_id": 1503,
    "name_fa": "ازنا",
    "name_en": "Azna",
    "province_id": 26,
    "latitude": 33.4568272,
    "longitude": 49.4537204
  },
  {
    "city_id": 720,
    "name_fa": "ایوان",
    "name_en": "Eywan",
    "province_id": 6,
    "latitude": 33.8282411,
    "longitude": 46.3096374
  },
  {
    "city_id": 1596,
    "name_fa": "دلیجان",
    "name_en": "Delijan",
    "province_id": 28,
    "latitude": 33.9880486,
    "longitude": 50.6862901
  },
  {
    "city_id": 1616,
    "name_fa": "میلاجرد",
    "name_en": "Milajerd",
    "province_id": 28,
    "latitude": 34.6211735,
    "longitude": 49.2047717
  },
  {
    "city_id": 1115,
    "name_fa": "نصرت آباد",
    "name_en": "Nosrat abad",
    "province_id": 16,
    "latitude": 38.1162589,
    "longitude": 48.8964125
  },
  {
    "city_id": 804,
    "name_fa": "فشم",
    "name_en": "Fasham",
    "province_id": 8,
    "latitude": 35.9300601,
    "longitude": 51.5263647
  },
  {
    "city_id": 911,
    "name_fa": "چناران",
    "name_en": "Chenaran",
    "province_id": 11,
    "latitude": 36.6483961,
    "longitude": 59.1185005
  },
  {
    "city_id": 924,
    "name_fa": "درگز",
    "name_en": "Dargaz",
    "province_id": 11,
    "latitude": 37.4470313,
    "longitude": 59.1064876
  },
  {
    "city_id": 925,
    "name_fa": "لطف آباد",
    "name_en": "Lotfabad",
    "province_id": 11,
    "latitude": 37.5178695,
    "longitude": 59.3409617
  },
  {
    "city_id": 1184,
    "name_fa": "داریان",
    "name_en": "Daryan",
    "province_id": 17,
    "latitude": 35.1393379,
    "longitude": 46.3183468
  },
  {
    "city_id": 1378,
    "name_fa": "نودشه",
    "name_en": "Nowdeshah",
    "province_id": 22,
    "latitude": 35.1808,
    "longitude": 46.2544
  },
  {
    "city_id": 1377,
    "name_fa": "پاوه",
    "name_en": "Paveh",
    "province_id": 22,
    "latitude": 35.0458307,
    "longitude": 46.3622191
  },
  {
    "city_id": 1686,
    "name_fa": "ابرکوه",
    "name_en": "Abarkuh",
    "province_id": 31,
    "latitude": 31.1324814,
    "longitude": 53.2803103
  },
  {
    "city_id": 1166,
    "name_fa": "صفاشهر",
    "name_en": "Safashahr",
    "province_id": 17,
    "latitude": 30.6114269,
    "longitude": 53.1912987
  },
  {
    "city_id": 1086,
    "name_fa": "دامغان",
    "name_en": "Damghan",
    "province_id": 15,
    "latitude": 36.167451,
    "longitude": 54.3379993
  },
  {
    "city_id": 949,
    "name_fa": "گناباد",
    "name_en": "Gonabad",
    "province_id": 11,
    "latitude": 34.3528343,
    "longitude": 58.6832352
  },
  {
    "city_id": 890,
    "name_fa": "بجستان",
    "name_en": "Bajestan",
    "province_id": 11,
    "latitude": 34.5163087,
    "longitude": 58.1834619
  },
  {
    "city_id": 1438,
    "name_fa": "کردکوی",
    "name_en": "Kord Kuy",
    "province_id": 24,
    "latitude": 36.792383,
    "longitude": 54.1127036
  },
  {
    "city_id": 576,
    "name_fa": "سرعین",
    "name_en": "Sareyn",
    "province_id": 3,
    "latitude": 38.1493746,
    "longitude": 48.0746208
  },
  {
    "city_id": 946,
    "name_fa": "کلات",
    "name_en": "Kalat",
    "province_id": 11,
    "latitude": 36.9953881,
    "longitude": 59.7642219
  },
  {
    "city_id": 921,
    "name_fa": "سلطان آباد",
    "name_en": "Soltanabad",
    "province_id": 11,
    "latitude": 36.405159,
    "longitude": 58.0386871
  },
  {
    "city_id": 912,
    "name_fa": "گلبهار",
    "name_en": "Golbahar",
    "province_id": 11,
    "latitude": 36.5725497,
    "longitude": 59.1966264
  },
  {
    "city_id": 1622,
    "name_fa": "سردشت",
    "name_en": "Sardasht",
    "province_id": 29,
    "latitude": 36.1553184,
    "longitude": 45.4799637
  },
  {
    "city_id": 1109,
    "name_fa": "خاش",
    "name_en": "Khash",
    "province_id": 16,
    "latitude": 28.2203911,
    "longitude": 61.2137052
  },
  {
    "city_id": 1105,
    "name_fa": "بمپور",
    "name_en": "Bampur",
    "province_id": 16,
    "latitude": 27.1941781,
    "longitude": 60.4554816
  },
  {
    "city_id": 498,
    "name_fa": "کلیبر",
    "name_en": "Kaleybar",
    "province_id": 1,
    "latitude": 38.8629817,
    "longitude": 47.0399693
  },
  {
    "city_id": 963,
    "name_fa": "اسفراین",
    "name_en": "Esfarayen",
    "province_id": 12,
    "latitude": 37.0750975,
    "longitude": 57.5096169
  },
  {
    "city_id": 742,
    "name_fa": "خارک",
    "name_en": "Kharg",
    "province_id": 7,
    "latitude": 29.245223,
    "longitude": 50.3117014
  },
  {
    "city_id": 980,
    "name_fa": "گرمه",
    "name_en": "Garmeh",
    "province_id": 12,
    "latitude": 33.5262879,
    "longitude": 55.0397342
  },
  {
    "city_id": 1256,
    "name_fa": "تاکستان",
    "name_en": "Takestan",
    "province_id": 18,
    "latitude": 36.0726006,
    "longitude": 49.6937027
  },
  {
    "city_id": 1688,
    "name_fa": "احمدآباد",
    "name_en": "Ahmadabad",
    "province_id": 31,
    "latitude": 36.2325705,
    "longitude": 59.884489
  },
  {
    "city_id": 895,
    "name_fa": "شاندیز",
    "name_en": "Shandiz",
    "province_id": 11,
    "latitude": 36.3958867,
    "longitude": 59.2985989
  },
  {
    "city_id": 907,
    "name_fa": "رباط سنگ",
    "name_en": "Robat Sang",
    "province_id": 11,
    "latitude": 35.5460635,
    "longitude": 59.1938079
  },
  {
    "city_id": 944,
    "name_fa": "کاشمر",
    "name_en": "Kashmar",
    "province_id": 11,
    "latitude": 35.2446715,
    "longitude": 58.4641341
  },
  {
    "city_id": 884,
    "name_fa": "خضری دشت بیاض",
    "name_en": "Khezri Dasht Beyaz",
    "province_id": 10,
    "latitude": 34.0216542,
    "longitude": 58.8140837
  },
  {
    "city_id": 947,
    "name_fa": "بیدخت",
    "name_en": "Bidokht",
    "province_id": 11,
    "latitude": 34.3463245,
    "longitude": 58.7573243
  },
  {
    "city_id": 972,
    "name_fa": "زیارت",
    "name_en": "Ziarat Village",
    "province_id": 12,
    "latitude": 36.7073223,
    "longitude": 54.4772878
  },
  {
    "city_id": 892,
    "name_fa": "انابد",
    "name_en": "Anabad",
    "province_id": 11,
    "latitude": 35.2518801,
    "longitude": 57.8097031
  },
  {
    "city_id": 893,
    "name_fa": "بردسکن",
    "name_en": "Bardaskan",
    "province_id": 11,
    "latitude": 35.2611338,
    "longitude": 57.9685311
  },
  {
    "city_id": 914,
    "name_fa": "خلیل آباد",
    "name_en": "Khalil Abad",
    "province_id": 11,
    "latitude": 35.2522848,
    "longitude": 58.2852634
  },
  {
    "city_id": 928,
    "name_fa": "رشتخوار",
    "name_en": "Roshtkhar",
    "province_id": 11,
    "latitude": 34.9751301,
    "longitude": 59.6245967
  },
  {
    "city_id": 917,
    "name_fa": "سلامی",
    "name_en": "Salami",
    "province_id": 11,
    "latitude": 34.7448255,
    "longitude": 59.9785539
  },
  {
    "city_id": 916,
    "name_fa": "خواف",
    "name_en": "Khaf",
    "province_id": 11,
    "latitude": 34.5723166,
    "longitude": 60.1440373
  },
  {
    "city_id": 918,
    "name_fa": "سنگان",
    "name_en": "Sangan",
    "province_id": 11,
    "latitude": 34.3995279,
    "longitude": 60.2571339
  },
  {
    "city_id": 920,
    "name_fa": "نشتیفان",
    "name_en": "Nashtifan",
    "province_id": 11,
    "latitude": 34.4337222,
    "longitude": 60.1777943
  },
  {
    "city_id": 889,
    "name_fa": "باخرز",
    "name_en": "Bakharz",
    "province_id": 11,
    "latitude": 34.9941781,
    "longitude": 60.3148224
  },
  {
    "city_id": 888,
    "name_fa": "نهبندان",
    "name_en": "Nehbandan",
    "province_id": 10,
    "latitude": 31.5431543,
    "longitude": 60.0349456
  },
  {
    "city_id": 875,
    "name_fa": "سربیشه",
    "name_en": "Sarbisheh",
    "province_id": 10,
    "latitude": 32.5755743,
    "longitude": 59.7970516
  },
  {
    "city_id": 883,
    "name_fa": "اسفدن",
    "name_en": "Esfeden",
    "province_id": 10,
    "latitude": 33.6446129,
    "longitude": 59.7784177
  },
  {
    "city_id": 483,
    "name_fa": "سراب",
    "name_en": "Sarab",
    "province_id": 1,
    "latitude": 34.7280959,
    "longitude": 60.0469062
  },
  {
    "city_id": 968,
    "name_fa": "جاجرم",
    "name_en": "Jajrom",
    "province_id": 12,
    "latitude": 36.9499996,
    "longitude": 56.3792939
  },
  {
    "city_id": 781,
    "name_fa": "گلستان",
    "name_en": "Golestan",
    "province_id": 8,
    "latitude": 36.3196553,
    "longitude": 59.4073761
  },
  {
    "city_id": 751,
    "name_fa": "برازجان",
    "name_en": "Borazjan",
    "province_id": 7,
    "latitude": 29.2661428,
    "longitude": 51.2120597
  },
  {
    "city_id": 754,
    "name_fa": "دالکی",
    "name_en": "Dalaki",
    "province_id": 7,
    "latitude": 29.4307486,
    "longitude": 51.2925138
  },
  {
    "city_id": 1427,
    "name_fa": "بندرگز",
    "name_en": "Bandar-e Gaz",
    "province_id": 24,
    "latitude": 36.7719958,
    "longitude": 53.9481369
  },
  {
    "city_id": 1660,
    "name_fa": "صالح آباد",
    "name_en": "Saleh Abad",
    "province_id": 30,
    "latitude": 33.4694261,
    "longitude": 46.1888889
  },
  {
    "city_id": 735,
    "name_fa": "ارکواز",
    "name_en": "Arkvaz",
    "province_id": 6,
    "latitude": 33.3846543,
    "longitude": 46.5973663
  },
  {
    "city_id": 1661,
    "name_fa": "لالجین",
    "name_en": "Lalejin",
    "province_id": 30,
    "latitude": 34.9746055,
    "longitude": 48.4750848
  },
  {
    "city_id": 1659,
    "name_fa": "بهار",
    "name_en": "Bahar",
    "province_id": 30,
    "latitude": 34.9078226,
    "longitude": 48.4393612
  },
  {
    "city_id": 1433,
    "name_fa": "رامیان",
    "name_en": "Ramian",
    "province_id": 24,
    "latitude": 37.0150484,
    "longitude": 55.1424163
  },
  {
    "city_id": 1441,
    "name_fa": "گالیکش",
    "name_en": "Galikash",
    "province_id": 24,
    "latitude": 37.2719444,
    "longitude": 55.4325
  },
  {
    "city_id": 1573,
    "name_fa": "گلوگاه",
    "name_en": "Galugah",
    "province_id": 27,
    "latitude": 36.7283914,
    "longitude": 53.8088538
  },
  {
    "city_id": 1572,
    "name_fa": "کلاردشت",
    "name_en": "Kelardasht",
    "province_id": 27,
    "latitude": 36.5055519,
    "longitude": 51.1587669
  },
  {
    "city_id": 1475,
    "name_fa": "رحیم آباد",
    "name_en": "Rahimabad",
    "province_id": 25,
    "latitude": 37.0314749,
    "longitude": 50.326393
  },
  {
    "city_id": 1483,
    "name_fa": "صومعه سرا",
    "name_en": "Sowme'eh Sara",
    "province_id": 25,
    "latitude": 37.301672,
    "longitude": 49.3147378
  },
  {
    "city_id": 1578,
    "name_fa": "ایزدشهر",
    "name_en": "Izadshahr",
    "province_id": 27,
    "latitude": 36.5987867,
    "longitude": 52.135172
  },
  {
    "city_id": 1569,
    "name_fa": "فریدونکنار",
    "name_en": "Fereydunkenar",
    "province_id": 27,
    "latitude": 36.6830883,
    "longitude": 52.5217808
  },
  {
    "city_id": 1477,
    "name_fa": "کلاچای",
    "name_en": "Kala Chay",
    "province_id": 25,
    "latitude": 37.0769158,
    "longitude": 50.3971953
  },
  {
    "city_id": 1565,
    "name_fa": "کیاکلا",
    "name_en": "Kiakola",
    "province_id": 27,
    "latitude": 36.5797187,
    "longitude": 52.8146043
  },
  {
    "city_id": 1547,
    "name_fa": "خرم آباد",
    "name_en": "Khorramabad",
    "province_id": 27,
    "latitude": 36.781374,
    "longitude": 50.8727556
  },
  {
    "city_id": 1533,
    "name_fa": "امیرکلا",
    "name_en": "Amirkola",
    "province_id": 27,
    "latitude": 36.6001749,
    "longitude": 52.6625614
  },
  {
    "city_id": 1480,
    "name_fa": "سیاهکل",
    "name_en": "Siahkal",
    "province_id": 25,
    "latitude": 37.1521893,
    "longitude": 49.8716407
  },
  {
    "city_id": 1546,
    "name_fa": "تنکابن",
    "name_en": "Tonekabon",
    "province_id": 27,
    "latitude": 36.8154324,
    "longitude": 50.8787003
  },
  {
    "city_id": 1574,
    "name_fa": "سرخرود",
    "name_en": "Sorkhrud",
    "province_id": 27,
    "latitude": 36.6712757,
    "longitude": 52.4492344
  },
  {
    "city_id": 1494,
    "name_fa": "رودبنه",
    "name_en": "Rudboneh",
    "province_id": 25,
    "latitude": 37.2548508,
    "longitude": 50.0039032
  },
  {
    "city_id": 1491,
    "name_fa": "فومن",
    "name_en": "Fuman",
    "province_id": 25,
    "latitude": 37.2273234,
    "longitude": 49.3141954
  },
  {
    "city_id": 1555,
    "name_fa": "رامسر",
    "name_en": "Ramsar",
    "province_id": 27,
    "latitude": 36.9225518,
    "longitude": 50.6431897
  },
  {
    "city_id": 1492,
    "name_fa": "ماسوله",
    "name_en": "Masouleh",
    "province_id": 25,
    "latitude": 37.1551276,
    "longitude": 48.9899692
  },
  {
    "city_id": 1478,
    "name_fa": "واجارگاه",
    "name_en": "Vajargah",
    "province_id": 25,
    "latitude": 37.03829,
    "longitude": 50.4058965
  },
  {
    "city_id": 1474,
    "name_fa": "چابکسر",
    "name_en": "Chaboksar",
    "province_id": 25,
    "latitude": 36.9743391,
    "longitude": 50.57079
  },
  {
    "city_id": 1363,
    "name_fa": "گلباف",
    "name_en": "Golbaf",
    "province_id": 21,
    "latitude": 29.8840436,
    "longitude": 57.7324102
  },
  {
    "city_id": 1360,
    "name_fa": "شهداد",
    "name_en": "Shahdad",
    "province_id": 21,
    "latitude": 30.4196387,
    "longitude": 57.7023666
  },
  {
    "city_id": 1035,
    "name_fa": "رامهرمز",
    "name_en": "Ramhormoz",
    "province_id": 13,
    "latitude": 31.2780254,
    "longitude": 49.6020152
  },
  {
    "city_id": 990,
    "name_fa": "جایزان",
    "name_en": "Jayezan",
    "province_id": 13,
    "latitude": 30.8751924,
    "longitude": 49.853429
  },
  {
    "city_id": 988,
    "name_fa": "آغاجاری",
    "name_en": "Aghajari",
    "province_id": 13,
    "latitude": 30.6995647,
    "longitude": 49.8285336
  },
  {
    "city_id": 703,
    "name_fa": "هشتگرد",
    "name_en": "Hashtgerd",
    "province_id": 5,
    "latitude": 35.9641824,
    "longitude": 50.6858036
  },
  {
    "city_id": 748,
    "name_fa": "جم",
    "name_en": "Jam",
    "province_id": 7,
    "latitude": 27.8262811,
    "longitude": 52.3263597
  },
  {
    "city_id": 549,
    "name_fa": "تازه شهر",
    "name_en": "Tazeh Shahr",
    "province_id": 2,
    "latitude": 38.1751182,
    "longitude": 44.6915009
  },
  {
    "city_id": 1168,
    "name_fa": "خنج",
    "name_en": "Khonj",
    "province_id": 17,
    "latitude": 27.8899259,
    "longitude": 53.4367822
  },
  {
    "city_id": 923,
    "name_fa": "چاپشلو",
    "name_en": "Chapeshlu",
    "province_id": 11,
    "latitude": 37.3514931,
    "longitude": 59.0774864
  },
  {
    "city_id": 908,
    "name_fa": "کدکن",
    "name_en": "Kadkan",
    "province_id": 11,
    "latitude": 35.5855764,
    "longitude": 58.8787467
  },
  {
    "city_id": 1142,
    "name_fa": "بهمن",
    "name_en": "Bahman",
    "province_id": 17,
    "latitude": 31.1952313,
    "longitude": 52.4862158
  },
  {
    "city_id": 1144,
    "name_fa": "صغاد",
    "name_en": "Soqad",
    "province_id": 17,
    "latitude": 31.1915603,
    "longitude": 52.5155699
  },
  {
    "city_id": 1420,
    "name_fa": "دوگنبدان",
    "name_en": "Dogonbadan",
    "province_id": 23,
    "latitude": 30.35695,
    "longitude": 50.7939174
  },
  {
    "city_id": 1174,
    "name_fa": "مصیری",
    "name_en": "Masiri",
    "province_id": 17,
    "latitude": 30.2432912,
    "longitude": 51.5274269
  },
  {
    "city_id": 1515,
    "name_fa": "نورآباد",
    "name_en": "Nurabad",
    "province_id": 26,
    "latitude": 30.1154071,
    "longitude": 51.5229633
  },
  {
    "city_id": 1209,
    "name_fa": "کنارتخته",
    "name_en": "Konartakhteh",
    "province_id": 17,
    "latitude": 29.5327812,
    "longitude": 51.3960796
  },
  {
    "city_id": 1246,
    "name_fa": "الوند",
    "name_en": "Alvand",
    "province_id": 18,
    "latitude": 36.1865866,
    "longitude": 50.064134
  },
  {
    "city_id": 698,
    "name_fa": "اشتهارد",
    "name_en": "Eshtehard",
    "province_id": 5,
    "latitude": 35.7234469,
    "longitude": 50.3670608
  },
  {
    "city_id": 1157,
    "name_fa": "سعادت شهر",
    "name_en": "Saadat Shahr",
    "province_id": 17,
    "latitude": 30.0797928,
    "longitude": 53.1358118
  },
  {
    "city_id": 1145,
    "name_fa": "ارسنجان",
    "name_en": "Arsanjan",
    "province_id": 17,
    "latitude": 29.914968,
    "longitude": 53.3089761
  },
  {
    "city_id": 1238,
    "name_fa": "آباده طشک",
    "name_en": "Abadeh Tashk",
    "province_id": 17,
    "latitude": 29.8078337,
    "longitude": 53.7268534
  },
  {
    "city_id": 1208,
    "name_fa": "کازرون",
    "name_en": "Kazerun",
    "province_id": 17,
    "latitude": 29.6203251,
    "longitude": 51.6520826
  },
  {
    "city_id": 1190,
    "name_fa": "فراشبند",
    "name_en": "Farashband",
    "province_id": 17,
    "latitude": 28.8553783,
    "longitude": 52.0946443
  },
  {
    "city_id": 1019,
    "name_fa": "مینوشهر",
    "name_en": "Minooshahr",
    "province_id": 13,
    "latitude": 30.3534226,
    "longitude": 48.2170496
  },
  {
    "city_id": 1031,
    "name_fa": "سوسنگرد",
    "name_en": "Susangerd",
    "province_id": 13,
    "latitude": 31.5565801,
    "longitude": 48.1880626
  },
  {
    "city_id": 1513,
    "name_fa": "زاغه",
    "name_en": "Zagheh",
    "province_id": 26,
    "latitude": 33.4999202,
    "longitude": 48.7059909
  },
  {
    "city_id": 1026,
    "name_fa": "شهر امام",
    "name_en": "Shahr-e-Emam",
    "province_id": 13,
    "latitude": 32.2280083,
    "longitude": 48.4246878
  },
  {
    "city_id": 1505,
    "name_fa": "الیگودرز",
    "name_en": "Aligudarz",
    "province_id": 26,
    "latitude": 33.4035124,
    "longitude": 49.6921874
  },
  {
    "city_id": 1038,
    "name_fa": "شادگان",
    "name_en": "Shadegan",
    "province_id": 13,
    "latitude": 30.6492516,
    "longitude": 48.6690288
  },
  {
    "city_id": 551,
    "name_fa": "شاهین دژ",
    "name_en": "Shahindezh",
    "province_id": 2,
    "latitude": 36.6784386,
    "longitude": 46.5656627
  },
  {
    "city_id": 487,
    "name_fa": "خامنه",
    "name_en": "Khamaneh",
    "province_id": 1,
    "latitude": 38.1934507,
    "longitude": 45.6298023
  },
  {
    "city_id": 1061,
    "name_fa": "هویزه",
    "name_en": "Hoveyzeh",
    "province_id": 13,
    "latitude": 31.462778,
    "longitude": 48.0755697
  },
  {
    "city_id": 1391,
    "name_fa": "صحنه",
    "name_en": "Sahneh",
    "province_id": 22,
    "latitude": 34.4812132,
    "longitude": 47.6935934
  },
  {
    "city_id": 1016,
    "name_fa": "حمیدیه",
    "name_en": "Hamidieh",
    "province_id": 13,
    "latitude": 31.4808215,
    "longitude": 48.4353791
  },
  {
    "city_id": 1522,
    "name_fa": "الشتر",
    "name_en": "Aleshtar",
    "province_id": 26,
    "latitude": 33.8627885,
    "longitude": 48.2619601
  },
  {
    "city_id": 733,
    "name_fa": "میمه",
    "name_en": "Meymeh",
    "province_id": 6,
    "latitude": 33.2280492,
    "longitude": 46.919563
  },
  {
    "city_id": 1403,
    "name_fa": "بیستون",
    "name_en": "Bisotun",
    "province_id": 22,
    "latitude": 34.3995692,
    "longitude": 47.4448343
  },
  {
    "city_id": 1030,
    "name_fa": "بستان",
    "name_en": "Bostan",
    "province_id": 13,
    "latitude": 31.7215101,
    "longitude": 47.9867165
  },
  {
    "city_id": 1395,
    "name_fa": "رباط",
    "name_en": "Robat",
    "province_id": 22,
    "latitude": 34.2686793,
    "longitude": 46.8039666
  },
  {
    "city_id": 1393,
    "name_fa": "سومار",
    "name_en": "Sumar",
    "province_id": 22,
    "latitude": 33.8862053,
    "longitude": 45.6388242
  },
  {
    "city_id": 1301,
    "name_fa": "مریوان",
    "name_en": "Marivan",
    "province_id": 20,
    "latitude": 35.5219063,
    "longitude": 46.1758889
  },
  {
    "city_id": 1525,
    "name_fa": "کوهدشت",
    "name_en": "Kuhdasht",
    "province_id": 26,
    "latitude": 33.533792,
    "longitude": 47.6078615
  },
  {
    "city_id": 986,
    "name_fa": "اروندکنار",
    "name_en": "Arwandkenar",
    "province_id": 13,
    "latitude": 29.9843073,
    "longitude": 48.5109871
  },
  {
    "city_id": 1060,
    "name_fa": "رفیع",
    "name_en": "Rafi",
    "province_id": 13,
    "latitude": 31.5962386,
    "longitude": 47.8919447
  },
  {
    "city_id": 489,
    "name_fa": "شبستر",
    "name_en": "Shabestar",
    "province_id": 1,
    "latitude": 38.1783704,
    "longitude": 45.7002363
  },
  {
    "city_id": 760,
    "name_fa": "خورموج",
    "name_en": "Khormoj",
    "province_id": 7,
    "latitude": 28.6543108,
    "longitude": 51.3758834
  },
  {
    "city_id": 762,
    "name_fa": "کاکی",
    "name_en": "Kaki",
    "province_id": 7,
    "latitude": 28.3366456,
    "longitude": 51.523857
  },
  {
    "city_id": 1247,
    "name_fa": "بیدستان",
    "name_en": "Bidestan",
    "province_id": 18,
    "latitude": 36.2299677,
    "longitude": 50.1234128
  },
  {
    "city_id": 1664,
    "name_fa": "سرکان",
    "name_en": "Serkan",
    "province_id": 30,
    "latitude": 34.6022187,
    "longitude": 48.4508805
  },
  {
    "city_id": 1663,
    "name_fa": "تویسرکان",
    "name_en": "Tuyserkan",
    "province_id": 30,
    "latitude": 34.5478858,
    "longitude": 48.4478184
  },
  {
    "city_id": 1676,
    "name_fa": "سامن",
    "name_en": "Samen",
    "province_id": 30,
    "latitude": 34.2090147,
    "longitude": 48.704561
  },
  {
    "city_id": 1667,
    "name_fa": "رزن",
    "name_en": "Razan",
    "province_id": 30,
    "latitude": 35.3884459,
    "longitude": 49.0344948
  },
  {
    "city_id": 1062,
    "name_fa": "ابهر",
    "name_en": "Abhar",
    "province_id": 14,
    "latitude": 36.1453765,
    "longitude": 49.2130055
  },
  {
    "city_id": 1072,
    "name_fa": "گرماب",
    "name_en": "Garmab",
    "province_id": 14,
    "latitude": 35.8479451,
    "longitude": 48.1962354
  },
  {
    "city_id": 1064,
    "name_fa": "هیدج",
    "name_en": "Hidaj",
    "province_id": 14,
    "latitude": 36.2520936,
    "longitude": 49.1302561
  },
  {
    "city_id": 1066,
    "name_fa": "زرین آباد",
    "name_en": "Zarrinabad",
    "province_id": 14,
    "latitude": 36.4284545,
    "longitude": 48.2816192
  },
  {
    "city_id": 1257,
    "name_fa": "خرمدشت",
    "name_en": "Khorramdasht",
    "province_id": 18,
    "latitude": 35.9294793,
    "longitude": 49.5117431
  },
  {
    "city_id": 1245,
    "name_fa": "آوج",
    "name_en": "Avaj",
    "province_id": 18,
    "latitude": 35.5787119,
    "longitude": 49.2235559
  },
  {
    "city_id": 1081,
    "name_fa": "دندی",
    "name_en": "Dandi",
    "province_id": 14,
    "latitude": 36.5541697,
    "longitude": 47.6207573
  },
  {
    "city_id": 1681,
    "name_fa": "نهاوند",
    "name_en": "Nahavand",
    "province_id": 30,
    "latitude": 34.1896877,
    "longitude": 48.3716218
  },
  {
    "city_id": 1679,
    "name_fa": "فیروزان",
    "name_en": "Firoozan",
    "province_id": 30,
    "latitude": 34.360476,
    "longitude": 48.1138221
  },
  {
    "city_id": 1063,
    "name_fa": "صایین قلعه",
    "name_en": "Saeen Qaleh",
    "province_id": 14,
    "latitude": 36.3038013,
    "longitude": 49.072849
  },
  {
    "city_id": 1067,
    "name_fa": "زرین رود",
    "name_en": "Zarrin Rud",
    "province_id": 14,
    "latitude": 35.7565444,
    "longitude": 48.4811949
  },
  {
    "city_id": 1074,
    "name_fa": "خرمدره",
    "name_en": "Khorramdarreh",
    "province_id": 14,
    "latitude": 36.20354,
    "longitude": 49.1881871
  },
  {
    "city_id": 1675,
    "name_fa": "زنگنه",
    "name_en": "Zangeneh",
    "province_id": 30,
    "latitude": 34.1552764,
    "longitude": 49.01032
  },
  {
    "city_id": 1104,
    "name_fa": "بزمان",
    "name_en": "Bazman",
    "province_id": 16,
    "latitude": 27.850547,
    "longitude": 60.1736164
  },
  {
    "city_id": 1124,
    "name_fa": "سرباز",
    "name_en": "Sarbaz",
    "province_id": 16,
    "latitude": 26.6321167,
    "longitude": 61.2570288
  },
  {
    "city_id": 1309,
    "name_fa": "گلزار",
    "name_en": "Golzar",
    "province_id": 21,
    "latitude": 29.7111348,
    "longitude": 57.0372966
  },
  {
    "city_id": 1350,
    "name_fa": "فاریاب",
    "name_en": "Faryab",
    "province_id": 21,
    "latitude": 28.0957745,
    "longitude": 57.2287442
  },
  {
    "city_id": 1340,
    "name_fa": "نجف شهر",
    "name_en": "Najafshahr",
    "province_id": 21,
    "latitude": 29.3897031,
    "longitude": 55.7203011
  },
  {
    "city_id": 1133,
    "name_fa": "اسپکه",
    "name_en": "Espakeh",
    "province_id": 16,
    "latitude": 26.8384487,
    "longitude": 60.1725848
  },
  {
    "city_id": 1312,
    "name_fa": "بروات",
    "name_en": "Baravat",
    "province_id": 21,
    "latitude": 29.0661863,
    "longitude": 58.404499
  },
  {
    "city_id": 1118,
    "name_fa": "سراوان",
    "name_en": "Saravan",
    "province_id": 16,
    "latitude": 27.3651673,
    "longitude": 62.3390963
  },
  {
    "city_id": 1330,
    "name_fa": "محمدآباد",
    "name_en": "Mohammadabad",
    "province_id": 21,
    "latitude": 30.8860774,
    "longitude": 61.4636468
  },
  {
    "city_id": 1338,
    "name_fa": "زیدآباد",
    "name_en": "Zeidabad",
    "province_id": 21,
    "latitude": 29.6004426,
    "longitude": 55.5367771
  },
  {
    "city_id": 1112,
    "name_fa": "بنجار",
    "name_en": "Bonjar",
    "province_id": 16,
    "latitude": 31.0428989,
    "longitude": 61.5682749
  },
  {
    "city_id": 1371,
    "name_fa": "نرماشیر",
    "name_en": "Narmashir",
    "province_id": 21,
    "latitude": 28.9513934,
    "longitude": 58.6963456
  },
  {
    "city_id": 1125,
    "name_fa": "سوران",
    "name_en": "Suran",
    "province_id": 16,
    "latitude": 27.2871579,
    "longitude": 61.9997051
  },
  {
    "city_id": 1136,
    "name_fa": "ادیمی",
    "name_en": "Adimi",
    "province_id": 16,
    "latitude": 31.1159553,
    "longitude": 61.4082693
  },
  {
    "city_id": 1122,
    "name_fa": "پیشین",
    "name_en": "Pishin",
    "province_id": 16,
    "latitude": 26.0802335,
    "longitude": 61.7515585
  },
  {
    "city_id": 1372,
    "name_fa": "نظام شهر",
    "name_en": "NezamShahr",
    "province_id": 21,
    "latitude": 28.9163336,
    "longitude": 58.5496666
  },
  {
    "city_id": 1365,
    "name_fa": "محی آباد",
    "name_en": "Mohiabad",
    "province_id": 21,
    "latitude": 30.0837663,
    "longitude": 57.162155
  },
  {
    "city_id": 1356,
    "name_fa": "جوپار",
    "name_en": "Jupar",
    "province_id": 21,
    "latitude": 30.0602871,
    "longitude": 57.1107791
  },
  {
    "city_id": 876,
    "name_fa": "مود",
    "name_en": "Mud",
    "province_id": 10,
    "latitude": 32.7063592,
    "longitude": 59.5243809
  },
  {
    "city_id": 864,
    "name_fa": "خوسف",
    "name_en": "Khusf",
    "province_id": 10,
    "latitude": 32.7796665,
    "longitude": 58.8928449
  },
  {
    "city_id": 1326,
    "name_fa": "مس سرچشمه",
    "name_en": "Mes-e Sarcheshmeh",
    "province_id": 21,
    "latitude": 29.9969927,
    "longitude": 55.7961096
  },
  {
    "city_id": 866,
    "name_fa": "اسدیه",
    "name_en": "Asadiyeh",
    "province_id": 10,
    "latitude": 32.914166,
    "longitude": 60.0211709
  },
  {
    "city_id": 1322,
    "name_fa": "بهرمان",
    "name_en": "Bahreman",
    "province_id": 21,
    "latitude": 30.9034647,
    "longitude": 55.7289235
  },
  {
    "city_id": 874,
    "name_fa": "سه قلعه",
    "name_en": "Se Qaleh",
    "province_id": 10,
    "latitude": 33.6672142,
    "longitude": 58.3974252
  },
  {
    "city_id": 1367,
    "name_fa": "کیانشهر",
    "name_en": "Kianshahr",
    "province_id": 21,
    "latitude": 31.155512,
    "longitude": 56.3803406
  },
  {
    "city_id": 872,
    "name_fa": "آیسک",
    "name_en": "Ayask",
    "province_id": 10,
    "latitude": 33.8862967,
    "longitude": 58.3810693
  },
  {
    "city_id": 887,
    "name_fa": "شوسف",
    "name_en": "Shusef",
    "province_id": 10,
    "latitude": 31.8035023,
    "longitude": 60.0099186
  },
  {
    "city_id": 1689,
    "name_fa": "اردکان",
    "name_en": "Ardakan",
    "province_id": 31,
    "latitude": 30.2623521,
    "longitude": 51.9836519
  },
  {
    "city_id": 831,
    "name_fa": "بن",
    "name_en": "Ben",
    "province_id": 9,
    "latitude": 32.5422671,
    "longitude": 50.7453326
  },
  {
    "city_id": 858,
    "name_fa": "لردگان",
    "name_en": "Lordegan",
    "province_id": 9,
    "latitude": 31.5135384,
    "longitude": 50.8300461
  },
  {
    "city_id": 683,
    "name_fa": "مبارکه",
    "name_en": "Mobarakeh",
    "province_id": 4,
    "latitude": 32.3424135,
    "longitude": 51.5046633
  },
  {
    "city_id": 833,
    "name_fa": "سامان",
    "name_en": "Saman",
    "province_id": 9,
    "latitude": 32.4529354,
    "longitude": 50.9104233
  },
  {
    "city_id": 682,
    "name_fa": "کرکوند",
    "name_en": "Karkevand",
    "province_id": 4,
    "latitude": 32.3460971,
    "longitude": 51.4473626
  },
  {
    "city_id": 850,
    "name_fa": "چلگرد",
    "name_en": "Chelgerd",
    "province_id": 9,
    "latitude": 32.4682525,
    "longitude": 50.1222437
  },
  {
    "city_id": 821,
    "name_fa": "اردل",
    "name_en": "Ardal",
    "province_id": 9,
    "latitude": 31.997682,
    "longitude": 50.6609476
  },
  {
    "city_id": 847,
    "name_fa": "فارسان",
    "name_en": "Farsan",
    "province_id": 9,
    "latitude": 32.2549162,
    "longitude": 50.5624938
  },
  {
    "city_id": 826,
    "name_fa": "بلداجی",
    "name_en": "Boldaji",
    "province_id": 9,
    "latitude": 31.9365711,
    "longitude": 51.0513348
  },
  {
    "city_id": 1692,
    "name_fa": "خضرآباد",
    "name_en": "Khezrababd",
    "province_id": 31,
    "latitude": 31.8660363,
    "longitude": 53.9524198
  },
  {
    "city_id": 1696,
    "name_fa": "نیر",
    "name_en": "Nir",
    "province_id": 31,
    "latitude": 31.4845702,
    "longitude": 54.1259966
  },
  {
    "city_id": 1702,
    "name_fa": "ندوشن",
    "name_en": "Nadushan",
    "province_id": 31,
    "latitude": 32.0281951,
    "longitude": 53.5494049
  },
  {
    "city_id": 1699,
    "name_fa": "مهریز",
    "name_en": "Mehriz",
    "province_id": 31,
    "latitude": 31.5841945,
    "longitude": 54.4445661
  },
  {
    "city_id": 1694,
    "name_fa": "بهاباد",
    "name_en": "Behabad",
    "province_id": 31,
    "latitude": 31.876794,
    "longitude": 56.0191037
  },
  {
    "city_id": 1698,
    "name_fa": "هرات",
    "name_en": "Harat",
    "province_id": 31,
    "latitude": 30.0585897,
    "longitude": 54.3674023
  },
  {
    "city_id": 1695,
    "name_fa": "تفت",
    "name_en": "Taft",
    "province_id": 31,
    "latitude": 31.752049,
    "longitude": 54.217422
  },
  {
    "city_id": 1697,
    "name_fa": "مروست",
    "name_en": "Marvast",
    "province_id": 31,
    "latitude": 30.4774172,
    "longitude": 54.2126137
  },
  {
    "city_id": 1687,
    "name_fa": "مهردشت",
    "name_en": "Mehrdasht",
    "province_id": 31,
    "latitude": 31.0244526,
    "longitude": 53.3488446
  },
  {
    "city_id": 660,
    "name_fa": "برزک",
    "name_en": "Barzok",
    "province_id": 4,
    "latitude": 33.7828104,
    "longitude": 51.2252965
  },
  {
    "city_id": 596,
    "name_fa": "زواره",
    "name_en": "Zavareh",
    "province_id": 4,
    "latitude": 33.4469079,
    "longitude": 52.4948886
  },
  {
    "city_id": 672,
    "name_fa": "چرمهین",
    "name_en": "Chermahin",
    "province_id": 4,
    "latitude": 32.3333972,
    "longitude": 51.1898097
  },
  {
    "city_id": 679,
    "name_fa": "دیزیچه",
    "name_en": "Dizicheh",
    "province_id": 4,
    "latitude": 32.3829496,
    "longitude": 51.5128444
  },
  {
    "city_id": 678,
    "name_fa": "ورنامخواست",
    "name_en": "Varnamkhast",
    "province_id": 4,
    "latitude": 32.3589117,
    "longitude": 51.3787538
  },
  {
    "city_id": 689,
    "name_fa": "دهق",
    "name_en": "Dehagh",
    "province_id": 4,
    "latitude": 33.1049536,
    "longitude": 50.9629781
  },
  {
    "city_id": 673,
    "name_fa": "چمگردان",
    "name_en": "Chamgordan",
    "province_id": 4,
    "latitude": 32.393093,
    "longitude": 51.338919
  },
  {
    "city_id": 695,
    "name_fa": "خالدآباد",
    "name_en": "Khaledabad",
    "province_id": 4,
    "latitude": 33.6998125,
    "longitude": 51.9883183
  },
  {
    "city_id": 690,
    "name_fa": "علویجه",
    "name_en": "Alavijeh",
    "province_id": 4,
    "latitude": 33.0560985,
    "longitude": 51.0845672
  },
  {
    "city_id": 670,
    "name_fa": "باغ بهادران",
    "name_en": "Baq Bahadoran",
    "province_id": 4,
    "latitude": 32.3762181,
    "longitude": 51.1890059
  },
  {
    "city_id": 623,
    "name_fa": "عسگران",
    "name_en": "Asgaran",
    "province_id": 4,
    "latitude": 32.8646215,
    "longitude": 50.8517144
  },
  {
    "city_id": 662,
    "name_fa": "قمصر",
    "name_en": "Qamsar",
    "province_id": 4,
    "latitude": 33.753718,
    "longitude": 51.4325807
  },
  {
    "city_id": 676,
    "name_fa": "سده لنجان",
    "name_en": "Sedeh Lanjan",
    "province_id": 4,
    "latitude": 32.3783604,
    "longitude": 51.3148844
  },
  {
    "city_id": 677,
    "name_fa": "فولادشهر",
    "name_en": "Fuladshahr",
    "province_id": 4,
    "latitude": 32.4834868,
    "longitude": 51.4173278
  },
  {
    "city_id": 657,
    "name_fa": "فلاورجان",
    "name_en": "Falavarjan",
    "province_id": 4,
    "latitude": 32.5576772,
    "longitude": 51.5079153
  },
  {
    "city_id": 658,
    "name_fa": "قهدریجان",
    "name_en": "Qahderijan",
    "province_id": 4,
    "latitude": 32.577126,
    "longitude": 51.4539164
  },
  {
    "city_id": 647,
    "name_fa": "منظریه",
    "name_en": "Manzarieh",
    "province_id": 4,
    "latitude": 31.9467152,
    "longitude": 51.8714747
  },
  {
    "city_id": 655,
    "name_fa": "پیربکران",
    "name_en": "Pir Bakran",
    "province_id": 4,
    "latitude": 32.468331,
    "longitude": 51.5595521
  },
  {
    "city_id": 621,
    "name_fa": "تیران",
    "name_en": "Tiran",
    "province_id": 4,
    "latitude": 32.7039199,
    "longitude": 51.1530853
  },
  {
    "city_id": 600,
    "name_fa": "بهارستان",
    "name_en": "Baharestan",
    "province_id": 4,
    "latitude": 32.4858819,
    "longitude": 51.7785054
  },
  {
    "city_id": 692,
    "name_fa": "گلدشت",
    "name_en": "Goldasht",
    "province_id": 4,
    "latitude": 32.6247941,
    "longitude": 51.4391574
  },
  {
    "city_id": 612,
    "name_fa": "حبیب آباد",
    "name_en": "Habibabad",
    "province_id": 4,
    "latitude": 32.8276538,
    "longitude": 51.7757315
  },
  {
    "city_id": 929,
    "name_fa": "دولت آباد",
    "name_en": "Dolatabad",
    "province_id": 11,
    "latitude": 32.803716,
    "longitude": 51.69628
  },
  {
    "city_id": 614,
    "name_fa": "دستگرد",
    "name_en": "Dastgerd",
    "province_id": 4,
    "latitude": 32.8015531,
    "longitude": 51.6640173
  },
  {
    "city_id": 634,
    "name_fa": "دهاقان",
    "name_en": "Dehaqan",
    "province_id": 4,
    "latitude": 31.9367339,
    "longitude": 51.6471146
  },
  {
    "city_id": 652,
    "name_fa": "ابریشم",
    "name_en": "Abrisham",
    "province_id": 4,
    "latitude": 32.5697615,
    "longitude": 51.5712769
  },
  {
    "city_id": 629,
    "name_fa": "کوشک",
    "name_en": "Kushk",
    "province_id": 4,
    "latitude": 32.6391832,
    "longitude": 51.5004056
  },
  {
    "city_id": 903,
    "name_fa": "نصرآباد",
    "name_en": "Nasrabad",
    "province_id": 11,
    "latitude": 32.2792223,
    "longitude": 52.0600418
  },
  {
    "city_id": 609,
    "name_fa": "نیک آباد",
    "name_en": "Nikabad",
    "province_id": 4,
    "latitude": 32.3041598,
    "longitude": 52.2032026
  },
  {
    "city_id": 611,
    "name_fa": "هرند",
    "name_en": "Harand",
    "province_id": 4,
    "latitude": 32.5625906,
    "longitude": 52.4355327
  },
  {
    "city_id": 604,
    "name_fa": "سجزی",
    "name_en": "Sejzi",
    "province_id": 4,
    "latitude": 32.6900849,
    "longitude": 52.1254256
  },
  {
    "city_id": 610,
    "name_fa": "ورزنه",
    "name_en": "Varzaneh",
    "province_id": 4,
    "latitude": 32.4203632,
    "longitude": 52.6486815
  },
  {
    "city_id": 1609,
    "name_fa": "شازند",
    "name_en": "Shazand",
    "province_id": 28,
    "latitude": 33.9293155,
    "longitude": 49.4070049
  },
  {
    "city_id": 669,
    "name_fa": "گوگد",
    "name_en": "Guged",
    "province_id": 4,
    "latitude": 33.4755802,
    "longitude": 50.3554565
  },
  {
    "city_id": 1591,
    "name_fa": "تفرش",
    "name_en": "Tafresh",
    "province_id": 28,
    "latitude": 34.6927402,
    "longitude": 50.0146963
  },
  {
    "city_id": 1612,
    "name_fa": "هندودر",
    "name_en": "Hendodar",
    "province_id": 28,
    "latitude": 33.7803949,
    "longitude": 49.2308157
  },
  {
    "city_id": 799,
    "name_fa": "حسن آباد",
    "name_en": "Hasanabad",
    "province_id": 8,
    "latitude": 32.1402808,
    "longitude": 52.6278545
  },
  {
    "city_id": 667,
    "name_fa": "گلپایگان",
    "name_en": "Golpayegan",
    "province_id": 4,
    "latitude": 33.456488,
    "longitude": 50.2883303
  },
  {
    "city_id": 1586,
    "name_fa": "آشتیان",
    "name_en": "Ashtian",
    "province_id": 28,
    "latitude": 34.5216784,
    "longitude": 50.0018687
  },
  {
    "city_id": 1607,
    "name_fa": "آستانه",
    "name_en": "Astaneh",
    "province_id": 28,
    "latitude": 33.8855889,
    "longitude": 49.3521739
  },
  {
    "city_id": 606,
    "name_fa": "کوهپایه",
    "name_en": "Koohpayeh",
    "province_id": 4,
    "latitude": 32.7138321,
    "longitude": 52.4405045
  },
  {
    "city_id": 598,
    "name_fa": "اژیه",
    "name_en": "Ezhieh",
    "province_id": 4,
    "latitude": 32.4400685,
    "longitude": 52.3789114
  },
  {
    "city_id": 630,
    "name_fa": "خوانسار",
    "name_en": "Khansar",
    "province_id": 4,
    "latitude": 33.22692,
    "longitude": 50.3146044
  },
  {
    "city_id": 1595,
    "name_fa": "خنداب",
    "name_en": "Khondab",
    "province_id": 28,
    "latitude": 34.3933112,
    "longitude": 49.1840004
  },
  {
    "city_id": 1272,
    "name_fa": "کهک",
    "name_en": "Kahak",
    "province_id": 19,
    "latitude": 34.3930163,
    "longitude": 50.8648024
  },
  {
    "city_id": 1614,
    "name_fa": "فرمهین",
    "name_en": "Farmahin",
    "province_id": 28,
    "latitude": 34.5044405,
    "longitude": 49.6842027
  },
  {
    "city_id": 1593,
    "name_fa": "قورچی باشی",
    "name_en": "Qurchbashi",
    "province_id": 28,
    "latitude": 33.67494,
    "longitude": 49.8760505
  },
  {
    "city_id": 1601,
    "name_fa": "زاویه",
    "name_en": "Zavieh",
    "province_id": 28,
    "latitude": 35.3830162,
    "longitude": 50.5644495
  },
  {
    "city_id": 1615,
    "name_fa": "کمیجان",
    "name_en": "Komijan",
    "province_id": 28,
    "latitude": 34.7207822,
    "longitude": 49.3219622
  },
  {
    "city_id": 1598,
    "name_fa": "پرندک",
    "name_en": "Parandak",
    "province_id": 28,
    "latitude": 35.3617104,
    "longitude": 50.6796099
  },
  {
    "city_id": 805,
    "name_fa": "لواسان",
    "name_en": "Lavasan",
    "province_id": 8,
    "latitude": 35.8204845,
    "longitude": 51.6321444
  },
  {
    "city_id": 1271,
    "name_fa": "قنوات",
    "name_en": "Qanavat",
    "province_id": 19,
    "latitude": 34.6136599,
    "longitude": 51.0246432
  },
  {
    "city_id": 787,
    "name_fa": "پردیس",
    "name_en": "Pardis",
    "province_id": 8,
    "latitude": 35.7411286,
    "longitude": 51.815509
  },
  {
    "city_id": 801,
    "name_fa": "کهریزک",
    "name_en": "Kahrizak",
    "province_id": 8,
    "latitude": 35.517323,
    "longitude": 51.3618852
  },
  {
    "city_id": 798,
    "name_fa": "باقرشهر",
    "name_en": "Baqershahr",
    "province_id": 8,
    "latitude": 35.5338489,
    "longitude": 51.4053842
  },
  {
    "city_id": 1217,
    "name_fa": "خور",
    "name_en": "Khur",
    "province_id": 17,
    "latitude": 32.9346426,
    "longitude": 58.4379953
  },
  {
    "city_id": 1357,
    "name_fa": "چترود",
    "name_en": "Chatroud",
    "province_id": 21,
    "latitude": 30.6012065,
    "longitude": 56.9087704
  },
  {
    "city_id": 1361,
    "name_fa": "کاظم آباد",
    "name_en": "Kazemabad",
    "province_id": 21,
    "latitude": 30.5674028,
    "longitude": 56.844081
  },
  {
    "city_id": 919,
    "name_fa": "قاسم آباد",
    "name_en": "Qasemabad",
    "province_id": 11,
    "latitude": 36.2989955,
    "longitude": 59.8782631
  },
  {
    "city_id": 1390,
    "name_fa": "سنقر",
    "name_en": "Sonqor",
    "province_id": 22,
    "latitude": 34.7832217,
    "longitude": 47.5988073
  },
  {
    "city_id": 1294,
    "name_fa": "سریش آباد",
    "name_en": "Serishabad",
    "province_id": 20,
    "latitude": 35.2478257,
    "longitude": 47.778892
  },
  {
    "city_id": 1284,
    "name_fa": "دیواندره",
    "name_en": "Divandarreh",
    "province_id": 20,
    "latitude": 35.9159662,
    "longitude": 47.0193315
  },
  {
    "city_id": 563,
    "name_fa": "محمدیار",
    "name_en": "Mohammadyar",
    "province_id": 2,
    "latitude": 36.9841837,
    "longitude": 45.5167584
  },
  {
    "city_id": 526,
    "name_fa": "قوشچی",
    "name_en": "Qushchi",
    "province_id": 2,
    "latitude": 37.9929508,
    "longitude": 45.0370956
  },
  {
    "city_id": 486,
    "name_fa": "تسوج",
    "name_en": "Tasuj",
    "province_id": 1,
    "latitude": 38.3168836,
    "longitude": 45.3590459
  },
  {
    "city_id": 491,
    "name_fa": "شندآباد",
    "name_en": "Shendabad",
    "province_id": 1,
    "latitude": 38.1414419,
    "longitude": 45.6298841
  },
  {
    "city_id": 494,
    "name_fa": "وایقان",
    "name_en": "Vayqan",
    "province_id": 1,
    "latitude": 38.1304823,
    "longitude": 45.7129464
  },
  {
    "city_id": 469,
    "name_fa": "هوراند",
    "name_en": "Hurand",
    "province_id": 1,
    "latitude": 38.8604709,
    "longitude": 47.3683131
  },
  {
    "city_id": 567,
    "name_fa": "بیله سوار",
    "name_en": "Bilasuvar",
    "province_id": 3,
    "latitude": 39.3779114,
    "longitude": 48.3499706
  },
  {
    "city_id": 579,
    "name_fa": "گرمی",
    "name_en": "Germi",
    "province_id": 3,
    "latitude": 39.029223,
    "longitude": 48.0800478
  },
  {
    "city_id": 585,
    "name_fa": "مشگین شهر",
    "name_en": "Meshginshahr",
    "province_id": 3,
    "latitude": 38.3979293,
    "longitude": 47.6764836
  },
  {
    "city_id": 465,
    "name_fa": "اسکو",
    "name_en": "Osku",
    "province_id": 1,
    "latitude": 37.9161035,
    "longitude": 46.1244787
  },
  {
    "city_id": 466,
    "name_fa": "ایلخچی",
    "name_en": "Ilkhchi",
    "province_id": 1,
    "latitude": 37.9389278,
    "longitude": 45.9800159
  },
  {
    "city_id": 464,
    "name_fa": "ممقان",
    "name_en": "Mamqan",
    "province_id": 1,
    "latitude": 37.8443261,
    "longitude": 45.9729822
  },
  {
    "city_id": 463,
    "name_fa": "گوگان",
    "name_en": "Gugan",
    "province_id": 1,
    "latitude": 37.7818413,
    "longitude": 45.9038288
  },
  {
    "city_id": 508,
    "name_fa": "ملکان",
    "name_en": "Malekan",
    "province_id": 1,
    "latitude": 37.1432315,
    "longitude": 46.1056025
  },
  {
    "city_id": 915,
    "name_fa": "کندر",
    "name_en": "Kondor",
    "province_id": 11,
    "latitude": 35.2116371,
    "longitude": 58.1508386
  },
  {
    "city_id": 950,
    "name_fa": "رضویه",
    "name_en": "Razaviyeh",
    "province_id": 11,
    "latitude": 36.2064831,
    "longitude": 59.7698334
  },
  {
    "city_id": 927,
    "name_fa": "جنگل",
    "name_en": "Jangal",
    "province_id": 11,
    "latitude": 34.7033333,
    "longitude": 59.2227778
  },
  {
    "city_id": 891,
    "name_fa": "یونسی",
    "name_en": "Yoonesi",
    "province_id": 11,
    "latitude": 34.8055463,
    "longitude": 58.4372591
  },
  {
    "city_id": 961,
    "name_fa": "قدمگاه",
    "name_en": "Ghadamgah",
    "province_id": 11,
    "latitude": 36.1063279,
    "longitude": 59.0597459
  },
  {
    "city_id": 909,
    "name_fa": "جغتای",
    "name_en": "Joghatay",
    "province_id": 11,
    "latitude": 36.6387676,
    "longitude": 57.0741901
  },
  {
    "city_id": 904,
    "name_fa": "نیل شهر",
    "name_en": "Nilshahr",
    "province_id": 11,
    "latitude": 35.1224857,
    "longitude": 60.7736351
  },
  {
    "city_id": 943,
    "name_fa": "ریوش",
    "name_en": "Rivash",
    "province_id": 11,
    "latitude": 35.4751589,
    "longitude": 58.4586724
  },
  {
    "city_id": 936,
    "name_fa": "فرهادگرد",
    "name_en": "Farhad Gerd",
    "province_id": 11,
    "latitude": 35.7664697,
    "longitude": 59.7345327
  },
  {
    "city_id": 910,
    "name_fa": "نقاب",
    "name_en": "Neqab",
    "province_id": 11,
    "latitude": 36.7105093,
    "longitude": 57.4086684
  },
  {
    "city_id": 953,
    "name_fa": "ملک آباد",
    "name_en": "Malekabad",
    "province_id": 11,
    "latitude": 35.9991019,
    "longitude": 59.5918125
  },
  {
    "city_id": 960,
    "name_fa": "عشق آباد",
    "name_en": "Eshqabad",
    "province_id": 11,
    "latitude": 36.0433722,
    "longitude": 58.6829884
  },
  {
    "city_id": 932,
    "name_fa": "ششتمد",
    "name_en": "Sheshtamad",
    "province_id": 11,
    "latitude": 35.9585753,
    "longitude": 57.766785
  },
  {
    "city_id": 926,
    "name_fa": "نوخندان",
    "name_en": "Nokhandan",
    "province_id": 11,
    "latitude": 37.5200945,
    "longitude": 58.9893154
  },
  {
    "city_id": 948,
    "name_fa": "کاخک",
    "name_en": "Kakhk",
    "province_id": 11,
    "latitude": 34.1490179,
    "longitude": 58.6414603
  },
  {
    "city_id": 957,
    "name_fa": "چکنه",
    "name_en": "Chekneh",
    "province_id": 11,
    "latitude": 36.8179746,
    "longitude": 58.5035404
  },
  {
    "city_id": 930,
    "name_fa": "روداب",
    "name_en": "Rudab",
    "province_id": 11,
    "latitude": 36.0213972,
    "longitude": 57.3114353
  },
  {
    "city_id": 939,
    "name_fa": "فیروزه",
    "name_en": "Firuzeh",
    "province_id": 11,
    "latitude": 36.2863586,
    "longitude": 58.5868002
  },
  {
    "city_id": 938,
    "name_fa": "قلندرآباد",
    "name_en": "Qalandarabad",
    "province_id": 11,
    "latitude": 35.5993818,
    "longitude": 59.9498981
  },
  {
    "city_id": 959,
    "name_fa": "درود",
    "name_en": "Darrud",
    "province_id": 11,
    "latitude": 36.1386891,
    "longitude": 59.1162125
  },
  {
    "city_id": 941,
    "name_fa": "باجگیران",
    "name_en": "Bajgiran",
    "province_id": 11,
    "latitude": 37.6219339,
    "longitude": 58.4182686
  },
  {
    "city_id": 871,
    "name_fa": "زهان",
    "name_en": "Zohan",
    "province_id": 10,
    "latitude": 33.4226757,
    "longitude": 59.8126423
  },
  {
    "city_id": 886,
    "name_fa": "نیمبلوک",
    "name_en": "Nimbeluk",
    "province_id": 10,
    "latitude": 33.9122595,
    "longitude": 58.9319935
  },
  {
    "city_id": 882,
    "name_fa": "آرین شهر",
    "name_en": "Arianshahr",
    "province_id": 10,
    "latitude": 33.3319207,
    "longitude": 59.2333976
  },
  {
    "city_id": 873,
    "name_fa": "سرایان",
    "name_en": "Sarayan",
    "province_id": 10,
    "latitude": 33.8625217,
    "longitude": 58.5231892
  },
  {
    "city_id": 984,
    "name_fa": "قاضی",
    "name_en": "Ghazi",
    "province_id": 12,
    "latitude": 37.4951123,
    "longitude": 56.7479936
  },
  {
    "city_id": 970,
    "name_fa": "شوقان",
    "name_en": "Shuqan",
    "province_id": 12,
    "latitude": 37.3418549,
    "longitude": 56.886776
  },
  {
    "city_id": 969,
    "name_fa": "سنخواست",
    "name_en": "Sankhast",
    "province_id": 12,
    "latitude": 37.0997416,
    "longitude": 56.8492214
  },
  {
    "city_id": 983,
    "name_fa": "پیش قلعه",
    "name_en": "Pish Qaleh",
    "province_id": 12,
    "latitude": 37.6511535,
    "longitude": 57.0015687
  },
  {
    "city_id": 1027,
    "name_fa": "صفی آباد",
    "name_en": "Safiabad",
    "province_id": 13,
    "latitude": 36.6945776,
    "longitude": 57.9280618
  },
  {
    "city_id": 975,
    "name_fa": "لوجلی",
    "name_en": "Lujli",
    "province_id": 12,
    "latitude": 37.6069313,
    "longitude": 57.8574221
  },
  {
    "city_id": 971,
    "name_fa": "راز",
    "name_en": "Raz",
    "province_id": 12,
    "latitude": 37.9338042,
    "longitude": 57.1113879
  },
  {
    "city_id": 979,
    "name_fa": "درق",
    "name_en": "Daraq",
    "province_id": 12,
    "latitude": 36.9745545,
    "longitude": 56.2158601
  },
  {
    "city_id": 1424,
    "name_fa": "نوده خاندوز",
    "name_en": "Now Deh Khanduz",
    "province_id": 24,
    "latitude": 37.0763889,
    "longitude": 55.2625
  },
  {
    "city_id": 1423,
    "name_fa": "نگین شهر",
    "name_en": "Neginshahr",
    "province_id": 24,
    "latitude": 37.1391667,
    "longitude": 55.1638889
  },
  {
    "city_id": 1436,
    "name_fa": "فاضل آباد",
    "name_en": "Fazelabad",
    "province_id": 24,
    "latitude": 36.900353,
    "longitude": 54.7501997
  },
  {
    "city_id": 1447,
    "name_fa": "اینچه برون",
    "name_en": "Incheboron",
    "province_id": 24,
    "latitude": 37.4553436,
    "longitude": 54.7183338
  },
  {
    "city_id": 1428,
    "name_fa": "نوکنده",
    "name_en": "Nokandeh",
    "province_id": 24,
    "latitude": 36.7400119,
    "longitude": 53.9094891
  },
  {
    "city_id": 1426,
    "name_fa": "انبارآلوم",
    "name_en": "Anbarolum",
    "province_id": 24,
    "latitude": 37.137102,
    "longitude": 54.6189997
  },
  {
    "city_id": 1432,
    "name_fa": "دلند",
    "name_en": "Daland",
    "province_id": 24,
    "latitude": 37.0355462,
    "longitude": 55.0492231
  },
  {
    "city_id": 366,
    "name_fa": "مراوه تپه",
    "name_en": "Maraveh Tappeh",
    "province_id": 24,
    "latitude": 37.9042755,
    "longitude": 55.9549173
  },
  {
    "city_id": 1425,
    "name_fa": "آق قلا",
    "name_en": "Aghghala",
    "province_id": 24,
    "latitude": 37.0134841,
    "longitude": 54.4576664
  },
  {
    "city_id": 540,
    "name_fa": "ایواوغلی",
    "name_en": "Ivughli",
    "province_id": 2,
    "latitude": 38.7139034,
    "longitude": 45.206595
  },
  {
    "city_id": 1551,
    "name_fa": "کوهی خیل",
    "name_en": "Kuhi Kheyl",
    "province_id": 27,
    "latitude": 36.6879187,
    "longitude": 52.9118026
  },
  {
    "city_id": 1553,
    "name_fa": "مرزن آباد",
    "name_en": "Marzan Abad",
    "province_id": 27,
    "latitude": 36.4539793,
    "longitude": 51.3005787
  },
  {
    "city_id": 1562,
    "name_fa": "پل سفید",
    "name_en": "Pol-e Sefid",
    "province_id": 27,
    "latitude": 36.1169618,
    "longitude": 53.0574831
  },
  {
    "city_id": 1566,
    "name_fa": "سلمان شهر",
    "name_en": "Salman Shahr",
    "province_id": 27,
    "latitude": 36.7050537,
    "longitude": 51.1960013
  },
  {
    "city_id": 1580,
    "name_fa": "چمستان",
    "name_en": "Chamestan",
    "province_id": 27,
    "latitude": 36.4773762,
    "longitude": 52.1167325
  },
  {
    "city_id": 1537,
    "name_fa": "گتاب",
    "name_en": "Gatab",
    "province_id": 27,
    "latitude": 36.431717,
    "longitude": 52.6578558
  },
  {
    "city_id": 1544,
    "name_fa": "خلیل شهر",
    "name_en": "Khalil Shahr",
    "province_id": 27,
    "latitude": 36.7013487,
    "longitude": 53.6402049
  },
  {
    "city_id": 1530,
    "name_fa": "دابودشت",
    "name_en": "Daboodasht",
    "province_id": 27,
    "latitude": 36.4792745,
    "longitude": 52.4496747
  },
  {
    "city_id": 1579,
    "name_fa": "بلده",
    "name_en": "Baladeh",
    "province_id": 27,
    "latitude": 36.202753,
    "longitude": 51.8089289
  },
  {
    "city_id": 1576,
    "name_fa": "سورک",
    "name_en": "Surak",
    "province_id": 27,
    "latitude": 36.596122,
    "longitude": 53.2108207
  },
  {
    "city_id": 1539,
    "name_fa": "مرزیکلا",
    "name_en": "Marzikola",
    "province_id": 27,
    "latitude": 36.3636458,
    "longitude": 52.7341391
  },
  {
    "city_id": 1559,
    "name_fa": "فریم",
    "name_en": "Farim",
    "province_id": 27,
    "latitude": 36.1757554,
    "longitude": 53.2653624
  },
  {
    "city_id": 1564,
    "name_fa": "شیرگاه",
    "name_en": "Shirgah",
    "province_id": 27,
    "latitude": 36.2995295,
    "longitude": 52.8865124
  },
  {
    "city_id": 1542,
    "name_fa": "هادی شهر",
    "name_en": "Hadishahr",
    "province_id": 27,
    "latitude": 36.6416925,
    "longitude": 52.6272276
  },
  {
    "city_id": 1549,
    "name_fa": "نشتارود",
    "name_en": "Nashtarood",
    "province_id": 27,
    "latitude": 36.7486267,
    "longitude": 51.0358454
  },
  {
    "city_id": 1462,
    "name_fa": "کوچصفهان",
    "name_en": "Kuchesfahan",
    "province_id": 25,
    "latitude": 37.2787049,
    "longitude": 49.7721208
  },
  {
    "city_id": 648,
    "name_fa": "داران",
    "name_en": "Daran",
    "province_id": 4,
    "latitude": 32.9865555,
    "longitude": 50.4138667
  },
  {
    "city_id": 843,
    "name_fa": "باباحیدر",
    "name_en": "Babaheydar",
    "province_id": 9,
    "latitude": 32.3276473,
    "longitude": 50.4743756
  },
  {
    "city_id": 1085,
    "name_fa": "امیریه",
    "name_en": "Amiriyeh",
    "province_id": 15,
    "latitude": 36.0268156,
    "longitude": 54.1405503
  },
  {
    "city_id": 1095,
    "name_fa": "کلاته خیج",
    "name_en": "Kalateh Khij",
    "province_id": 15,
    "latitude": 36.6737481,
    "longitude": 55.2968812
  },
  {
    "city_id": 1092,
    "name_fa": "بیارجمند",
    "name_en": "Beyarjmand",
    "province_id": 15,
    "latitude": 36.0790243,
    "longitude": 55.8098841
  },
  {
    "city_id": 1083,
    "name_fa": "آرادان",
    "name_en": "Aradan",
    "province_id": 15,
    "latitude": 35.2478246,
    "longitude": 52.4928417
  },
  {
    "city_id": 1096,
    "name_fa": "مجن",
    "name_en": "Mojen",
    "province_id": 15,
    "latitude": 36.4796519,
    "longitude": 54.6483772
  },
  {
    "city_id": 1089,
    "name_fa": "سرخه",
    "name_en": "Sorkheh",
    "province_id": 15,
    "latitude": 35.4638851,
    "longitude": 53.2135038
  },
  {
    "city_id": 1705,
    "name_fa": "شاهدیه",
    "name_en": "Shahediyeh",
    "province_id": 31,
    "latitude": 31.9422469,
    "longitude": 54.2828268
  },
  {
    "city_id": 1640,
    "name_fa": "فارغان",
    "name_en": "Fareghan",
    "province_id": 29,
    "latitude": 28.0077984,
    "longitude": 56.255127
  },
  {
    "city_id": 1620,
    "name_fa": "بستک",
    "name_en": "Bastak",
    "province_id": 29,
    "latitude": 27.1977195,
    "longitude": 54.362564
  },
  {
    "city_id": 1627,
    "name_fa": "فین",
    "name_en": "Fin",
    "province_id": 29,
    "latitude": 27.6310402,
    "longitude": 55.8952572
  },
  {
    "city_id": 1621,
    "name_fa": "جناح",
    "name_en": "Jenah",
    "province_id": 29,
    "latitude": 27.0173998,
    "longitude": 54.2839961
  },
  {
    "city_id": 1649,
    "name_fa": "درگهان",
    "name_en": "Dargahan",
    "province_id": 29,
    "latitude": 26.9674546,
    "longitude": 56.0778103
  },
  {
    "city_id": 1645,
    "name_fa": "زیارتعلی",
    "name_en": "Ziaratali",
    "province_id": 29,
    "latitude": 27.7414567,
    "longitude": 57.2264015
  },
  {
    "city_id": 438,
    "name_fa": "رودان",
    "name_en": "Roudan",
    "province_id": 29,
    "latitude": 27.4413347,
    "longitude": 57.1909085
  },
  {
    "city_id": 1634,
    "name_fa": "پارسیان",
    "name_en": "Parsian",
    "province_id": 29,
    "latitude": 27.2082174,
    "longitude": 53.0351431
  },
  {
    "city_id": 1650,
    "name_fa": "سوزا",
    "name_en": "Suza",
    "province_id": 29,
    "latitude": 26.777574,
    "longitude": 56.0631263
  },
  {
    "city_id": 1646,
    "name_fa": "سیریک",
    "name_en": "Seerik",
    "province_id": 29,
    "latitude": 26.5177389,
    "longitude": 57.101798
  },
  {
    "city_id": 750,
    "name_fa": "آب پخش",
    "name_en": "Ab Pakhsh",
    "province_id": 7,
    "latitude": 29.3604336,
    "longitude": 51.0713656
  },
  {
    "city_id": 764,
    "name_fa": "بردخون",
    "name_en": "Bordekhoon",
    "province_id": 7,
    "latitude": 28.0623996,
    "longitude": 51.4771795
  },
  {
    "city_id": 763,
    "name_fa": "آبدان",
    "name_en": "Abedan",
    "province_id": 7,
    "latitude": 28.0811819,
    "longitude": 51.7703454
  },
  {
    "city_id": 756,
    "name_fa": "شبانکاره",
    "name_en": "Shabankareh",
    "province_id": 7,
    "latitude": 29.4696724,
    "longitude": 50.9909974
  },
  {
    "city_id": 757,
    "name_fa": "کلمه",
    "name_en": "Kalameh",
    "province_id": 7,
    "latitude": 28.9436694,
    "longitude": 51.4581903
  },
  {
    "city_id": 771,
    "name_fa": "نخل تقی",
    "name_en": "Nakhl-e Taghi",
    "province_id": 7,
    "latitude": 27.4980795,
    "longitude": 52.583854
  },
  {
    "city_id": 749,
    "name_fa": "ریز",
    "name_en": "Riz",
    "province_id": 7,
    "latitude": 28.0517466,
    "longitude": 52.0837191
  },
  {
    "city_id": 746,
    "name_fa": "دلوار",
    "name_en": "Delvar",
    "province_id": 7,
    "latitude": 28.7628729,
    "longitude": 51.0719232
  },
  {
    "city_id": 758,
    "name_fa": "وحدتیه",
    "name_en": "Vahdatiyeh",
    "province_id": 7,
    "latitude": 29.48306,
    "longitude": 51.2369657
  },
  {
    "city_id": 753,
    "name_fa": "تنگ ارم",
    "name_en": "Tang-e Eram",
    "province_id": 7,
    "latitude": 29.1544748,
    "longitude": 51.5293588
  },
  {
    "city_id": 745,
    "name_fa": "اهرم",
    "name_en": "Ahram",
    "province_id": 7,
    "latitude": 28.8830282,
    "longitude": 51.2742019
  },
  {
    "city_id": 1486,
    "name_fa": "اسالم",
    "name_en": "Asalem",
    "province_id": 25,
    "latitude": 37.720567,
    "longitude": 48.9583895
  },
  {
    "city_id": 573,
    "name_fa": "خلخال",
    "name_en": "Khalkhal",
    "province_id": 3,
    "latitude": 37.6192217,
    "longitude": 48.5278144
  },
  {
    "city_id": 1411,
    "name_fa": "لیکک",
    "name_en": "Likak",
    "province_id": 23,
    "latitude": 30.8924843,
    "longitude": 50.0917097
  },
  {
    "city_id": 1416,
    "name_fa": "دهدشت",
    "name_en": "Dehdasht",
    "province_id": 23,
    "latitude": 30.7923985,
    "longitude": 50.562923
  },
  {
    "city_id": 1421,
    "name_fa": "لنده",
    "name_en": "Landeh",
    "province_id": 23,
    "latitude": 30.9795975,
    "longitude": 50.4238799
  },
  {
    "city_id": 1417,
    "name_fa": "دیشموک",
    "name_en": "Dishmuk",
    "province_id": 23,
    "latitude": 31.2969774,
    "longitude": 50.4022724
  },
  {
    "city_id": 1412,
    "name_fa": "چرام",
    "name_en": "Charam",
    "province_id": 23,
    "latitude": 30.750813,
    "longitude": 50.7419101
  },
  {
    "city_id": 1409,
    "name_fa": "مارگون",
    "name_en": "Margown",
    "province_id": 23,
    "latitude": 30.9921088,
    "longitude": 51.0829701
  },
  {
    "city_id": 1418,
    "name_fa": "سوق",
    "name_en": "Suq",
    "province_id": 23,
    "latitude": 30.8608561,
    "longitude": 50.4565101
  },
  {
    "city_id": 1407,
    "name_fa": "گراب سفلی",
    "name_en": "Garab-e Sofla",
    "province_id": 23,
    "latitude": 30.9426038,
    "longitude": 50.8983137
  },
  {
    "city_id": 1437,
    "name_fa": "مزرعه",
    "name_en": "Mazra'",
    "province_id": 24,
    "latitude": 31.1700986,
    "longitude": 52.5708814
  },
  {
    "city_id": 1499,
    "name_fa": "کومله",
    "name_en": "Kumeleh",
    "province_id": 25,
    "latitude": 37.1523678,
    "longitude": 50.1740681
  },
  {
    "city_id": 1461,
    "name_fa": "سنگر",
    "name_en": "Sangar",
    "province_id": 25,
    "latitude": 37.179787,
    "longitude": 49.6947763
  },
  {
    "city_id": 1452,
    "name_fa": "لوندویل",
    "name_en": "Lavandevil",
    "province_id": 25,
    "latitude": 38.3082625,
    "longitude": 48.8675037
  },
  {
    "city_id": 1484,
    "name_fa": "گوراب زرمیخ",
    "name_en": "Gorabzarmikh",
    "province_id": 25,
    "latitude": 37.3021335,
    "longitude": 49.2208733
  },
  {
    "city_id": 1463,
    "name_fa": "لشت نشاء",
    "name_en": "Lashtnesha",
    "province_id": 25,
    "latitude": 37.3602271,
    "longitude": 49.862286
  },
  {
    "city_id": 1469,
    "name_fa": "جیرنده",
    "name_en": "Jirandeh",
    "province_id": 25,
    "latitude": 36.7021301,
    "longitude": 49.7957151
  },
  {
    "city_id": 1465,
    "name_fa": "پره سر",
    "name_en": "Pareh sar",
    "province_id": 25,
    "latitude": 37.6026842,
    "longitude": 49.0656917
  },
  {
    "city_id": 1488,
    "name_fa": "حویق",
    "name_en": "Haviq",
    "province_id": 25,
    "latitude": 38.1479478,
    "longitude": 48.8945515
  },
  {
    "city_id": 1459,
    "name_fa": "خمام",
    "name_en": "Khomam",
    "province_id": 25,
    "latitude": 37.3904902,
    "longitude": 49.6607472
  },
  {
    "city_id": 1498,
    "name_fa": "شلمان",
    "name_en": "Shalman",
    "province_id": 25,
    "latitude": 37.1559178,
    "longitude": 50.2161864
  },
  {
    "city_id": 1468,
    "name_fa": "توتکابن",
    "name_en": "Tutkabon",
    "province_id": 25,
    "latitude": 36.8928479,
    "longitude": 49.5276938
  },
  {
    "city_id": 1458,
    "name_fa": "خشکبیجار",
    "name_en": "Khoshkebijar",
    "province_id": 25,
    "latitude": 37.3742058,
    "longitude": 49.7581583
  },
  {
    "city_id": 1482,
    "name_fa": "شفت",
    "name_en": "Shaft",
    "province_id": 25,
    "latitude": 37.1703562,
    "longitude": 49.4027782
  },
  {
    "city_id": 1479,
    "name_fa": "دیلمان",
    "name_en": "Deylaman",
    "province_id": 25,
    "latitude": 36.8884879,
    "longitude": 49.906745
  },
  {
    "city_id": 1502,
    "name_fa": "ماسال",
    "name_en": "Masal",
    "province_id": 25,
    "latitude": 37.3640801,
    "longitude": 49.1328792
  },
  {
    "city_id": 1487,
    "name_fa": "چوبر",
    "name_en": "Chobar",
    "province_id": 25,
    "latitude": 37.0926728,
    "longitude": 49.4140997
  },
  {
    "city_id": 589,
    "name_fa": "کوراییم",
    "name_en": "Kuraiem",
    "province_id": 3,
    "latitude": 37.9552413,
    "longitude": 48.2355776
  },
  {
    "city_id": 583,
    "name_fa": "لاهرود",
    "name_en": "Lahrud",
    "province_id": 3,
    "latitude": 38.5081222,
    "longitude": 47.8316745
  },
  {
    "city_id": 587,
    "name_fa": "عنبران",
    "name_en": "Anbaran",
    "province_id": 3,
    "latitude": 38.4900003,
    "longitude": 48.4355097
  },
  {
    "city_id": 586,
    "name_fa": "آبی بیگلو",
    "name_en": "Abibiglou",
    "province_id": 3,
    "latitude": 38.28365,
    "longitude": 48.5527012
  },
  {
    "city_id": 566,
    "name_fa": "هیر",
    "name_en": "Hir",
    "province_id": 3,
    "latitude": 38.0801837,
    "longitude": 48.5065169
  },
  {
    "city_id": 568,
    "name_fa": "جعفرآباد",
    "name_en": "Jafarabad",
    "province_id": 3,
    "latitude": 39.4356852,
    "longitude": 48.0946149
  },
  {
    "city_id": 588,
    "name_fa": "نمین",
    "name_en": "Namin",
    "province_id": 3,
    "latitude": 38.4240161,
    "longitude": 48.4840477
  },
  {
    "city_id": 580,
    "name_fa": "رضی",
    "name_en": "Razey",
    "province_id": 3,
    "latitude": 38.6296398,
    "longitude": 48.0956519
  },
  {
    "city_id": 574,
    "name_fa": "کلور",
    "name_en": "Kolur",
    "province_id": 3,
    "latitude": 37.3889125,
    "longitude": 48.7221802
  },
  {
    "city_id": 1068,
    "name_fa": "سجاس",
    "name_en": "Sojas",
    "province_id": 14,
    "latitude": 36.2402834,
    "longitude": 48.5530842
  },
  {
    "city_id": 1079,
    "name_fa": "آب بر",
    "name_en": "Ab Bar",
    "province_id": 14,
    "latitude": 36.9258587,
    "longitude": 48.953276
  },
  {
    "city_id": 1070,
    "name_fa": "قیدار",
    "name_en": "Qeydar",
    "province_id": 14,
    "latitude": 36.1227353,
    "longitude": 48.591074
  },
  {
    "city_id": 1082,
    "name_fa": "ماه نشان",
    "name_en": "Mah Neshan",
    "province_id": 14,
    "latitude": 36.7456508,
    "longitude": 47.6716751
  },
  {
    "city_id": 1080,
    "name_fa": "چورزق",
    "name_en": "Chavarzagh",
    "province_id": 14,
    "latitude": 36.9982345,
    "longitude": 48.7776206
  },
  {
    "city_id": 1202,
    "name_fa": "قیر",
    "name_en": "Qir",
    "province_id": 17,
    "latitude": 28.482802,
    "longitude": 53.0357558
  },
  {
    "city_id": 359,
    "name_fa": "علی آباد",
    "name_en": "Aliabad",
    "province_id": 24,
    "latitude": 28.422602,
    "longitude": 53.1891224
  },
  {
    "city_id": 1199,
    "name_fa": "میمند",
    "name_en": "Meimand",
    "province_id": 17,
    "latitude": 28.8666095,
    "longitude": 52.7485061
  },
  {
    "city_id": 1163,
    "name_fa": "قطب آباد",
    "name_en": "Qotbabad",
    "province_id": 17,
    "latitude": 28.6393017,
    "longitude": 53.6378046
  },
  {
    "city_id": 1192,
    "name_fa": "زاهدشهر",
    "name_en": "Zahedshahr",
    "province_id": 17,
    "latitude": 28.7484346,
    "longitude": 53.8041063
  },
  {
    "city_id": 1197,
    "name_fa": "نوبندگان",
    "name_en": "Now Bandegan",
    "province_id": 17,
    "latitude": 28.8545602,
    "longitude": 53.8259023
  },
  {
    "city_id": 1193,
    "name_fa": "ششده",
    "name_en": "Sheshdeh",
    "province_id": 17,
    "latitude": 28.9486348,
    "longitude": 53.9955053
  },
  {
    "city_id": 168,
    "name_fa": "بینالود",
    "name_en": "Binalood",
    "province_id": 11,
    "latitude": 35.9959371,
    "longitude": 59.3398554
  },
  {
    "city_id": 1131,
    "name_fa": "مهرستان",
    "name_en": "Mehrestan",
    "province_id": 16,
    "latitude": 27.1310393,
    "longitude": 61.6746528
  },
  {
    "city_id": 1348,
    "name_fa": "عنبرآباد",
    "name_en": "Anbarabad",
    "province_id": 21,
    "latitude": 28.4779105,
    "longitude": 57.844051
  },
  {
    "city_id": 1352,
    "name_fa": "قلعه گنج",
    "name_en": "Qaleh Ganj",
    "province_id": 21,
    "latitude": 27.5239005,
    "longitude": 57.8771387
  },
  {
    "city_id": 476,
    "name_fa": "سردرود",
    "name_en": "Sardrud",
    "province_id": 1,
    "latitude": 38.0278895,
    "longitude": 46.1474327
  },
  {
    "city_id": 506,
    "name_fa": "لیلان",
    "name_en": "Leylan",
    "province_id": 1,
    "latitude": 37.0111324,
    "longitude": 46.2059139
  },
  {
    "city_id": 485,
    "name_fa": "مهربان",
    "name_en": "Mehraban",
    "province_id": 1,
    "latitude": 38.0806733,
    "longitude": 47.1317722
  },
  {
    "city_id": 512,
    "name_fa": "ترکمانچای",
    "name_en": "Torkamanchay",
    "province_id": 1,
    "latitude": 37.5816929,
    "longitude": 47.3911101
  },
  {
    "city_id": 518,
    "name_fa": "زرنق",
    "name_en": "Zarnaq",
    "province_id": 1,
    "latitude": 38.0922769,
    "longitude": 47.082889
  },
  {
    "city_id": 488,
    "name_fa": "سیس",
    "name_en": "Sis",
    "province_id": 1,
    "latitude": 38.1997037,
    "longitude": 45.8124325
  },
  {
    "city_id": 497,
    "name_fa": "آبش احمد",
    "name_en": "Abish Ahmad",
    "province_id": 1,
    "latitude": 39.0431974,
    "longitude": 47.3169755
  },
  {
    "city_id": 517,
    "name_fa": "خواجه",
    "name_en": "Khajeh",
    "province_id": 1,
    "latitude": 38.1529122,
    "longitude": 46.5827856
  },
  {
    "city_id": 480,
    "name_fa": "قره آغاج",
    "name_en": "Qara-aghaj",
    "province_id": 1,
    "latitude": 37.1283853,
    "longitude": 46.9745628
  },
  {
    "city_id": 493,
    "name_fa": "کوزه کنان",
    "name_en": "Kuzekonan",
    "province_id": 1,
    "latitude": 38.1865623,
    "longitude": 45.5751442
  },
  {
    "city_id": 502,
    "name_fa": "زنوز",
    "name_en": "Zonuz",
    "province_id": 1,
    "latitude": 38.5880287,
    "longitude": 45.8319818
  },
  {
    "city_id": 521,
    "name_fa": "نظرکهریزی",
    "name_en": "Nazarkahrizi",
    "province_id": 1,
    "latitude": 37.34697,
    "longitude": 46.7629592
  },
  {
    "city_id": 516,
    "name_fa": "بخشایش",
    "name_en": "Bakhshayesh",
    "province_id": 1,
    "latitude": 38.131648,
    "longitude": 46.9471214
  },
  {
    "city_id": 478,
    "name_fa": "سیه رود",
    "name_en": "Siyahrud",
    "province_id": 1,
    "latitude": 38.8693808,
    "longitude": 46.0023332
  },
  {
    "city_id": 505,
    "name_fa": "یامچی",
    "name_en": "Yamchi",
    "province_id": 1,
    "latitude": 38.5223144,
    "longitude": 45.6404499
  },
  {
    "city_id": 514,
    "name_fa": "خاروانا",
    "name_en": "Kharvana",
    "province_id": 1,
    "latitude": 38.6851329,
    "longitude": 46.1697582
  },
  {
    "city_id": 520,
    "name_fa": "هریس",
    "name_en": "Heris",
    "province_id": 1,
    "latitude": 38.2472611,
    "longitude": 47.1162759
  },
  {
    "city_id": 471,
    "name_fa": "تیکمه داش",
    "name_en": "Tikmedash",
    "province_id": 1,
    "latitude": 37.7257203,
    "longitude": 46.9375589
  },
  {
    "city_id": 511,
    "name_fa": "ترک",
    "name_en": "Tark",
    "province_id": 1,
    "latitude": 37.6162908,
    "longitude": 47.7709614
  },
  {
    "city_id": 503,
    "name_fa": "کشکسرای",
    "name_en": "Koshksaray",
    "province_id": 1,
    "latitude": 38.458553,
    "longitude": 45.5673225
  },
  {
    "city_id": 482,
    "name_fa": "دوزدوزان",
    "name_en": "Duzduzan",
    "province_id": 1,
    "latitude": 37.948976,
    "longitude": 47.119787
  },
  {
    "city_id": 561,
    "name_fa": "چهاربرج",
    "name_en": "Chaharborj",
    "province_id": 2,
    "latitude": 37.1250023,
    "longitude": 45.9772001
  },
  {
    "city_id": 531,
    "name_fa": "سیمینه",
    "name_en": "Simineh",
    "province_id": 2,
    "latitude": 36.7303445,
    "longitude": 46.1534194
  },
  {
    "city_id": 537,
    "name_fa": "آواجیق",
    "name_en": "Avajiq",
    "province_id": 2,
    "latitude": 39.3301839,
    "longitude": 44.1538901
  },
  {
    "city_id": 548,
    "name_fa": "میرآباد",
    "name_en": "Mirabad",
    "province_id": 2,
    "latitude": 36.4055055,
    "longitude": 45.3719463
  },
  {
    "city_id": 554,
    "name_fa": "شوط",
    "name_en": "Showt",
    "province_id": 2,
    "latitude": 39.2178874,
    "longitude": 44.7711898
  },
  {
    "city_id": 538,
    "name_fa": "سیه چشمه",
    "name_en": "Chaldran",
    "province_id": 2,
    "latitude": 39.0651269,
    "longitude": 44.3844026
  },
  {
    "city_id": 552,
    "name_fa": "کشاورز",
    "name_en": "Keshavarz",
    "province_id": 2,
    "latitude": 36.8355495,
    "longitude": 46.3573777
  },
  {
    "city_id": 544,
    "name_fa": "فیرورق",
    "name_en": "Firuraq",
    "province_id": 2,
    "latitude": 38.5821035,
    "longitude": 44.8316495
  },
  {
    "city_id": 546,
    "name_fa": "ربط",
    "name_en": "Rabat",
    "province_id": 2,
    "latitude": 36.2092112,
    "longitude": 45.5542469
  },
  {
    "city_id": 557,
    "name_fa": "ماکو",
    "name_en": "Maku",
    "province_id": 2,
    "latitude": 39.2909641,
    "longitude": 44.4521379
  },
  {
    "city_id": 637,
    "name_fa": "سمیرم",
    "name_en": "Semirom",
    "province_id": 4,
    "latitude": 31.4136588,
    "longitude": 51.5708254
  },
  {
    "city_id": 636,
    "name_fa": "حنا",
    "name_en": "Hanna",
    "province_id": 4,
    "latitude": 31.1971774,
    "longitude": 51.7245141
  },
  {
    "city_id": 649,
    "name_fa": "دامنه",
    "name_en": "Damaneh",
    "province_id": 4,
    "latitude": 33.0178599,
    "longitude": 50.4893488
  },
  {
    "city_id": 1296,
    "name_fa": "کامیاران",
    "name_en": "Kamyaran",
    "province_id": 20,
    "latitude": 34.7974315,
    "longitude": 46.9361058
  },
  {
    "city_id": 1386,
    "name_fa": "روانسر",
    "name_en": "Ravansar",
    "province_id": 22,
    "latitude": 34.7161309,
    "longitude": 46.6508369
  },
  {
    "city_id": 1015,
    "name_fa": "منصوریه",
    "name_en": "Mansuriyeh",
    "province_id": 13,
    "latitude": 34.2308302,
    "longitude": 56.9443743
  },
  {
    "city_id": 790,
    "name_fa": "آبسرد",
    "name_en": "Absard",
    "province_id": 8,
    "latitude": 35.6231852,
    "longitude": 52.1528132
  },
  {
    "city_id": 1631,
    "name_fa": "کنگ",
    "name_en": "Kang",
    "province_id": 29,
    "latitude": 36.3198782,
    "longitude": 59.2244708
  },
  {
    "city_id": 913,
    "name_fa": "گلمکان",
    "name_en": "Golmakan",
    "province_id": 11,
    "latitude": 36.4818235,
    "longitude": 59.1595291
  },
  {
    "city_id": 807,
    "name_fa": "باغستان",
    "name_en": "باغستان",
    "province_id": 8,
    "latitude": 32.7622661,
    "longitude": 59.7651249
  },
  {
    "city_id": 127,
    "name_fa": "کنگان",
    "name_en": "کنگان",
    "province_id": 7,
    "latitude": 32.6832096,
    "longitude": 59.8725213
  },
  {
    "city_id": 1216,
    "name_fa": "جویم",
    "name_en": "Juyom",
    "province_id": 17,
    "latitude": 28.2598958,
    "longitude": 53.9806139
  },
  {
    "city_id": 1214,
    "name_fa": "بنارویه",
    "name_en": "Banaruiyeh",
    "province_id": 17,
    "latitude": 28.0832919,
    "longitude": 54.0467988
  },
  {
    "city_id": 1121,
    "name_fa": "محمدی",
    "name_en": "Qaleh-ye Mohammadi",
    "province_id": 16,
    "latitude": 37.8881354,
    "longitude": 57.5527061
  },
  {
    "city_id": 157,
    "name_fa": "درمیان",
    "name_en": "Darmian",
    "province_id": 10,
    "latitude": 32.836832,
    "longitude": 59.9023026
  },
  {
    "city_id": 524,
    "name_fa": "سرو",
    "name_en": "سرو",
    "province_id": 2,
    "latitude": 32.878006,
    "longitude": 59.9777334
  },
  {
    "city_id": 1311,
    "name_fa": "نگار",
    "name_en": "Negar",
    "province_id": 21,
    "latitude": 29.8575198,
    "longitude": 56.8004242
  },
  {
    "city_id": 582,
    "name_fa": "قصابه",
    "name_en": "Qosabeh",
    "province_id": 3,
    "latitude": 38.3837047,
    "longitude": 47.5455522
  },
  {
    "city_id": 560,
    "name_fa": "باروق",
    "name_en": "Baruq",
    "province_id": 2,
    "latitude": 38.1730922,
    "longitude": 47.0637922
  },
  {
    "city_id": 1359,
    "name_fa": "زنگی آباد",
    "name_en": "Zangi Abad",
    "province_id": 21,
    "latitude": 30.4102939,
    "longitude": 56.9155312
  },
  {
    "city_id": 1331,
    "name_fa": "خانوک",
    "name_en": "Khanuk",
    "province_id": 21,
    "latitude": 30.7174008,
    "longitude": 56.77589
  },
  {
    "city_id": 1353,
    "name_fa": "اختیارآباد",
    "name_en": "Ekhtiarabad",
    "province_id": 21,
    "latitude": 30.3276538,
    "longitude": 56.9247177
  },
  {
    "city_id": 803,
    "name_fa": "شمشک",
    "name_en": "Shemshak",
    "province_id": 8,
    "latitude": 36.011362,
    "longitude": 51.4909361
  },
  {
    "city_id": 1002,
    "name_fa": "باغ ملک",
    "name_en": "Bagh Malek",
    "province_id": 13,
    "latitude": 31.5247494,
    "longitude": 49.8868966
  },
  {
    "city_id": 1004,
    "name_fa": "قلعه تل",
    "name_en": "Qaleh Toll",
    "province_id": 13,
    "latitude": 31.6307184,
    "longitude": 49.8908244
  },
  {
    "city_id": 862,
    "name_fa": "بشرویه",
    "name_en": "Boshruyeh",
    "province_id": 10,
    "latitude": 33.8662098,
    "longitude": 57.4253814
  },
  {
    "city_id": 646,
    "name_fa": "شهرضا",
    "name_en": "Shahreza",
    "province_id": 4,
    "latitude": 32.0116032,
    "longitude": 51.8651719
  },
  {
    "city_id": 1706,
    "name_fa": "یزد",
    "name_en": "Yazd",
    "province_id": 31,
    "latitude": 31.9052223,
    "longitude": 54.3701235
  },
  {
    "city_id": 1575,
    "name_fa": "محمودآباد",
    "name_en": "Mahmoodabad",
    "province_id": 27,
    "latitude": 35.3890768,
    "longitude": 60.4501557
  },
  {
    "city_id": 784,
    "name_fa": "شریف آباد",
    "name_en": "Sharifabad",
    "province_id": 8,
    "latitude": 37.9846153,
    "longitude": 44.9411541
  },
  {
    "city_id": 1244,
    "name_fa": "آبگرم",
    "name_en": "آبگرم",
    "province_id": 18,
    "latitude": 38.0451657,
    "longitude": 44.9451854
  },
  {
    "city_id": 1201,
    "name_fa": "امام شهر",
    "name_en": "Emamshahr",
    "province_id": 17,
    "latitude": 28.4467257,
    "longitude": 53.1528552
  },
  {
    "city_id": 838,
    "name_fa": "فرخ شهر",
    "name_en": "Farrokhshahr",
    "province_id": 9,
    "latitude": 32.2732354,
    "longitude": 50.9836849
  },
  {
    "city_id": 854,
    "name_fa": "گهرو",
    "name_en": "Gahru",
    "province_id": 9,
    "latitude": 32.004757,
    "longitude": 50.8871785
  },
  {
    "city_id": 845,
    "name_fa": "جونقان",
    "name_en": "Junqan",
    "province_id": 9,
    "latitude": 32.1516564,
    "longitude": 50.6856466
  },
  {
    "city_id": 855,
    "name_fa": "ناغان",
    "name_en": "Naghan",
    "province_id": 9,
    "latitude": 31.9344796,
    "longitude": 50.7276893
  },
  {
    "city_id": 853,
    "name_fa": "شلمزار",
    "name_en": "Shalamzar",
    "province_id": 9,
    "latitude": 32.0464968,
    "longitude": 50.8184796
  },
  {
    "city_id": 1025,
    "name_fa": "شمس آباد",
    "name_en": "Shamsabad",
    "province_id": 13,
    "latitude": 32.1658803,
    "longitude": 50.8534535
  },
  {
    "city_id": 835,
    "name_fa": "سورشجان",
    "name_en": "Sureshjan",
    "province_id": 9,
    "latitude": 32.3163942,
    "longitude": 50.6761962
  },
  {
    "city_id": 837,
    "name_fa": "طاقانک",
    "name_en": "Taqanak",
    "province_id": 9,
    "latitude": 32.2224453,
    "longitude": 50.8392836
  },
  {
    "city_id": 840,
    "name_fa": "نافچ",
    "name_en": "Nafch",
    "province_id": 9,
    "latitude": 32.4228214,
    "longitude": 50.7896658
  },
  {
    "city_id": 842,
    "name_fa": "هفشجان",
    "name_en": "Hafshejan",
    "province_id": 9,
    "latitude": 32.2255216,
    "longitude": 50.7945045
  },
  {
    "city_id": 834,
    "name_fa": "سودجان",
    "name_en": "Sodejan",
    "province_id": 9,
    "latitude": 32.5215922,
    "longitude": 50.4018883
  },
  {
    "city_id": 619,
    "name_fa": "افوس",
    "name_en": "Afus",
    "province_id": 4,
    "latitude": 33.0240732,
    "longitude": 50.0929526
  },
  {
    "city_id": 1228,
    "name_fa": "کامفیروز",
    "name_en": "Kamfiruz",
    "province_id": 17,
    "latitude": 30.3222845,
    "longitude": 52.1932593
  },
  {
    "city_id": 791,
    "name_fa": "آبعلی",
    "name_en": "Abali",
    "province_id": 8,
    "latitude": 35.7620424,
    "longitude": 51.9628205
  },
  {
    "city_id": 468,
    "name_fa": "اهر",
    "name_en": "Ahar",
    "province_id": 1,
    "latitude": 38.4774934,
    "longitude": 47.0662215
  },
  {
    "city_id": 663,
    "name_fa": "کاشان",
    "name_en": "Kashan",
    "province_id": 4,
    "latitude": 38.4750705,
    "longitude": 46.9866907
  },
  {
    "city_id": 1628,
    "name_fa": "قلعه قاضی",
    "name_en": "Qaleh Qazi",
    "province_id": 29,
    "latitude": 37.9393285,
    "longitude": 46.8999426
  },
  {
    "city_id": 1189,
    "name_fa": "دهرم",
    "name_en": "Dehram",
    "province_id": 17,
    "latitude": 28.4921165,
    "longitude": 52.3036835
  },
  {
    "city_id": 1332,
    "name_fa": "ریحان",
    "name_en": "ریحان",
    "province_id": 21,
    "latitude": 38.4287627,
    "longitude": 47.1795658
  },
  {
    "city_id": 1693,
    "name_fa": "بافق",
    "name_en": "Bafq",
    "province_id": 31,
    "latitude": 31.5997065,
    "longitude": 55.3966892
  },
  {
    "city_id": 477,
    "name_fa": "جلفا",
    "name_en": "Jolfa",
    "province_id": 1,
    "latitude": 38.9376054,
    "longitude": 45.6252101
  },
  {
    "city_id": 829,
    "name_fa": "گندمان",
    "name_en": "Gandoman",
    "province_id": 9,
    "latitude": 31.8649902,
    "longitude": 51.1537678
  },
  {
    "city_id": 793,
    "name_fa": "رودهن",
    "name_en": "Rudehen",
    "province_id": 8,
    "latitude": 35.734772,
    "longitude": 51.9063798
  },
  {
    "city_id": 1290,
    "name_fa": "سنندج",
    "name_en": "Sanandaj",
    "province_id": 20,
    "latitude": 35.3126047,
    "longitude": 46.9978639
  },
  {
    "city_id": 1672,
    "name_fa": "گل تپه",
    "name_en": "Gol Tappeh",
    "province_id": 30,
    "latitude": 37.4659262,
    "longitude": 45.9258638
  },
  {
    "city_id": 507,
    "name_fa": "مبارک شهر",
    "name_en": "MobarakShahr",
    "province_id": 1,
    "latitude": 37.1833254,
    "longitude": 46.057954
  },
  {
    "city_id": 462,
    "name_fa": "تیمورلو",
    "name_en": "Teymurlu",
    "province_id": 1,
    "latitude": 37.923445,
    "longitude": 45.4773559
  },
  {
    "city_id": 1094,
    "name_fa": "شاهرود",
    "name_en": "Shahrud",
    "province_id": 15,
    "latitude": 36.4195026,
    "longitude": 54.9649915
  },
  {
    "city_id": 868,
    "name_fa": "قهستان",
    "name_en": "Qohestan",
    "province_id": 10,
    "latitude": 33.1495413,
    "longitude": 59.7165809
  },
  {
    "city_id": 906,
    "name_fa": "تربت حیدریه",
    "name_en": "Torbat-e Heydarieh",
    "province_id": 11,
    "latitude": 35.2740853,
    "longitude": 59.2194494
  },
  {
    "city_id": 1528,
    "name_fa": "آمل",
    "name_en": "Amol",
    "province_id": 27,
    "latitude": 36.4718947,
    "longitude": 52.3499009
  },
  {
    "city_id": 1090,
    "name_fa": "سمنان",
    "name_en": "Semnan",
    "province_id": 15,
    "latitude": 35.5834074,
    "longitude": 53.3882906
  },
  {
    "city_id": 1444,
    "name_fa": "گرگان",
    "name_en": "Gorgan",
    "province_id": 24,
    "latitude": 36.8392776,
    "longitude": 54.4320858
  },
  {
    "city_id": 718,
    "name_fa": "ایلام",
    "name_en": "Ilam",
    "province_id": 6,
    "latitude": 33.6379365,
    "longitude": 46.4202743
  },
  {
    "city_id": 1323,
    "name_fa": "رفسنجان",
    "name_en": "Rafsanjan",
    "province_id": 21,
    "latitude": 30.402184,
    "longitude": 55.9941776
  },
  {
    "city_id": 1017,
    "name_fa": "خرمشهر",
    "name_en": "Khorramshahr",
    "province_id": 13,
    "latitude": 30.4333105,
    "longitude": 48.1779858
  },
  {
    "city_id": 978,
    "name_fa": "ایور",
    "name_en": "ایور",
    "province_id": 12,
    "latitude": 35.4792138,
    "longitude": 58.5821879
  },
  {
    "city_id": 811,
    "name_fa": "فردوسیه",
    "name_en": "Ferdowsieh",
    "province_id": 8,
    "latitude": 28.9307688,
    "longitude": 58.763354
  },
  {
    "city_id": 786,
    "name_fa": "بومهن",
    "name_en": "Bumehen",
    "province_id": 8,
    "latitude": 35.7285207,
    "longitude": 51.864313
  },
  {
    "city_id": 1291,
    "name_fa": "شویشه",
    "name_en": "Shuyesheh",
    "province_id": 20,
    "latitude": 35.3570893,
    "longitude": 46.676496
  },
  {
    "city_id": 1287,
    "name_fa": "سروآباد",
    "name_en": "Sarvabad",
    "province_id": 20,
    "latitude": 35.3123202,
    "longitude": 46.3659551
  },
  {
    "city_id": 1404,
    "name_fa": "هرسین",
    "name_en": "Harsin",
    "province_id": 22,
    "latitude": 35.2036778,
    "longitude": 46.5580635
  },
  {
    "city_id": 1298,
    "name_fa": "برده رشه",
    "name_en": "Berder reshe",
    "province_id": 20,
    "latitude": 35.7318849,
    "longitude": 46.3424728
  },
  {
    "city_id": 1300,
    "name_fa": "کانی دینار",
    "name_en": "Kani Dinar",
    "province_id": 20,
    "latitude": 35.4644364,
    "longitude": 46.208135
  },
  {
    "city_id": 759,
    "name_fa": "بادوله",
    "name_en": "Baduleh",
    "province_id": 7,
    "latitude": 28.3963734,
    "longitude": 51.5007714
  },
  {
    "city_id": 1379,
    "name_fa": "نوسود",
    "name_en": "Nowsud",
    "province_id": 22,
    "latitude": 35.1612676,
    "longitude": 46.2042463
  },
  {
    "city_id": 1289,
    "name_fa": "صاحب",
    "name_en": "Saheb",
    "province_id": 20,
    "latitude": 36.2017503,
    "longitude": 46.4610855
  },
  {
    "city_id": 1120,
    "name_fa": "گشت",
    "name_en": "Gosht",
    "province_id": 16,
    "latitude": 27.7892564,
    "longitude": 61.9512927
  },
  {
    "city_id": 1110,
    "name_fa": "نوک آباد",
    "name_en": "Nukabad",
    "province_id": 16,
    "latitude": 28.2738788,
    "longitude": 61.3561968
  },
  {
    "city_id": 1117,
    "name_fa": "جالق",
    "name_en": "Jaleq",
    "province_id": 16,
    "latitude": 27.6033419,
    "longitude": 62.7097131
  },
  {
    "city_id": 1552,
    "name_fa": "چالوس",
    "name_en": "Chalus",
    "province_id": 27,
    "latitude": 36.6506329,
    "longitude": 51.4223717
  },
  {
    "city_id": 814,
    "name_fa": "فیروزکوه",
    "name_en": "Firuzkuh",
    "province_id": 8,
    "latitude": 35.7556732,
    "longitude": 52.7730592
  },
  {
    "city_id": 792,
    "name_fa": "دماوند",
    "name_en": "Damavand",
    "province_id": 8,
    "latitude": 35.7179802,
    "longitude": 52.0681882
  },
  {
    "city_id": 230,
    "name_fa": "خدابنده",
    "name_en": "Khodabandeh",
    "province_id": 14,
    "latitude": 35.2479156,
    "longitude": 59.2671806
  },
  {
    "city_id": 1380,
    "name_fa": "ازگله",
    "name_en": "Ezgeleh",
    "province_id": 22,
    "latitude": 34.8322142,
    "longitude": 45.8424966
  },
  {
    "city_id": 1088,
    "name_fa": "کلاته",
    "name_en": "Kalateh",
    "province_id": 15,
    "latitude": 36.3570835,
    "longitude": 54.1455832
  },
  {
    "city_id": 625,
    "name_fa": "رزوه",
    "name_en": "Rozveh",
    "province_id": 4,
    "latitude": 32.8349784,
    "longitude": 50.5673592
  },
  {
    "city_id": 1540,
    "name_fa": "بابلسر",
    "name_en": "Babolsar",
    "province_id": 27,
    "latitude": 36.7008777,
    "longitude": 52.6481047
  },
  {
    "city_id": 635,
    "name_fa": "گلشن",
    "name_en": "Golshan",
    "province_id": 4,
    "latitude": 31.9354578,
    "longitude": 51.752294
  },
  {
    "city_id": 1508,
    "name_fa": "بروجرد",
    "name_en": "Borujerd",
    "province_id": 26,
    "latitude": 33.8943281,
    "longitude": 48.7560936
  },
  {
    "city_id": 825,
    "name_fa": "بروجن",
    "name_en": "Borujen",
    "province_id": 9,
    "latitude": 31.9719093,
    "longitude": 51.291596
  },
  {
    "city_id": 1500,
    "name_fa": "لنگرود",
    "name_en": "Langarud",
    "province_id": 25,
    "latitude": 37.1955948,
    "longitude": 50.1529566
  },
  {
    "city_id": 1476,
    "name_fa": "رودسر",
    "name_en": "Rudsar",
    "province_id": 25,
    "latitude": 37.1381592,
    "longitude": 50.2927862
  },
  {
    "city_id": 595,
    "name_fa": "اردستان",
    "name_en": "Ardestan",
    "province_id": 4,
    "latitude": 33.3797762,
    "longitude": 52.3724967
  },
  {
    "city_id": 1261,
    "name_fa": "رازمیان",
    "name_en": "Razmian",
    "province_id": 18,
    "latitude": 36.5411254,
    "longitude": 50.2117178
  },
  {
    "city_id": 1489,
    "name_fa": "لیسار",
    "name_en": "Lisar",
    "province_id": 25,
    "latitude": 37.958973,
    "longitude": 48.9082044
  },
  {
    "city_id": 1195,
    "name_fa": "قره بلاغ",
    "name_en": "Qarabulagh",
    "province_id": 17,
    "latitude": 37.5927308,
    "longitude": 47.1108323
  },
  {
    "city_id": 1473,
    "name_fa": "منجیل",
    "name_en": "Manjil",
    "province_id": 25,
    "latitude": 36.7448499,
    "longitude": 49.4000305
  },
  {
    "city_id": 861,
    "name_fa": "ارسک",
    "name_en": "Eresk",
    "province_id": 10,
    "latitude": 33.7015379,
    "longitude": 57.3732972
  },
  {
    "city_id": 1304,
    "name_fa": "انار",
    "name_en": "Anar",
    "province_id": 21,
    "latitude": 30.8723337,
    "longitude": 55.2716302
  },
  {
    "city_id": 1176,
    "name_fa": "دبیران",
    "name_en": "Dabiran",
    "province_id": 17,
    "latitude": 28.4064149,
    "longitude": 54.1884143
  },
  {
    "city_id": 1162,
    "name_fa": "دوزه",
    "name_en": "Duzeh",
    "province_id": 17,
    "latitude": 28.7017719,
    "longitude": 52.9536255
  },
  {
    "city_id": 1200,
    "name_fa": "افزر",
    "name_en": "Efzar",
    "province_id": 17,
    "latitude": 28.3468462,
    "longitude": 52.9664812
  },
  {
    "city_id": 1164,
    "name_fa": "خرامه",
    "name_en": "Kharameh",
    "province_id": 17,
    "latitude": 29.498294,
    "longitude": 53.3122486
  },
  {
    "city_id": 1182,
    "name_fa": "کوهنجان",
    "name_en": "Koohanjan",
    "province_id": 17,
    "latitude": 29.2306219,
    "longitude": 52.9562466
  },
  {
    "city_id": 1220,
    "name_fa": "لطیفی",
    "name_en": "Latifi",
    "province_id": 17,
    "latitude": 27.6900779,
    "longitude": 54.38714
  },
  {
    "city_id": 1673,
    "name_fa": "ازندریان",
    "name_en": "Azandarian",
    "province_id": 30,
    "latitude": 34.504361,
    "longitude": 48.6909354
  },
  {
    "city_id": 1678,
    "name_fa": "برزول",
    "name_en": "Barzul",
    "province_id": 30,
    "latitude": 34.2128467,
    "longitude": 48.2600728
  },
  {
    "city_id": 1666,
    "name_fa": "دمق",
    "name_en": "Damaq",
    "province_id": 30,
    "latitude": 35.4431296,
    "longitude": 48.8234849
  },
  {
    "city_id": 1680,
    "name_fa": "گیان",
    "name_en": "Giyan",
    "province_id": 30,
    "latitude": 34.1771986,
    "longitude": 48.2445727
  },
  {
    "city_id": 1674,
    "name_fa": "جوکار",
    "name_en": "Jowkar",
    "province_id": 30,
    "latitude": 34.4322536,
    "longitude": 48.6862474
  },
  {
    "city_id": 1677,
    "name_fa": "ملایر",
    "name_en": "Malayer",
    "province_id": 30,
    "latitude": 34.2922623,
    "longitude": 48.8215749
  },
  {
    "city_id": 1668,
    "name_fa": "قروه درجزین",
    "name_en": "Qorveh-e Darjazin",
    "province_id": 30,
    "latitude": 35.3101504,
    "longitude": 49.1004503
  },
  {
    "city_id": 1670,
    "name_fa": "شیرین سو",
    "name_en": "Shirin Su",
    "province_id": 30,
    "latitude": 35.4926221,
    "longitude": 48.4515219
  },
  {
    "city_id": 1669,
    "name_fa": "فامنین",
    "name_en": "Famenin",
    "province_id": 30,
    "latitude": 35.1179137,
    "longitude": 48.9721158
  },
  {
    "city_id": 1683,
    "name_fa": "قهاوند",
    "name_en": "Qahavand",
    "province_id": 30,
    "latitude": 34.8594697,
    "longitude": 49.0033362
  },
  {
    "city_id": 869,
    "name_fa": "گزیک",
    "name_en": "Gazik",
    "province_id": 10,
    "latitude": 33.000821,
    "longitude": 60.2266472
  },
  {
    "city_id": 867,
    "name_fa": "طبس مسینا",
    "name_en": "Tabas-e Masina",
    "province_id": 10,
    "latitude": 32.8063555,
    "longitude": 60.222247
  },
  {
    "city_id": 1267,
    "name_fa": "جعفریه",
    "name_en": "Jafariyeh",
    "province_id": 19,
    "latitude": 34.7747682,
    "longitude": 50.5164348
  },
  {
    "city_id": 1269,
    "name_fa": "سلفچگان",
    "name_en": "Salafchegan",
    "province_id": 19,
    "latitude": 34.4783955,
    "longitude": 50.4577101
  },
  {
    "city_id": 956,
    "name_fa": "بار",
    "name_en": "Bar",
    "province_id": 11,
    "latitude": 36.4897198,
    "longitude": 58.7161898
  },
  {
    "city_id": 940,
    "name_fa": "همت آباد",
    "name_en": "hemmat abad",
    "province_id": 11,
    "latitude": 36.2976907,
    "longitude": 58.4637326
  },
  {
    "city_id": 1134,
    "name_fa": "بنت",
    "name_en": "Bent",
    "province_id": 16,
    "latitude": 26.290834,
    "longitude": 59.5237216
  },
  {
    "city_id": 1127,
    "name_fa": "فنوج",
    "name_en": "Fanuj",
    "province_id": 16,
    "latitude": 26.575768,
    "longitude": 59.6398773
  },
  {
    "city_id": 1111,
    "name_fa": "گلمورتی",
    "name_en": "Golmorti",
    "province_id": 16,
    "latitude": 27.4809916,
    "longitude": 59.4483063
  },
  {
    "city_id": 1108,
    "name_fa": "نگور",
    "name_en": "Negur",
    "province_id": 16,
    "latitude": 25.3889117,
    "longitude": 61.1390842
  },
  {
    "city_id": 1119,
    "name_fa": "سیرکان",
    "name_en": "Sirkan",
    "province_id": 16,
    "latitude": 26.830089,
    "longitude": 62.6388773
  },
  {
    "city_id": 1129,
    "name_fa": "زرآباد",
    "name_en": "Zarabad",
    "province_id": 16,
    "latitude": 25.5961564,
    "longitude": 59.402519
  },
  {
    "city_id": 1116,
    "name_fa": "زهک",
    "name_en": "Zehak",
    "province_id": 16,
    "latitude": 30.8932189,
    "longitude": 61.6827311
  },
  {
    "city_id": 572,
    "name_fa": "تازه کند",
    "name_en": "Tazeh Kand",
    "province_id": 3,
    "latitude": 37.9797015,
    "longitude": 46.0007288
  },
  {
    "city_id": 1495,
    "name_fa": "لاهیجان",
    "name_en": "Lahijan",
    "province_id": 25,
    "latitude": 37.984405,
    "longitude": 46.0842647
  },
  {
    "city_id": 1529,
    "name_fa": "امامزاده عبدالله",
    "name_en": "Emamzadeh Abdollah",
    "province_id": 27,
    "latitude": 36.4062759,
    "longitude": 52.3095848
  },
  {
    "city_id": 1532,
    "name_fa": "گزنک",
    "name_en": "Gazanak",
    "province_id": 27,
    "latitude": 35.9038115,
    "longitude": 52.2246758
  },
  {
    "city_id": 1568,
    "name_fa": "کلارآباد",
    "name_en": "Kelarabad",
    "province_id": 27,
    "latitude": 36.6964662,
    "longitude": 51.2511485
  },
  {
    "city_id": 1583,
    "name_fa": "پول",
    "name_en": "Pool",
    "province_id": 27,
    "latitude": 36.3947555,
    "longitude": 51.5948604
  },
  {
    "city_id": 1548,
    "name_fa": "شیرود",
    "name_en": "Shirud",
    "province_id": 27,
    "latitude": 36.8495832,
    "longitude": 50.7909086
  },
  {
    "city_id": 515,
    "name_fa": "ورزقان",
    "name_en": "Varzaqan",
    "province_id": 1,
    "latitude": 38.5087607,
    "longitude": 46.6487801
  },
  {
    "city_id": 562,
    "name_fa": "میاندوآب",
    "name_en": "Miandoab",
    "province_id": 2,
    "latitude": 36.9695588,
    "longitude": 46.0993809
  },
  {
    "city_id": 1303,
    "name_fa": "امین شهر",
    "name_en": "Aminshahr",
    "province_id": 21,
    "latitude": 30.8419668,
    "longitude": 55.3413062
  },
  {
    "city_id": 1454,
    "name_fa": "کیاشهر",
    "name_en": "Kiashahr",
    "province_id": 25,
    "latitude": 37.4188972,
    "longitude": 49.9488125
  },
  {
    "city_id": 841,
    "name_fa": "هارونی",
    "name_en": "Haarouni",
    "province_id": 9,
    "latitude": 32.3906501,
    "longitude": 50.5714015
  },
  {
    "city_id": 852,
    "name_fa": "دستنا",
    "name_en": "Dastana",
    "province_id": 9,
    "latitude": 32.0599837,
    "longitude": 50.7709668
  },
  {
    "city_id": 846,
    "name_fa": "چلیچه",
    "name_en": "Cholicheh",
    "province_id": 9,
    "latitude": 32.2305757,
    "longitude": 50.6284832
  },
  {
    "city_id": 848,
    "name_fa": "گوجان",
    "name_en": "Gujan",
    "province_id": 9,
    "latitude": 32.2443611,
    "longitude": 50.5428324
  },
  {
    "city_id": 818,
    "name_fa": "ملارد",
    "name_en": "Malard",
    "province_id": 8,
    "latitude": 35.666763,
    "longitude": 50.9790423
  },
  {
    "city_id": 705,
    "name_fa": "فردیس",
    "name_en": "Fardis",
    "province_id": 5,
    "latitude": 35.7316704,
    "longitude": 50.9891563
  },
  {
    "city_id": 1464,
    "name_fa": "لولمان",
    "name_en": "Loleman",
    "province_id": 25,
    "latitude": 37.2551709,
    "longitude": 49.8150112
  },
  {
    "city_id": 1493,
    "name_fa": "ماکلوان",
    "name_en": "Maklavan",
    "province_id": 25,
    "latitude": 37.1957815,
    "longitude": 49.1969213
  },
  {
    "city_id": 1273,
    "name_fa": "آرمرده",
    "name_en": "Armardeh",
    "province_id": 20,
    "latitude": 35.931781,
    "longitude": 45.7966561
  },
  {
    "city_id": 783,
    "name_fa": "پاکدشت",
    "name_en": "Pakdasht",
    "province_id": 8,
    "latitude": 35.4784573,
    "longitude": 51.6824624
  },
  {
    "city_id": 849,
    "name_fa": "بازفت",
    "name_en": "Bazoft",
    "province_id": 9,
    "latitude": 32.2113375,
    "longitude": 50.0330676
  },
  {
    "city_id": 650,
    "name_fa": "برف انبار",
    "name_en": "Barfanbar",
    "province_id": 4,
    "latitude": 29.3471766,
    "longitude": 57.1041862
  },
  {
    "city_id": 1283,
    "name_fa": "دهگلان",
    "name_en": "Dehgolan",
    "province_id": 20,
    "latitude": 35.280039,
    "longitude": 47.4189871
  },
  {
    "city_id": 640,
    "name_fa": "شاهین شهر",
    "name_en": "Shahin Shahr",
    "province_id": 4,
    "latitude": 32.8556169,
    "longitude": 51.558376
  },
  {
    "city_id": 726,
    "name_fa": "سرابله",
    "name_en": "Sarableh",
    "province_id": 6,
    "latitude": 33.7675797,
    "longitude": 46.5654912
  },
  {
    "city_id": 727,
    "name_fa": "شباب",
    "name_en": "Shabab",
    "province_id": 6,
    "latitude": 33.7490262,
    "longitude": 46.6384231
  },
  {
    "city_id": 1381,
    "name_fa": "تازه آباد",
    "name_en": "تازه آباد",
    "province_id": 22,
    "latitude": 37.2689997,
    "longitude": 49.8934938
  },
  {
    "city_id": 881,
    "name_fa": "فردوس",
    "name_en": "فردوس",
    "province_id": 10,
    "latitude": 28.6840266,
    "longitude": 57.1619443
  },
  {
    "city_id": 1594,
    "name_fa": "جاورسیان",
    "name_en": "Javersiyan",
    "province_id": 28,
    "latitude": 34.2576054,
    "longitude": 49.3260118
  },
  {
    "city_id": 997,
    "name_fa": "حسینیه",
    "name_en": "Hoseynieyeh",
    "province_id": 13,
    "latitude": 34.2851098,
    "longitude": 49.0936398
  },
  {
    "city_id": 1321,
    "name_fa": "هجدک",
    "name_en": "Hojedk",
    "province_id": 21,
    "latitude": 30.7594357,
    "longitude": 57.0039838
  },
  {
    "city_id": 509,
    "name_fa": "آقکند",
    "name_en": "Aqkand",
    "province_id": 1,
    "latitude": 36.7068909,
    "longitude": 47.5741449
  },
  {
    "city_id": 730,
    "name_fa": "پهله",
    "name_en": "Pahleh",
    "province_id": 6,
    "latitude": 33.0119112,
    "longitude": 46.8815641
  },
  {
    "city_id": 1314,
    "name_fa": "بلوک",
    "name_en": "Boluk",
    "province_id": 21,
    "latitude": 28.232769,
    "longitude": 57.5107436
  },
  {
    "city_id": 1260,
    "name_fa": "اقبالیه",
    "name_en": "Eghbaliye",
    "province_id": 18,
    "latitude": 36.2305623,
    "longitude": 49.9248188
  },
  {
    "city_id": 736,
    "name_fa": "دلگشا",
    "name_en": "Delgosha",
    "province_id": 6,
    "latitude": 33.4055827,
    "longitude": 46.594467
  },
  {
    "city_id": 74,
    "name_fa": "کوثر",
    "name_en": "کوثر",
    "province_id": 3,
    "latitude": 31.7418512,
    "longitude": 56.0207421
  },
  {
    "city_id": 666,
    "name_fa": "نیاسر",
    "name_en": "Neyasar",
    "province_id": 4,
    "latitude": 33.970466,
    "longitude": 51.1457545
  },
  {
    "city_id": 639,
    "name_fa": "ونک",
    "name_en": "ونک",
    "province_id": 4,
    "latitude": 25.5365447,
    "longitude": 58.8763047
  },
  {
    "city_id": 1276,
    "name_fa": "کانی سور",
    "name_en": "Kani Sur",
    "province_id": 20,
    "latitude": 36.0583,
    "longitude": 45.7481
  },
  {
    "city_id": 1297,
    "name_fa": "موچش",
    "name_en": "Muchesh",
    "province_id": 20,
    "latitude": 35.0574727,
    "longitude": 47.1525037
  },
  {
    "city_id": 558,
    "name_fa": "خلیفان",
    "name_en": "Khalifan, Mahabad",
    "province_id": 2,
    "latitude": 36.5076009,
    "longitude": 45.7966787
  },
  {
    "city_id": 1451,
    "name_fa": "آستارا",
    "name_en": "Astara",
    "province_id": 25,
    "latitude": 38.4193239,
    "longitude": 48.8715278
  },
  {
    "city_id": 860,
    "name_fa": "منج",
    "name_en": "Monch",
    "province_id": 9,
    "latitude": 35.016135,
    "longitude": 60.3123969
  },
  {
    "city_id": 1000,
    "name_fa": "ایذه",
    "name_en": "Izeh",
    "province_id": 13,
    "latitude": 31.8312152,
    "longitude": 49.8789867
  },
  {
    "city_id": 856,
    "name_fa": "آلونی",
    "name_en": "Aluni",
    "province_id": 9,
    "latitude": 31.5528467,
    "longitude": 51.0576007
  },
  {
    "city_id": 1001,
    "name_fa": "دهدز",
    "name_en": "Dehdez",
    "province_id": 13,
    "latitude": 31.707783,
    "longitude": 50.2885498
  },
  {
    "city_id": 671,
    "name_fa": "باغشاد",
    "name_en": "Baghshad",
    "province_id": 4,
    "latitude": 32.3837155,
    "longitude": 51.2325317
  },
  {
    "city_id": 1033,
    "name_fa": "رامشیر",
    "name_en": "Ramshir",
    "province_id": 13,
    "latitude": 30.8939518,
    "longitude": 49.4093497
  },
  {
    "city_id": 1345,
    "name_fa": "دهج",
    "name_en": "Dehaj",
    "province_id": 21,
    "latitude": 30.6907903,
    "longitude": 54.8777097
  },
  {
    "city_id": 1069,
    "name_fa": "سهرورد",
    "name_en": "Sohrevard",
    "province_id": 14,
    "latitude": 36.0705638,
    "longitude": 48.4416193
  },
  {
    "city_id": 1071,
    "name_fa": "کرسف",
    "name_en": "Karasf",
    "province_id": 14,
    "latitude": 36.0441423,
    "longitude": 48.5057235
  },
  {
    "city_id": 1073,
    "name_fa": "نوربهار",
    "name_en": "Nurbahar",
    "province_id": 14,
    "latitude": 35.9365669,
    "longitude": 48.7920048
  },
  {
    "city_id": 822,
    "name_fa": "دشتک",
    "name_en": "Dashtak",
    "province_id": 9,
    "latitude": 35.9071017,
    "longitude": 48.920205
  },
  {
    "city_id": 1597,
    "name_fa": "نراق",
    "name_en": "Naraq",
    "province_id": 28,
    "latitude": 34.0096318,
    "longitude": 50.8402395
  },
  {
    "city_id": 473,
    "name_fa": "باسمنج",
    "name_en": "Basmenj",
    "province_id": 1,
    "latitude": 37.9955619,
    "longitude": 46.4749113
  },
  {
    "city_id": 1516,
    "name_fa": "هفت چشمه",
    "name_en": "Haftcheshmeh",
    "province_id": 26,
    "latitude": 37.6354926,
    "longitude": 45.959413
  },
  {
    "city_id": 519,
    "name_fa": "کلوانق",
    "name_en": "Kulvana - Kalvanaq",
    "province_id": 1,
    "latitude": 37.7101727,
    "longitude": 45.8795707
  },
  {
    "city_id": 817,
    "name_fa": "صفادشت",
    "name_en": "Safadasht",
    "province_id": 8,
    "latitude": 35.692438,
    "longitude": 50.8482841
  },
  {
    "city_id": 564,
    "name_fa": "نقده",
    "name_en": "Naqadeh",
    "province_id": 2,
    "latitude": 36.9555967,
    "longitude": 45.3878933
  },
  {
    "city_id": 688,
    "name_fa": "جوزدان",
    "name_en": "Jowzdan",
    "province_id": 4,
    "latitude": 32.5566297,
    "longitude": 51.3714526
  },
  {
    "city_id": 1585,
    "name_fa": "نوشهر",
    "name_en": "Noshahr",
    "province_id": 27,
    "latitude": 37.7034444,
    "longitude": 46.8189384
  },
  {
    "city_id": 832,
    "name_fa": "وردنجان",
    "name_en": "Vardanjan",
    "province_id": 9,
    "latitude": 32.4755949,
    "longitude": 50.7685061
  },
  {
    "city_id": 859,
    "name_fa": "مال خلیفه",
    "name_en": "Malkhalifeh",
    "province_id": 9,
    "latitude": 31.2905232,
    "longitude": 51.2604527
  },
  {
    "city_id": 1292,
    "name_fa": "دزج",
    "name_en": "Dezej",
    "province_id": 20,
    "latitude": 31.919539,
    "longitude": 51.5278623
  },
  {
    "city_id": 747,
    "name_fa": "انارستان",
    "name_en": "Anarestan",
    "province_id": 7,
    "latitude": 30.506979,
    "longitude": 57.2767969
  },
  {
    "city_id": 810,
    "name_fa": "صباشهر",
    "name_en": "Sabashahr",
    "province_id": 8,
    "latitude": 35.5824779,
    "longitude": 51.1130446
  },
  {
    "city_id": 1280,
    "name_fa": "توپ آغاج",
    "name_en": "Topaghaj",
    "province_id": 20,
    "latitude": 37.4376071,
    "longitude": 46.627027
  },
  {
    "city_id": 1078,
    "name_fa": "سلطانیه",
    "name_en": "Soltaniyeh",
    "province_id": 14,
    "latitude": 36.4345194,
    "longitude": 48.7940806
  },
  {
    "city_id": 1229,
    "name_fa": "مرودشت",
    "name_en": "Marvdasht",
    "province_id": 17,
    "latitude": 29.8762905,
    "longitude": 52.8062895
  },
  {
    "city_id": 643,
    "name_fa": "لای بید",
    "name_en": "Lay Bid",
    "province_id": 4,
    "latitude": 33.4620923,
    "longitude": 50.6952181
  },
  {
    "city_id": 1237,
    "name_fa": "وراوی",
    "name_en": "Varavi",
    "province_id": 17,
    "latitude": 27.4668628,
    "longitude": 53.0501495
  },
  {
    "city_id": 693,
    "name_fa": "نجف آباد",
    "name_en": "نجف آباد",
    "province_id": 4,
    "latitude": 27.4072542,
    "longitude": 53.4841125
  },
  {
    "city_id": 1215,
    "name_fa": "بیرم",
    "name_en": "Beyram",
    "province_id": 17,
    "latitude": 27.4298807,
    "longitude": 53.5141478
  },
  {
    "city_id": 1236,
    "name_fa": "مهر",
    "name_en": "Mohr",
    "province_id": 17,
    "latitude": 27.5514645,
    "longitude": 52.8821254
  },
  {
    "city_id": 1235,
    "name_fa": "گله دار",
    "name_en": "گله دار",
    "province_id": 17,
    "latitude": 27.6633591,
    "longitude": 52.6611102
  },
  {
    "city_id": 221,
    "name_fa": "کارون",
    "name_en": "کارون",
    "province_id": 13,
    "latitude": 27.686172,
    "longitude": 52.6349731
  },
  {
    "city_id": 1233,
    "name_fa": "اسیر",
    "name_en": "Asir",
    "province_id": 17,
    "latitude": 27.7254045,
    "longitude": 52.6648188
  },
  {
    "city_id": 1293,
    "name_fa": "دلبران",
    "name_en": "Delbaran",
    "province_id": 20,
    "latitude": 35.2446523,
    "longitude": 47.9869563
  },
  {
    "city_id": 641,
    "name_fa": "گرگاب",
    "name_en": "Gorgab",
    "province_id": 4,
    "latitude": 32.8678119,
    "longitude": 51.5981358
  },
  {
    "city_id": 1160,
    "name_fa": "جهرم",
    "name_en": "Jahrom",
    "province_id": 17,
    "latitude": 28.5014092,
    "longitude": 53.5695867
  },
  {
    "city_id": 717,
    "name_fa": "مورموری",
    "name_en": "Murmuri",
    "province_id": 6,
    "latitude": 32.7254932,
    "longitude": 47.6773754
  },
  {
    "city_id": 820,
    "name_fa": "ورامین",
    "name_en": "Varamin",
    "province_id": 8,
    "latitude": 35.3283255,
    "longitude": 51.6460307
  },
  {
    "city_id": 716,
    "name_fa": "سراب باغ",
    "name_en": "Sarab Bagh",
    "province_id": 6,
    "latitude": 32.898466,
    "longitude": 47.5728997
  },
  {
    "city_id": 1511,
    "name_fa": "بیران شهر",
    "name_en": "Beyron Shahr",
    "province_id": 26,
    "latitude": 33.6485949,
    "longitude": 48.5597292
  },
  {
    "city_id": 1507,
    "name_fa": "اشترینان",
    "name_en": "Oshtorinan",
    "province_id": 26,
    "latitude": 34.0166865,
    "longitude": 48.6426479
  },
  {
    "city_id": 545,
    "name_fa": "قطور",
    "name_en": "Qatur",
    "province_id": 2,
    "latitude": 38.4714718,
    "longitude": 44.4099457
  },
  {
    "city_id": 1623,
    "name_fa": "گوهران",
    "name_en": "Gowharan",
    "province_id": 29,
    "latitude": 38.5740988,
    "longitude": 45.0199851
  },
  {
    "city_id": 542,
    "name_fa": "دیزج دیز",
    "name_en": "Dizaj Diz",
    "province_id": 2,
    "latitude": 38.4614758,
    "longitude": 45.0252181
  },
  {
    "city_id": 1608,
    "name_fa": "توره",
    "name_en": "Tavreh",
    "province_id": 28,
    "latitude": 39.1623265,
    "longitude": 44.8703322
  },
  {
    "city_id": 816,
    "name_fa": "قرچک",
    "name_en": "Qarchak",
    "province_id": 8,
    "latitude": 35.4421824,
    "longitude": 51.5697005
  },
  {
    "city_id": 722,
    "name_fa": "بدره",
    "name_en": "Badreh",
    "province_id": 6,
    "latitude": 33.3060497,
    "longitude": 47.0385999
  },
  {
    "city_id": 1310,
    "name_fa": "لاله زار",
    "name_en": "Laleh Zar",
    "province_id": 21,
    "latitude": 33.1862014,
    "longitude": 47.3675683
  },
  {
    "city_id": 819,
    "name_fa": "جوادآباد",
    "name_en": "Javadabad",
    "province_id": 8,
    "latitude": 32.9714454,
    "longitude": 47.8052501
  },
  {
    "city_id": 729,
    "name_fa": "ماژین",
    "name_en": "Mazhin",
    "province_id": 6,
    "latitude": 32.9542152,
    "longitude": 47.7885783
  },
  {
    "city_id": 1266,
    "name_fa": "معلم کلایه",
    "name_en": "Moalem Kelaye",
    "province_id": 18,
    "latitude": 36.451748,
    "longitude": 50.4753083
  },
  {
    "city_id": 732,
    "name_fa": "موسیان",
    "name_en": "Musian",
    "province_id": 6,
    "latitude": 32.5209668,
    "longitude": 47.376702
  },
  {
    "city_id": 719,
    "name_fa": "چوار",
    "name_en": "Chavar",
    "province_id": 6,
    "latitude": 33.6967187,
    "longitude": 46.2967631
  },
  {
    "city_id": 685,
    "name_fa": "انارک",
    "name_en": "Anarak",
    "province_id": 4,
    "latitude": 33.6475366,
    "longitude": 46.1247151
  },
  {
    "city_id": 734,
    "name_fa": "لومار",
    "name_en": "Lumar",
    "province_id": 6,
    "latitude": 33.5673389,
    "longitude": 46.8146332
  },
  {
    "city_id": 880,
    "name_fa": "اسلامیه",
    "name_en": "Eslamiyeh",
    "province_id": 10,
    "latitude": 33.5747903,
    "longitude": 46.7855516
  },
  {
    "city_id": 721,
    "name_fa": "زرنه",
    "name_en": "Zarneh",
    "province_id": 6,
    "latitude": 33.928499,
    "longitude": 46.1826201
  },
  {
    "city_id": 725,
    "name_fa": "توحید",
    "name_en": "Towhid",
    "province_id": 6,
    "latitude": 33.728139,
    "longitude": 47.0678839
  },
  {
    "city_id": 724,
    "name_fa": "بلاوه",
    "name_en": "Balavah",
    "province_id": 6,
    "latitude": 33.6669604,
    "longitude": 46.8043038
  },
  {
    "city_id": 711,
    "name_fa": "ماهدشت",
    "name_en": "Mahdasht",
    "province_id": 5,
    "latitude": 35.729757,
    "longitude": 50.8109893
  },
  {
    "city_id": 1524,
    "name_fa": "درب گنبد",
    "name_en": "Darb-e Gonbad",
    "province_id": 26,
    "latitude": 33.6904944,
    "longitude": 47.1502234
  },
  {
    "city_id": 702,
    "name_fa": "گلسار",
    "name_en": "Golsar",
    "province_id": 5,
    "latitude": 35.9144669,
    "longitude": 50.7723122
  },
  {
    "city_id": 1504,
    "name_fa": "مومن آباد",
    "name_en": "Mowmenabad",
    "province_id": 26,
    "latitude": 33.8349987,
    "longitude": 48.2223124
  },
  {
    "city_id": 966,
    "name_fa": "چناران شهر",
    "name_en": "Chenaran",
    "province_id": 12,
    "latitude": 37.3996434,
    "longitude": 57.53965
  },
  {
    "city_id": 1618,
    "name_fa": "نیمور",
    "name_en": "Nimvar",
    "province_id": 28,
    "latitude": 36.4410867,
    "longitude": 51.5843119
  },
  {
    "city_id": 603,
    "name_fa": "زیار",
    "name_en": "زیار",
    "province_id": 4,
    "latitude": 35.837736,
    "longitude": 52.1033177
  },
  {
    "city_id": 294,
    "name_fa": "البرز",
    "name_en": "Alborz",
    "province_id": 18,
    "latitude": 34.0043895,
    "longitude": 49.3901454
  },
  {
    "city_id": 1590,
    "name_fa": "کارچان",
    "name_en": "Karchan",
    "province_id": 28,
    "latitude": 34.1003203,
    "longitude": 49.9325663
  },
  {
    "city_id": 1006,
    "name_fa": "شیبان",
    "name_en": "Sheyban",
    "province_id": 13,
    "latitude": 31.4066455,
    "longitude": 48.7948143
  },
  {
    "city_id": 1034,
    "name_fa": "مشراگه",
    "name_en": "Moshrageh",
    "province_id": 13,
    "latitude": 31.0098009,
    "longitude": 49.4369137
  },
  {
    "city_id": 788,
    "name_fa": "پیشوا",
    "name_en": "Pishva",
    "province_id": 8,
    "latitude": 35.308412,
    "longitude": 51.7189409
  },
  {
    "city_id": 1243,
    "name_fa": "خاکعلی",
    "name_en": "Khak Ali",
    "province_id": 18,
    "latitude": 36.1285497,
    "longitude": 50.1758838
  },
  {
    "city_id": 668,
    "name_fa": "گلشهر",
    "name_en": "Golshahr",
    "province_id": 4,
    "latitude": 33.5130447,
    "longitude": 50.4754975
  },
  {
    "city_id": 1259,
    "name_fa": "نرجه",
    "name_en": "Narje",
    "province_id": 18,
    "latitude": 35.9909852,
    "longitude": 49.6245427
  },
  {
    "city_id": 1255,
    "name_fa": "اسفرورین",
    "name_en": "Esfarvarin",
    "province_id": 18,
    "latitude": 35.9353304,
    "longitude": 49.7479887
  },
  {
    "city_id": 706,
    "name_fa": "مشکین دشت",
    "name_en": "Meshkin Dasht",
    "province_id": 5,
    "latitude": 35.7509589,
    "longitude": 50.9420738
  },
  {
    "city_id": 1603,
    "name_fa": "آوه",
    "name_en": "Aveh",
    "province_id": 28,
    "latitude": 36.3517365,
    "longitude": 50.6108959
  },
  {
    "city_id": 1230,
    "name_fa": "بابامنیر",
    "name_en": "Babamonir",
    "province_id": 17,
    "latitude": 30.0724542,
    "longitude": 51.2059662
  },
  {
    "city_id": 1400,
    "name_fa": "گودین",
    "name_en": "Gowdin",
    "province_id": 22,
    "latitude": 34.5071703,
    "longitude": 48.079899
  },
  {
    "city_id": 1401,
    "name_fa": "سرمست",
    "name_en": "Sarmast",
    "province_id": 22,
    "latitude": 34.5054,
    "longitude": 47.8411
  },
  {
    "city_id": 1657,
    "name_fa": "آجین",
    "name_en": "Ajin",
    "province_id": 30,
    "latitude": 34.7357024,
    "longitude": 47.9266027
  },
  {
    "city_id": 1389,
    "name_fa": "سطر",
    "name_en": "Satar",
    "province_id": 22,
    "latitude": 34.8126546,
    "longitude": 47.4612562
  },
  {
    "city_id": 1169,
    "name_fa": "جنت شهر",
    "name_en": "Jannat Shahr",
    "province_id": 17,
    "latitude": 28.6548665,
    "longitude": 54.6837567
  },
  {
    "city_id": 1059,
    "name_fa": "هندیجان",
    "name_en": "Hendijan",
    "province_id": 13,
    "latitude": 30.2364004,
    "longitude": 49.7123234
  },
  {
    "city_id": 1240,
    "name_fa": "مشکان",
    "name_en": "Meshkan",
    "province_id": 17,
    "latitude": 36.5329335,
    "longitude": 58.1455051
  },
  {
    "city_id": 177,
    "name_fa": "خوشاب",
    "name_en": "Khoshab",
    "province_id": 11,
    "latitude": 36.4248537,
    "longitude": 57.990368
  },
  {
    "city_id": 1635,
    "name_fa": "دشتی",
    "name_en": "Dashti",
    "province_id": 29,
    "latitude": 32.5432874,
    "longitude": 50.8564862
  },
  {
    "city_id": 1626,
    "name_fa": "تخت",
    "name_en": "Takht",
    "province_id": 29,
    "latitude": 36.0861,
    "longitude": 46.6264
  },
  {
    "city_id": 1299,
    "name_fa": "چناره",
    "name_en": "Chenareh",
    "province_id": 20,
    "latitude": 35.1837,
    "longitude": 46.9731
  },
  {
    "city_id": 393,
    "name_fa": "سلسله",
    "name_en": "Selseleh",
    "province_id": 26,
    "latitude": 35.1293,
    "longitude": 47.4521
  },
  {
    "city_id": 1227,
    "name_fa": "سیدان",
    "name_en": "Seyedan",
    "province_id": 17,
    "latitude": 35.9319,
    "longitude": 47.7245
  },
  {
    "city_id": 1285,
    "name_fa": "زرینه",
    "name_en": "Zarrineh",
    "province_id": 20,
    "latitude": 35.018,
    "longitude": 47.9248
  },
  {
    "city_id": 1286,
    "name_fa": "اورامان تخت",
    "name_en": "Uraman Takht",
    "province_id": 20,
    "latitude": 35.2526,
    "longitude": 46.2624
  },
  {
    "city_id": 1281,
    "name_fa": "یاسوکند",
    "name_en": "Hasanabad-e Yasukand",
    "province_id": 20,
    "latitude": 36.2843531,
    "longitude": 47.746568
  },
  {
    "city_id": 768,
    "name_fa": "امام حسن",
    "name_en": "Emam Hasan",
    "province_id": 7,
    "latitude": 34.539487,
    "longitude": 45.833509
  },
  {
    "city_id": 1385,
    "name_fa": "گهواره",
    "name_en": "Gahvareh",
    "province_id": 22,
    "latitude": 34.344125,
    "longitude": 46.417181
  },
  {
    "city_id": 1374,
    "name_fa": "حمیل",
    "name_en": "Homeyl",
    "province_id": 22,
    "latitude": 33.9376399,
    "longitude": 46.7736717
  },
  {
    "city_id": 1028,
    "name_fa": "میانرود",
    "name_en": "Mianrud",
    "province_id": 13,
    "latitude": 33.8887,
    "longitude": 47.0571
  },
  {
    "city_id": 1398,
    "name_fa": "هلشی",
    "name_en": "Ahlashi",
    "province_id": 22,
    "latitude": 34.1105266,
    "longitude": 47.0894855
  },
  {
    "city_id": 1171,
    "name_fa": "دوبرجی",
    "name_en": "Doborji",
    "province_id": 17,
    "latitude": 34.1132,
    "longitude": 47.082
  },
  {
    "city_id": 1397,
    "name_fa": "کوزران",
    "name_en": "Kuzaran",
    "province_id": 22,
    "latitude": 34.4965,
    "longitude": 46.599
  },
  {
    "city_id": 1376,
    "name_fa": "باینگان",
    "name_en": "Bayangan",
    "province_id": 22,
    "latitude": 34.9813,
    "longitude": 46.2709
  },
  {
    "city_id": 1701,
    "name_fa": "میبد",
    "name_en": "Meybod",
    "province_id": 31,
    "latitude": 32.2510825,
    "longitude": 54.0159205
  },
  {
    "city_id": 1527,
    "name_fa": "گراب",
    "name_en": "گراب",
    "province_id": 26,
    "latitude": 36.1726034,
    "longitude": 51.1176399
  },
  {
    "city_id": 1517,
    "name_fa": "چالانچولان",
    "name_en": "Chalanchulan",
    "province_id": 26,
    "latitude": 33.6652163,
    "longitude": 48.9070691
  },
  {
    "city_id": 627,
    "name_fa": "خمینی شهر",
    "name_en": "خمینی شهر",
    "province_id": 4,
    "latitude": 26.6176246,
    "longitude": 58.03472
  },
  {
    "city_id": 1388,
    "name_fa": "سرپل ذهاب",
    "name_en": "Sarpol-e Zahab",
    "province_id": 22,
    "latitude": 34.4607687,
    "longitude": 45.863763
  },
  {
    "city_id": 1106,
    "name_fa": "محمدان",
    "name_en": "محمدان",
    "province_id": 16,
    "latitude": 39.1189416,
    "longitude": 47.530611
  },
  {
    "city_id": 1351,
    "name_fa": "فهرج",
    "name_en": "Fahraj",
    "province_id": 21,
    "latitude": 31.7633161,
    "longitude": 54.5796666
  },
  {
    "city_id": 1152,
    "name_fa": "سده",
    "name_en": "Sedeh",
    "province_id": 17,
    "latitude": 36.7879493,
    "longitude": 50.5027696
  },
  {
    "city_id": 830,
    "name_fa": "نقنه",
    "name_en": "Naqneh",
    "province_id": 9,
    "latitude": 31.9333253,
    "longitude": 51.3258702
  },
  {
    "city_id": 1128,
    "name_fa": "قصرقند",
    "name_en": "Qasr-e Qand",
    "province_id": 16,
    "latitude": 26.2394578,
    "longitude": 60.7419235
  },
  {
    "city_id": 1550,
    "name_fa": "جویبار",
    "name_en": "Joybar",
    "province_id": 27,
    "latitude": 36.6400238,
    "longitude": 52.9100038
  },
  {
    "city_id": 661,
    "name_fa": "جوشقان قالی",
    "name_en": "Jowsheqan-e Qali",
    "province_id": 4,
    "latitude": 33.5908206,
    "longitude": 51.212541
  },
  {
    "city_id": 1589,
    "name_fa": "ساروق",
    "name_en": "Saruq",
    "province_id": 28,
    "latitude": 34.4082114,
    "longitude": 49.5082074
  },
  {
    "city_id": 1154,
    "name_fa": "حسامی",
    "name_en": "Hesami",
    "province_id": 17,
    "latitude": 29.9693659,
    "longitude": 53.87376
  },
  {
    "city_id": 1148,
    "name_fa": "رونیز",
    "name_en": "Roniz Olya",
    "province_id": 17,
    "latitude": 29.1904364,
    "longitude": 53.7674276
  },
  {
    "city_id": 1153,
    "name_fa": "بوانات",
    "name_en": "Bavanat",
    "province_id": 17,
    "latitude": 30.4738825,
    "longitude": 53.6228281
  },
  {
    "city_id": 1141,
    "name_fa": "ایزدخواست",
    "name_en": "Izadkhast",
    "province_id": 17,
    "latitude": 31.5158438,
    "longitude": 52.1247911
  },
  {
    "city_id": 1341,
    "name_fa": "هماشهر",
    "name_en": "Homashahr",
    "province_id": 21,
    "latitude": 29.6491068,
    "longitude": 55.8197958
  },
  {
    "city_id": 1147,
    "name_fa": "ایج",
    "name_en": "Ij",
    "province_id": 17,
    "latitude": 29.0203737,
    "longitude": 54.2477453
  },
  {
    "city_id": 1336,
    "name_fa": "پاریز",
    "name_en": "Pariz",
    "province_id": 21,
    "latitude": 29.8735063,
    "longitude": 55.7493447
  },
  {
    "city_id": 933,
    "name_fa": "سرخس",
    "name_en": "Sarakhs",
    "province_id": 11,
    "latitude": 36.5399097,
    "longitude": 61.1564431
  },
  {
    "city_id": 1453,
    "name_fa": "آستانه اشرفیه",
    "name_en": "Astaneh Ashrafieh",
    "province_id": 25,
    "latitude": 37.2607374,
    "longitude": 49.9456642
  },
  {
    "city_id": 1434,
    "name_fa": "سنگدوین",
    "name_en": "Sangdevin",
    "province_id": 24,
    "latitude": 36.9961957,
    "longitude": 54.8565871
  },
  {
    "city_id": 1439,
    "name_fa": "فراغی",
    "name_en": "Faraghi",
    "province_id": 24,
    "latitude": 37.5270128,
    "longitude": 55.5941862
  },
  {
    "city_id": 1399,
    "name_fa": "کنگاور",
    "name_en": "کنگاور",
    "province_id": 22,
    "latitude": 37.2959874,
    "longitude": 47.614614
  },
  {
    "city_id": 1617,
    "name_fa": "محلات",
    "name_en": "Mahalat",
    "province_id": 28,
    "latitude": 33.9060573,
    "longitude": 50.4526427
  },
  {
    "city_id": 1442,
    "name_fa": "جلین",
    "name_en": "Jelin",
    "province_id": 24,
    "latitude": 36.8547447,
    "longitude": 54.535716
  },
  {
    "city_id": 699,
    "name_fa": "چهارباغ",
    "name_en": "Chahar Bagh",
    "province_id": 5,
    "latitude": 36.6032909,
    "longitude": 54.4993947
  },
  {
    "city_id": 1384,
    "name_fa": "کرند",
    "name_en": "Kerend",
    "province_id": 22,
    "latitude": 37.9588774,
    "longitude": 55.5133624
  },
  {
    "city_id": 1582,
    "name_fa": "نور",
    "name_en": "نور",
    "province_id": 27,
    "latitude": 36.9459511,
    "longitude": 54.933093
  },
  {
    "city_id": 1011,
    "name_fa": "چمران",
    "name_en": "چمران",
    "province_id": 13,
    "latitude": 37.3440145,
    "longitude": 55.4507829
  },
  {
    "city_id": 1248,
    "name_fa": "شریفیه",
    "name_en": "شریفیه",
    "province_id": 18,
    "latitude": 31.0397752,
    "longitude": 48.9760192
  },
  {
    "city_id": 1075,
    "name_fa": "ارمغانخانه",
    "name_en": "Armaghankhanen",
    "province_id": 14,
    "latitude": 36.9773471,
    "longitude": 48.3731561
  },
  {
    "city_id": 1156,
    "name_fa": "مزایجان",
    "name_en": "Mazayjan",
    "province_id": 17,
    "latitude": 30.2922977,
    "longitude": 53.802393
  },
  {
    "city_id": 1344,
    "name_fa": "خورسند",
    "name_en": "Khursand",
    "province_id": 21,
    "latitude": 30.1558292,
    "longitude": 55.0863353
  },
  {
    "city_id": 1306,
    "name_fa": "بزنجان",
    "name_en": "Bezenjan",
    "province_id": 21,
    "latitude": 29.2513403,
    "longitude": 56.6995331
  },
  {
    "city_id": 851,
    "name_fa": "صمصامی",
    "name_en": "Samsāmi",
    "province_id": 9,
    "latitude": 32.1670091,
    "longitude": 50.2754832
  },
  {
    "city_id": 1467,
    "name_fa": "بره سر",
    "name_en": "Barehsar",
    "province_id": 25,
    "latitude": 36.7791256,
    "longitude": 49.752007
  },
  {
    "city_id": 1065,
    "name_fa": "حلب",
    "name_en": "Halab",
    "province_id": 14,
    "latitude": 36.2952608,
    "longitude": 48.0595228
  },
  {
    "city_id": 1087,
    "name_fa": "دیباج",
    "name_en": "Dibaj",
    "province_id": 15,
    "latitude": 36.4282719,
    "longitude": 54.2294606
  },
  {
    "city_id": 1077,
    "name_fa": "نیک پی",
    "name_en": "Nik Pey",
    "province_id": 14,
    "latitude": 36.8511873,
    "longitude": 48.1801063
  },
  {
    "city_id": 1510,
    "name_fa": "معمولان",
    "name_en": "Mamulan City",
    "province_id": 26,
    "latitude": 33.3797253,
    "longitude": 47.9604832
  },
  {
    "city_id": 1191,
    "name_fa": "نوجین",
    "name_en": "Nowjein",
    "province_id": 17,
    "latitude": 29.1225372,
    "longitude": 52.0151013
  },
  {
    "city_id": 605,
    "name_fa": "قهجاورستان",
    "name_en": "Qahjavarestan",
    "province_id": 4,
    "latitude": 32.7040579,
    "longitude": 51.8330476
  },
  {
    "city_id": 616,
    "name_fa": "سین",
    "name_en": "Sin",
    "province_id": 4,
    "latitude": 32.8536719,
    "longitude": 51.6563384
  },
  {
    "city_id": 958,
    "name_fa": "خرو",
    "name_en": "Kharv",
    "province_id": 11,
    "latitude": 34.2091969,
    "longitude": 58.3359524
  },
  {
    "city_id": 1690,
    "name_fa": "عقدا",
    "name_en": "Aqda",
    "province_id": 31,
    "latitude": 32.4399758,
    "longitude": 53.628458
  },
  {
    "city_id": 809,
    "name_fa": "شهریار",
    "name_en": "Shahriyar",
    "province_id": 8,
    "latitude": 35.6589015,
    "longitude": 51.0586022
  },
  {
    "city_id": 467,
    "name_fa": "سهند",
    "name_en": "Sahand",
    "province_id": 1,
    "latitude": 37.9471891,
    "longitude": 46.1184603
  },
  {
    "city_id": 584,
    "name_fa": "مرادلو",
    "name_en": "Moradlu",
    "province_id": 3,
    "latitude": 38.7466001,
    "longitude": 47.7458947
  },
  {
    "city_id": 1250,
    "name_fa": "ارداق",
    "name_en": "Ardaq",
    "province_id": 18,
    "latitude": 36.0531207,
    "longitude": 49.8249049
  },
  {
    "city_id": 1254,
    "name_fa": "شال",
    "name_en": "Shal",
    "province_id": 18,
    "latitude": 35.8980371,
    "longitude": 49.7700946
  },
  {
    "city_id": 1252,
    "name_fa": "دانسفهان",
    "name_en": "Danesfahan",
    "province_id": 18,
    "latitude": 35.811396,
    "longitude": 49.7420921
  },
  {
    "city_id": 1599,
    "name_fa": "خشکرود",
    "name_en": "Khoshkrud",
    "province_id": 28,
    "latitude": 35.399491,
    "longitude": 50.3345777
  },
  {
    "city_id": 1049,
    "name_fa": "ترکالکی",
    "name_en": "Torkalaki",
    "province_id": 13,
    "latitude": 32.2441851,
    "longitude": 48.8464607
  },
  {
    "city_id": 974,
    "name_fa": "قوشخانه",
    "name_en": "Qush Khaneh",
    "province_id": 12,
    "latitude": 36.9969444,
    "longitude": 58.2183333
  },
  {
    "city_id": 976,
    "name_fa": "تیتکانلو",
    "name_en": "Titkanlu",
    "province_id": 12,
    "latitude": 37.2811331,
    "longitude": 58.2884947
  },
  {
    "city_id": 1584,
    "name_fa": "کجور",
    "name_en": "Kojur",
    "province_id": 27,
    "latitude": 36.3843225,
    "longitude": 51.7273613
  },
  {
    "city_id": 601,
    "name_fa": "تودشک",
    "name_en": "تودشک",
    "province_id": 4,
    "latitude": 32.7198701,
    "longitude": 52.6707972
  },
  {
    "city_id": 992,
    "name_fa": "قلعه خواجه",
    "name_en": "قلعه خواجه",
    "province_id": 13,
    "latitude": 33.1144619,
    "longitude": 50.0087362
  },
  {
    "city_id": 824,
    "name_fa": "کاج",
    "name_en": "کاج",
    "province_id": 9,
    "latitude": 32.5386371,
    "longitude": 51.8334811
  },
  {
    "city_id": 319,
    "name_fa": "ریگان",
    "name_en": "Rigan",
    "province_id": 21,
    "latitude": 35.2127778,
    "longitude": 59.6741667
  },
  {
    "city_id": 181,
    "name_fa": "زاوه",
    "name_en": "Zaveh",
    "province_id": 11,
    "latitude": 35.2722222,
    "longitude": 59.4658333
  },
  {
    "city_id": 1159,
    "name_fa": "باب انار",
    "name_en": "Bab Anar",
    "province_id": 17,
    "latitude": 28.9670095,
    "longitude": 53.2127701
  },
  {
    "city_id": 1342,
    "name_fa": "جوزم",
    "name_en": "Jowzam",
    "province_id": 21,
    "latitude": 30.5167659,
    "longitude": 55.0329444
  },
  {
    "city_id": 656,
    "name_fa": "زازران",
    "name_en": "Zazeran",
    "province_id": 4,
    "latitude": 32.6018472,
    "longitude": 51.497766
  },
  {
    "city_id": 707,
    "name_fa": "آسارا",
    "name_en": "Asara",
    "province_id": 5,
    "latitude": 36.036872,
    "longitude": 51.1954666
  },
  {
    "city_id": 780,
    "name_fa": "صالحیه",
    "name_en": "Salehiyeh",
    "province_id": 8,
    "latitude": 35.1377906,
    "longitude": 57.386603
  },
  {
    "city_id": 710,
    "name_fa": "گرمدره",
    "name_en": "Garmdarreh",
    "province_id": 5,
    "latitude": 32.6892456,
    "longitude": 50.8167827
  },
  {
    "city_id": 626,
    "name_fa": "اصغرآباد",
    "name_en": "اصغرآباد",
    "province_id": 4,
    "latitude": 37.314088,
    "longitude": 56.5339698
  },
  {
    "city_id": 1554,
    "name_fa": "هچیرود",
    "name_en": "Hachirood",
    "province_id": 27,
    "latitude": 36.6879365,
    "longitude": 51.3452585
  },
  {
    "city_id": 1557,
    "name_fa": "پایین هولار",
    "name_en": "Pain Hular",
    "province_id": 27,
    "latitude": 36.4284939,
    "longitude": 53.1350757
  },
  {
    "city_id": 686,
    "name_fa": "بافران",
    "name_en": "Bafran",
    "province_id": 4,
    "latitude": 32.8398145,
    "longitude": 53.1410352
  },
  {
    "city_id": 617,
    "name_fa": "شاپورآباد",
    "name_en": "Shahpurabad",
    "province_id": 4,
    "latitude": 32.8438053,
    "longitude": 51.744414
  },
  {
    "city_id": 665,
    "name_fa": "مشکات",
    "name_en": "Meshkat",
    "province_id": 4,
    "latitude": 34.1776048,
    "longitude": 51.2641758
  },
  {
    "city_id": 618,
    "name_fa": "کمشچه",
    "name_en": "Komeshcheh",
    "province_id": 4,
    "latitude": 32.9055468,
    "longitude": 51.809343
  },
  {
    "city_id": 638,
    "name_fa": "کمه",
    "name_en": "Komeh",
    "province_id": 4,
    "latitude": 31.0676887,
    "longitude": 51.5936835
  },
  {
    "city_id": 1205,
    "name_fa": "بالاده",
    "name_en": "بالاده",
    "province_id": 17,
    "latitude": 37.7440869,
    "longitude": 48.9479491
  },
  {
    "city_id": 1613,
    "name_fa": "خنجین",
    "name_en": "Khenejin",
    "province_id": 28,
    "latitude": 34.7562927,
    "longitude": 49.5320125
  },
  {
    "city_id": 1600,
    "name_fa": "رازقان",
    "name_en": "Razqan",
    "province_id": 28,
    "latitude": 35.3312924,
    "longitude": 49.9556045
  },
  {
    "city_id": 731,
    "name_fa": "دهلران",
    "name_en": "Dehloran",
    "province_id": 6,
    "latitude": 32.6914932,
    "longitude": 47.2674712
  },
  {
    "city_id": 1648,
    "name_fa": "گروک",
    "name_en": "گروک",
    "province_id": 29,
    "latitude": 28.6692377,
    "longitude": 60.8529659
  },
  {
    "city_id": 1151,
    "name_fa": "دژکرد",
    "name_en": "Dezhkord",
    "province_id": 17,
    "latitude": 30.7231669,
    "longitude": 51.954873
  },
  {
    "city_id": 675,
    "name_fa": "زرین شهر",
    "name_en": "Zarrinshahr",
    "province_id": 4,
    "latitude": 32.3887062,
    "longitude": 51.3737142
  },
  {
    "city_id": 1054,
    "name_fa": "لالی",
    "name_en": "Lali",
    "province_id": 13,
    "latitude": 32.3306321,
    "longitude": 49.0944
  },
  {
    "city_id": 1058,
    "name_fa": "زهره",
    "name_en": "Zahreh",
    "province_id": 13,
    "latitude": 30.4695635,
    "longitude": 49.684133
  },
  {
    "city_id": 744,
    "name_fa": "آباد",
    "name_en": "آباد",
    "province_id": 7,
    "latitude": 30.4149087,
    "longitude": 50.0800967
  },
  {
    "city_id": 995,
    "name_fa": "بیدروبه",
    "name_en": "Bidrubeh",
    "province_id": 13,
    "latitude": 32.7611171,
    "longitude": 48.2373019
  },
  {
    "city_id": 813,
    "name_fa": "ارجمند",
    "name_en": "Arjmand",
    "province_id": 8,
    "latitude": 35.8154903,
    "longitude": 52.5141334
  },
  {
    "city_id": 713,
    "name_fa": "تنکمان",
    "name_en": "Tankaman",
    "province_id": 5,
    "latitude": 35.8906652,
    "longitude": 50.6156142
  },
  {
    "city_id": 1317,
    "name_fa": "درب بهشت",
    "name_en": "Darb-e Behesht",
    "province_id": 21,
    "latitude": 29.2331911,
    "longitude": 57.3371829
  },
  {
    "city_id": 1302,
    "name_fa": "ارزوییه",
    "name_en": "ارزوییه",
    "province_id": 21,
    "latitude": 28.4411748,
    "longitude": 56.3720229
  },
  {
    "city_id": 1354,
    "name_fa": "اندوهجرد",
    "name_en": "Anduhjerd",
    "province_id": 21,
    "latitude": 30.2315368,
    "longitude": 57.751371
  },
  {
    "city_id": 1355,
    "name_fa": "باغین",
    "name_en": "Baghein",
    "province_id": 21,
    "latitude": 30.187107,
    "longitude": 56.8176548
  },
  {
    "city_id": 1308,
    "name_fa": "دشتکار",
    "name_en": "دشتکار",
    "province_id": 21,
    "latitude": 29.9067856,
    "longitude": 56.6622281
  },
  {
    "city_id": 1347,
    "name_fa": "دوساری",
    "name_en": "Dow Sari",
    "province_id": 21,
    "latitude": 28.4292459,
    "longitude": 57.9423801
  },
  {
    "city_id": 1370,
    "name_fa": "نودژ",
    "name_en": "Nowdezh",
    "province_id": 21,
    "latitude": 27.5267475,
    "longitude": 57.4574925
  },
  {
    "city_id": 1329,
    "name_fa": "گنبکی",
    "name_en": "Gonbaki",
    "province_id": 21,
    "latitude": 28.7222475,
    "longitude": 58.8664914
  },
  {
    "city_id": 1315,
    "name_fa": "جبالبارز",
    "name_en": "Jebalbarez",
    "province_id": 21,
    "latitude": 28.9071346,
    "longitude": 57.8852472
  },
  {
    "city_id": 1349,
    "name_fa": "مردهک",
    "name_en": "Mardehek",
    "province_id": 21,
    "latitude": 28.3517264,
    "longitude": 58.1586637
  },
  {
    "city_id": 1337,
    "name_fa": "خواجو شهر",
    "name_en": "Khaju Shahr",
    "province_id": 21,
    "latitude": 29.2730974,
    "longitude": 55.8314812
  },
  {
    "city_id": 1325,
    "name_fa": "کشکوییه",
    "name_en": "Kashkuiyeh",
    "province_id": 21,
    "latitude": 28.9664277,
    "longitude": 56.5910897
  },
  {
    "city_id": 1334,
    "name_fa": "یزدان شهر",
    "name_en": "یزدان شهر",
    "province_id": 21,
    "latitude": 30.8651417,
    "longitude": 56.3617001
  },
  {
    "city_id": 1161,
    "name_fa": "خاوران",
    "name_en": "Khavaran",
    "province_id": 17,
    "latitude": 28.937829,
    "longitude": 53.3147706
  },
  {
    "city_id": 765,
    "name_fa": "بردستان",
    "name_en": "bardestan",
    "province_id": 7,
    "latitude": 31.579284,
    "longitude": 54.0204033
  },
  {
    "city_id": 1700,
    "name_fa": "بفروییه",
    "name_en": "Bafruiyeh",
    "province_id": 31,
    "latitude": 32.2779278,
    "longitude": 53.9939167
  },
  {
    "city_id": 1319,
    "name_fa": "هنزا",
    "name_en": "hanza",
    "province_id": 21,
    "latitude": 31.6259508,
    "longitude": 54.2157871
  },
  {
    "city_id": 812,
    "name_fa": "وحیدیه",
    "name_en": "Vahidiyyeh",
    "province_id": 8,
    "latitude": 35.6062379,
    "longitude": 51.0263766
  },
  {
    "city_id": 1653,
    "name_fa": "تیرور",
    "name_en": "Tirur, Iran",
    "province_id": 29,
    "latitude": 27.3396747,
    "longitude": 56.9567463
  },
  {
    "city_id": 823,
    "name_fa": "سرخون",
    "name_en": "Sarkhun",
    "province_id": 9,
    "latitude": 27.3936218,
    "longitude": 56.3996569
  },
  {
    "city_id": 1639,
    "name_fa": "سرگز",
    "name_en": "سرگز",
    "province_id": 29,
    "latitude": 27.9398953,
    "longitude": 56.662752
  },
  {
    "city_id": 1654,
    "name_fa": "سندرک",
    "name_en": "Senderk",
    "province_id": 29,
    "latitude": 26.8370511,
    "longitude": 57.4254084
  },
  {
    "city_id": 234,
    "name_fa": "طارم",
    "name_en": "Tarom",
    "province_id": 14,
    "latitude": 28.1838327,
    "longitude": 55.7433138
  },
  {
    "city_id": 1636,
    "name_fa": "کوشکنار",
    "name_en": "Kushk-e Nar",
    "province_id": 29,
    "latitude": 27.2525961,
    "longitude": 52.8671285
  },
  {
    "city_id": 1222,
    "name_fa": "اهل",
    "name_en": "Ahel",
    "province_id": 17,
    "latitude": 27.2112114,
    "longitude": 53.6588384
  },
  {
    "city_id": 1225,
    "name_fa": "خانیمن",
    "name_en": "Khaniman",
    "province_id": 17,
    "latitude": 30.3500901,
    "longitude": 52.2416315
  },
  {
    "city_id": 1206,
    "name_fa": "خشت",
    "name_en": "خشت",
    "province_id": 17,
    "latitude": 27.2348774,
    "longitude": 53.4363109
  },
  {
    "city_id": 1234,
    "name_fa": "خوزی",
    "name_en": "Khuzi",
    "province_id": 17,
    "latitude": 27.4480198,
    "longitude": 52.9723728
  },
  {
    "city_id": 1231,
    "name_fa": "خومه زار",
    "name_en": "Khumeh Zar",
    "province_id": 17,
    "latitude": 30.0090201,
    "longitude": 51.5737978
  },
  {
    "city_id": 1172,
    "name_fa": "فدامی",
    "name_en": "Fadami",
    "province_id": 17,
    "latitude": 28.2155252,
    "longitude": 55.133631
  },
  {
    "city_id": 1158,
    "name_fa": "مادرسلیمان",
    "name_en": "Madar-e-Soleyman",
    "province_id": 17,
    "latitude": 30.1910123,
    "longitude": 53.1734212
  },
  {
    "city_id": 1408,
    "name_fa": "مادوان",
    "name_en": "مادوان",
    "province_id": 23,
    "latitude": 28.7546494,
    "longitude": 54.2604227
  },
  {
    "city_id": 1210,
    "name_fa": "نودان",
    "name_en": "Nowdan",
    "province_id": 17,
    "latitude": 29.8019495,
    "longitude": 51.6935995
  },
  {
    "city_id": 1155,
    "name_fa": "کره ای",
    "name_en": "کره ای",
    "province_id": 17,
    "latitude": 29.5938759,
    "longitude": 51.3788621
  },
  {
    "city_id": 1226,
    "name_fa": "رامجرد",
    "name_en": "Ramjerd",
    "province_id": 17,
    "latitude": 30.0755424,
    "longitude": 52.592567
  },
  {
    "city_id": 1173,
    "name_fa": "کوپن",
    "name_en": "Kupon",
    "province_id": 17,
    "latitude": 30.335431,
    "longitude": 51.290556
  },
  {
    "city_id": 779,
    "name_fa": "چهاردانگه",
    "name_en": "Chahar Dangeh",
    "province_id": 8,
    "latitude": 35.6067482,
    "longitude": 51.3100612
  },
  {
    "city_id": 1413,
    "name_fa": "سرفاریاب",
    "name_en": "سرفاریاب",
    "province_id": 23,
    "latitude": 30.8037579,
    "longitude": 50.8539914
  },
  {
    "city_id": 1414,
    "name_fa": "پاتاوه",
    "name_en": "Pataveh",
    "province_id": 23,
    "latitude": 30.9556435,
    "longitude": 51.2676802
  },
  {
    "city_id": 1406,
    "name_fa": "چیتاب",
    "name_en": "Chitab",
    "province_id": 23,
    "latitude": 30.7942097,
    "longitude": 51.327525
  },
  {
    "city_id": 773,
    "name_fa": "بنک",
    "name_en": "Banak",
    "province_id": 7,
    "latitude": 27.8720312,
    "longitude": 52.0270259
  },
  {
    "city_id": 752,
    "name_fa": "بوشکان",
    "name_en": "Bushkan",
    "province_id": 7,
    "latitude": 28.8303842,
    "longitude": 51.6986659
  },
  {
    "city_id": 1013,
    "name_fa": "تشان",
    "name_en": "تشان",
    "province_id": 13,
    "latitude": 28.0407028,
    "longitude": 52.1197455
  },
  {
    "city_id": 767,
    "name_fa": "دوراهک",
    "name_en": "Dowrahak",
    "province_id": 7,
    "latitude": 27.9471043,
    "longitude": 51.9598451
  },
  {
    "city_id": 761,
    "name_fa": "شنبه",
    "name_en": "Shonbeh",
    "province_id": 7,
    "latitude": 28.3952701,
    "longitude": 51.7645229
  },
  {
    "city_id": 1630,
    "name_fa": "چارک",
    "name_en": "chark",
    "province_id": 29,
    "latitude": 28.5776582,
    "longitude": 51.2476957
  },
  {
    "city_id": 1029,
    "name_fa": "ابوحمیظه",
    "name_en": "Abu Homeyzeh",
    "province_id": 13,
    "latitude": 31.5293321,
    "longitude": 48.2200324
  },
  {
    "city_id": 1021,
    "name_fa": "حمزه",
    "name_en": "حمزه",
    "province_id": 13,
    "latitude": 32.1510423,
    "longitude": 48.2571421
  },
  {
    "city_id": 1036,
    "name_fa": "خنافره",
    "name_en": "Khanafereh",
    "province_id": 13,
    "latitude": 30.6326669,
    "longitude": 48.6331848
  },
  {
    "city_id": 1037,
    "name_fa": "دارخوین",
    "name_en": "Darkhoveyn",
    "province_id": 13,
    "latitude": 30.7416962,
    "longitude": 48.4194934
  },
  {
    "city_id": 125,
    "name_fa": "دیلم",
    "name_en": "دیلم",
    "province_id": 7,
    "latitude": 31.7774413,
    "longitude": 48.8661642
  },
  {
    "city_id": 1044,
    "name_fa": "سرداران",
    "name_en": "سرداران",
    "province_id": 13,
    "latitude": 32.0206734,
    "longitude": 48.7899226
  },
  {
    "city_id": 993,
    "name_fa": "آزادی",
    "name_en": "آزادی",
    "province_id": 13,
    "latitude": 32.4041735,
    "longitude": 48.2512579
  },
  {
    "city_id": 1052,
    "name_fa": "صالح شهر",
    "name_en": "Saleh Shahr",
    "province_id": 13,
    "latitude": 32.2120495,
    "longitude": 48.6722366
  },
  {
    "city_id": 1043,
    "name_fa": "فتح المبین",
    "name_en": "Fath ol Mobin",
    "province_id": 13,
    "latitude": 32.313844,
    "longitude": 48.1479421
  },
  {
    "city_id": 1003,
    "name_fa": "صیدون",
    "name_en": "Seydun",
    "province_id": 13,
    "latitude": 31.367373,
    "longitude": 50.0844132
  },
  {
    "city_id": 1039,
    "name_fa": "الوان",
    "name_en": "AbdolKhan-e Alvan",
    "province_id": 13,
    "latitude": 31.8750982,
    "longitude": 48.3388672
  },
  {
    "city_id": 1008,
    "name_fa": "ویس",
    "name_en": "Veys",
    "province_id": 13,
    "latitude": 31.4855352,
    "longitude": 48.8758094
  },
  {
    "city_id": 996,
    "name_fa": "چم گلک",
    "name_en": "Chamgolak",
    "province_id": 13,
    "latitude": 32.4448307,
    "longitude": 48.4418611
  },
  {
    "city_id": 1047,
    "name_fa": "گوریه",
    "name_en": "Guriyeh",
    "province_id": 13,
    "latitude": 31.8559767,
    "longitude": 48.7563581
  },
  {
    "city_id": 1506,
    "name_fa": "شول آباد",
    "name_en": "shulabad",
    "province_id": 26,
    "latitude": 33.1853836,
    "longitude": 49.1906861
  },
  {
    "city_id": 594,
    "name_fa": "نوش آباد",
    "name_en": "Nushabad",
    "province_id": 4,
    "latitude": 33.3330988,
    "longitude": 48.5742629
  },
  {
    "city_id": 1521,
    "name_fa": "چقابل",
    "name_en": "Chaqabal",
    "province_id": 26,
    "latitude": 33.6662695,
    "longitude": 48.5189312
  },
  {
    "city_id": 1519,
    "name_fa": "سراب دوره",
    "name_en": "Sarāb-e Dowreh",
    "province_id": 26,
    "latitude": 33.5636959,
    "longitude": 48.0225482
  },
  {
    "city_id": 1526,
    "name_fa": "کوهنانی",
    "name_en": "Kuhnani",
    "province_id": 26,
    "latitude": 33.403194,
    "longitude": 47.3258403
  },
  {
    "city_id": 173,
    "name_fa": "جوین",
    "name_en": "جوین",
    "province_id": 11,
    "latitude": 36.003903,
    "longitude": 49.8522387
  },
  {
    "city_id": 1262,
    "name_fa": "سیردان",
    "name_en": "Sirdan",
    "province_id": 18,
    "latitude": 36.6466238,
    "longitude": 49.1917414
  },
  {
    "city_id": 998,
    "name_fa": "الهایی",
    "name_en": "Elhaei",
    "province_id": 13,
    "latitude": 31.6572507,
    "longitude": 48.5934229
  },
  {
    "city_id": 651,
    "name_fa": "فریدونشهر",
    "name_en": "Fereydunshahr",
    "province_id": 4,
    "latitude": 32.942017,
    "longitude": 50.1203257
  },
  {
    "city_id": 624,
    "name_fa": "چادگان",
    "name_en": "Chadegan",
    "province_id": 4,
    "latitude": 32.7679417,
    "longitude": 50.6290648
  },
  {
    "city_id": 1460,
    "name_fa": "رشت",
    "name_en": "Rasht",
    "province_id": 25,
    "latitude": 37.2697578,
    "longitude": 49.5894854
  },
  {
    "city_id": 104,
    "name_fa": "ساوجبلاغ",
    "name_en": "ساوجبلاغ",
    "province_id": 5,
    "latitude": 37.5924393,
    "longitude": 47.9782103
  },
  {
    "city_id": 1165,
    "name_fa": "سلطان شهر",
    "name_en": "Soltan Shahr",
    "province_id": 17,
    "latitude": 29.6273121,
    "longitude": 53.2342532
  },
  {
    "city_id": 1662,
    "name_fa": "مهاجران",
    "name_en": "Mohajeran",
    "province_id": 30,
    "latitude": 35.0764851,
    "longitude": 48.6161213
  },
  {
    "city_id": 815,
    "name_fa": "قدس",
    "name_en": "قدس",
    "province_id": 8,
    "latitude": 36.3596232,
    "longitude": 55.4412145
  },
  {
    "city_id": 1084,
    "name_fa": "کهن آباد",
    "name_en": "Kohanabad",
    "province_id": 15,
    "latitude": 35.2218074,
    "longitude": 52.5216992
  },
  {
    "city_id": 1605,
    "name_fa": "غرق آباد",
    "name_en": "Gharqabad",
    "province_id": 28,
    "latitude": 35.1092029,
    "longitude": 49.8312434
  },
  {
    "city_id": 1606,
    "name_fa": "نوبران",
    "name_en": "Nowbaran",
    "province_id": 28,
    "latitude": 35.1306563,
    "longitude": 49.7089976
  },
  {
    "city_id": 1053,
    "name_fa": "گتوند",
    "name_en": "Gotvand",
    "province_id": 13,
    "latitude": 32.2449183,
    "longitude": 48.8126036
  },
  {
    "city_id": 1405,
    "name_fa": "باشت",
    "name_en": "Basht",
    "province_id": 23,
    "latitude": 30.3610498,
    "longitude": 51.1575225
  },
  {
    "city_id": 1007,
    "name_fa": "ملاثانی",
    "name_en": "Mollasani",
    "province_id": 13,
    "latitude": 31.5841359,
    "longitude": 48.888229
  },
  {
    "city_id": 1179,
    "name_fa": "بیضا",
    "name_en": "Beyza",
    "province_id": 17,
    "latitude": 30.008388,
    "longitude": 52.3584413
  },
  {
    "city_id": 1587,
    "name_fa": "اراک",
    "name_en": "Arak",
    "province_id": 28,
    "latitude": 34.0862719,
    "longitude": 49.6893884
  },
  {
    "city_id": 1624,
    "name_fa": "بندرعباس",
    "name_en": "Bandar Abbas",
    "province_id": 29,
    "latitude": 27.1793466,
    "longitude": 56.2781423
  },
  {
    "city_id": 1051,
    "name_fa": "سماله",
    "name_en": "Somaleh",
    "province_id": 13,
    "latitude": 32.198813,
    "longitude": 48.8587387
  },
  {
    "city_id": 1050,
    "name_fa": "جنت مکان",
    "name_en": "Jannat Makan",
    "province_id": 13,
    "latitude": 32.1836847,
    "longitude": 48.8146563
  },
  {
    "city_id": 1045,
    "name_fa": "شرافت",
    "name_en": "Sherafat",
    "province_id": 13,
    "latitude": 32.0892117,
    "longitude": 48.7684968
  },
  {
    "city_id": 1024,
    "name_fa": "سیاه منصور",
    "name_en": "Siah Mansour",
    "province_id": 13,
    "latitude": 32.3311531,
    "longitude": 48.4961792
  },
  {
    "city_id": 844,
    "name_fa": "پردنجان",
    "name_en": "Pordanjan",
    "province_id": 9,
    "latitude": 32.2537092,
    "longitude": 50.5976127
  },
  {
    "city_id": 1223,
    "name_fa": "علامرودشت",
    "name_en": "Alamarvdasht",
    "province_id": 17,
    "latitude": 27.6248362,
    "longitude": 52.9976097
  },
  {
    "city_id": 715,
    "name_fa": "آبدانان",
    "name_en": "Abdanan",
    "province_id": 6,
    "latitude": 32.9901681,
    "longitude": 47.4221887
  },
  {
    "city_id": 999,
    "name_fa": "اهواز",
    "name_en": "Ahwaz",
    "province_id": 13,
    "latitude": 31.3230637,
    "longitude": 48.67932
  },
  {
    "city_id": 1211,
    "name_fa": "کوار",
    "name_en": "Kavar",
    "province_id": 17,
    "latitude": 29.2003014,
    "longitude": 52.6926076
  },
  {
    "city_id": 1415,
    "name_fa": "سی سخت",
    "name_en": "Sisakht",
    "province_id": 23,
    "latitude": 30.8630661,
    "longitude": 51.4557071
  },
  {
    "city_id": 1625,
    "name_fa": "تازیان پایین",
    "name_en": "Tazian-e-Paeen",
    "province_id": 29,
    "latitude": 27.2914701,
    "longitude": 56.153588
  },
  {
    "city_id": 794,
    "name_fa": "کیلان",
    "name_en": "Kilan",
    "province_id": 8,
    "latitude": 35.5505069,
    "longitude": 52.1684289
  },
  {
    "city_id": 628,
    "name_fa": "درچه",
    "name_en": "Dorcheh",
    "province_id": 4,
    "latitude": 32.6171666,
    "longitude": 51.5560012
  },
  {
    "city_id": 529,
    "name_fa": "نالوس",
    "name_en": "Nalus",
    "province_id": 2,
    "latitude": 36.9835017,
    "longitude": 45.1431549
  },
  {
    "city_id": 1253,
    "name_fa": "سگزآباد",
    "name_en": "Sagezabad",
    "province_id": 18,
    "latitude": 35.7739115,
    "longitude": 49.9362308
  },
  {
    "city_id": 701,
    "name_fa": "کوهسار",
    "name_en": "Kuhsar",
    "province_id": 5,
    "latitude": 35.9627157,
    "longitude": 50.7920955
  },
  {
    "city_id": 654,
    "name_fa": "بهاران شهر",
    "name_en": "Baharanshahr",
    "province_id": 4,
    "latitude": 32.515486,
    "longitude": 51.5417638
  },
  {
    "city_id": 495,
    "name_fa": "جوان قلعه",
    "name_en": "Javan Qaleh",
    "province_id": 1,
    "latitude": 37.4969626,
    "longitude": 45.9735062
  },
  {
    "city_id": 645,
    "name_fa": "وزوان",
    "name_en": "Vazvan",
    "province_id": 4,
    "latitude": 33.4183839,
    "longitude": 51.1847456
  },
  {
    "city_id": 987,
    "name_fa": "چویبده",
    "name_en": "Chavibdeh",
    "province_id": 13,
    "latitude": 30.1818106,
    "longitude": 48.5825118
  },
  {
    "city_id": 1020,
    "name_fa": "چغامیش",
    "name_en": "Choghamish",
    "province_id": 13,
    "latitude": 32.209337,
    "longitude": 48.5462613
  },
  {
    "city_id": 1023,
    "name_fa": "سالند",
    "name_en": "Saland",
    "province_id": 13,
    "latitude": 32.4967988,
    "longitude": 48.8341935
  },
  {
    "city_id": 808,
    "name_fa": "شاهدشهر",
    "name_en": "Shahedshahr",
    "province_id": 8,
    "latitude": 35.5735353,
    "longitude": 51.0868332
  },
  {
    "city_id": 1149,
    "name_fa": "اقلید",
    "name_en": "Eghlid",
    "province_id": 17,
    "latitude": 30.8925778,
    "longitude": 52.688496
  },
  {
    "city_id": 782,
    "name_fa": "نسیم شهر",
    "name_en": "Nasimshahr",
    "province_id": 8,
    "latitude": 35.5683375,
    "longitude": 51.1591692
  },
  {
    "city_id": 1221,
    "name_fa": "اشکنان",
    "name_en": "Eshkanan",
    "province_id": 17,
    "latitude": 27.2276095,
    "longitude": 53.6060429
  },
  {
    "city_id": 1651,
    "name_fa": "قشم",
    "name_en": "Qeshm",
    "province_id": 29,
    "latitude": 26.9501612,
    "longitude": 56.2691081
  },
  {
    "city_id": 1691,
    "name_fa": "اشکذر",
    "name_en": "Ashkezar",
    "province_id": 31,
    "latitude": 32.000526,
    "longitude": 54.2071804
  },
  {
    "city_id": 1703,
    "name_fa": "حمیدیا",
    "name_en": "Hamidiya",
    "province_id": 31,
    "latitude": 31.8254158,
    "longitude": 54.3936551
  },
  {
    "city_id": 555,
    "name_fa": "مرگنلر",
    "name_en": "مرگنلر",
    "province_id": 2,
    "latitude": 39.1489451,
    "longitude": 44.9523404
  },
  {
    "city_id": 1366,
    "name_fa": "کوهبنان",
    "name_en": "Kouhbanan",
    "province_id": 21,
    "latitude": 31.4100681,
    "longitude": 56.2825998
  },
  {
    "city_id": 1369,
    "name_fa": "منوجان",
    "name_en": "Manoujan",
    "province_id": 21,
    "latitude": 27.4014947,
    "longitude": 57.4949725
  },
  {
    "city_id": 1277,
    "name_fa": "بابارشانی",
    "name_en": "Babarashani",
    "province_id": 20,
    "latitude": 35.6794083,
    "longitude": 47.7985162
  },
  {
    "city_id": 741,
    "name_fa": "چغادک",
    "name_en": "Choghadak",
    "province_id": 7,
    "latitude": 28.9880011,
    "longitude": 51.0357975
  },
  {
    "city_id": 1682,
    "name_fa": "جورقان",
    "name_en": "Joraghan",
    "province_id": 30,
    "latitude": 34.8856081,
    "longitude": 48.55631
  },
  {
    "city_id": 1046,
    "name_fa": "شوشتر",
    "name_en": "Shushtar",
    "province_id": 13,
    "latitude": 32.0492034,
    "longitude": 48.851281
  },
  {
    "city_id": 684,
    "name_fa": "مجلسی",
    "name_en": "Majlesi",
    "province_id": 4,
    "latitude": 32.1980788,
    "longitude": 51.4992826
  },
  {
    "city_id": 1642,
    "name_fa": "رویدر",
    "name_en": "Ruydar",
    "province_id": 29,
    "latitude": 27.4646306,
    "longitude": 55.4191063
  },
  {
    "city_id": 1520,
    "name_fa": "ویسیان",
    "name_en": "Veysian",
    "province_id": 26,
    "latitude": 33.4866325,
    "longitude": 48.0304375
  },
  {
    "city_id": 778,
    "name_fa": "اسلامشهر",
    "name_en": "Eslamshahr",
    "province_id": 8,
    "latitude": 35.5478513,
    "longitude": 51.2318676
  },
  {
    "city_id": 723,
    "name_fa": "آسمان آباد",
    "name_en": "Asemanabad",
    "province_id": 6,
    "latitude": 33.8619245,
    "longitude": 46.4518435
  },
  {
    "city_id": 1012,
    "name_fa": "بهبهان",
    "name_en": "Behbahan",
    "province_id": 13,
    "latitude": 30.5942116,
    "longitude": 50.2434119
  },
  {
    "city_id": 795,
    "name_fa": "پرند",
    "name_en": "Parand",
    "province_id": 8,
    "latitude": 35.477882,
    "longitude": 50.9469189
  },
  {
    "city_id": 1041,
    "name_fa": "شاوور",
    "name_en": "شاوور",
    "province_id": 13,
    "latitude": 32.0564315,
    "longitude": 48.3043796
  },
  {
    "city_id": 1139,
    "name_fa": "دوست محمد",
    "name_en": "دوست محمد",
    "province_id": 16,
    "latitude": 25.4737597,
    "longitude": 61.2478888
  },
  {
    "city_id": 1570,
    "name_fa": "ارطه",
    "name_en": "Arate",
    "province_id": 27,
    "latitude": 36.4949892,
    "longitude": 52.9568562
  },
  {
    "city_id": 839,
    "name_fa": "کیان",
    "name_en": "کیان",
    "province_id": 9,
    "latitude": 36.056781,
    "longitude": 52.2146405
  },
  {
    "city_id": 530,
    "name_fa": "بوکان",
    "name_en": "Bukan",
    "province_id": 2,
    "latitude": 36.5215096,
    "longitude": 46.2111837
  },
  {
    "city_id": 1431,
    "name_fa": "خان ببین",
    "name_en": "Khanbebin",
    "province_id": 24,
    "latitude": 37.0125489,
    "longitude": 54.985773
  },
  {
    "city_id": 533,
    "name_fa": "نازک علیا",
    "name_en": "Nazok-e Olya",
    "province_id": 2,
    "latitude": 39.0109977,
    "longitude": 45.058161
  },
  {
    "city_id": 1318,
    "name_fa": "رابر",
    "name_en": "Rabor",
    "province_id": 21,
    "latitude": 29.2907749,
    "longitude": 56.914165
  },
  {
    "city_id": 204,
    "name_fa": "اندیکا",
    "name_en": "اندیکا",
    "province_id": 13,
    "latitude": 32.206896,
    "longitude": 49.4439
  },
  {
    "city_id": 481,
    "name_fa": "خمارلو",
    "name_en": "Khomarlu",
    "province_id": 1,
    "latitude": 39.1584011,
    "longitude": 47.0326209
  },
  {
    "city_id": 680,
    "name_fa": "زیباشهر",
    "name_en": "Zibashahr",
    "province_id": 4,
    "latitude": 32.3865574,
    "longitude": 51.5679359
  },
  {
    "city_id": 570,
    "name_fa": "اصلاندوز",
    "name_en": "Aslan Duz",
    "province_id": 3,
    "latitude": 39.4417175,
    "longitude": 47.4102145
  },
  {
    "city_id": 1440,
    "name_fa": "کلاله",
    "name_en": "Kalaleh",
    "province_id": 24,
    "latitude": 37.3756726,
    "longitude": 55.4932947
  },
  {
    "city_id": 1610,
    "name_fa": "شهباز",
    "name_en": "Shahbaz",
    "province_id": 28,
    "latitude": 33.8803531,
    "longitude": 49.5338705
  },
  {
    "city_id": 522,
    "name_fa": "هشترود",
    "name_en": "Hashtrud",
    "province_id": 1,
    "latitude": 37.4759767,
    "longitude": 47.0498103
  },
  {
    "city_id": 1633,
    "name_fa": "لمزان",
    "name_en": "Lamazan",
    "province_id": 29,
    "latitude": 27.0522974,
    "longitude": 54.8835685
  },
  {
    "city_id": 991,
    "name_fa": "آبژدان",
    "name_en": "Abezhdan",
    "province_id": 13,
    "latitude": 32.0667964,
    "longitude": 49.4578706
  },
  {
    "city_id": 664,
    "name_fa": "کامو و چوگان",
    "name_en": "Kamu and Chogan",
    "province_id": 4,
    "latitude": 33.6187712,
    "longitude": 51.2651986
  },
  {
    "city_id": 1383,
    "name_fa": "ریجاب",
    "name_en": "ریجاب",
    "province_id": 22,
    "latitude": 34.4733342,
    "longitude": 45.9824783
  },
  {
    "city_id": 1328,
    "name_fa": "زهکلوت",
    "name_en": "Zeh-e Kalut",
    "province_id": 21,
    "latitude": 27.793355,
    "longitude": 58.5907532
  },
  {
    "city_id": 1456,
    "name_fa": "رانکوه",
    "name_en": "Ranekouh",
    "province_id": 25,
    "latitude": 37.0509408,
    "longitude": 50.2358103
  },
  {
    "city_id": 1150,
    "name_fa": "حسن اباد",
    "name_en": "حسن اباد",
    "province_id": 17,
    "latitude": 35.2620407,
    "longitude": 47.4502836
  },
  {
    "city_id": 806,
    "name_fa": "اندیشه",
    "name_en": "Andisheh",
    "province_id": 8,
    "latitude": 35.7052413,
    "longitude": 51.0296232
  },
  {
    "city_id": 797,
    "name_fa": "نصیرشهر",
    "name_en": "Nasirshahr",
    "province_id": 8,
    "latitude": 35.4902417,
    "longitude": 51.1405769
  },
  {
    "city_id": 357,
    "name_fa": "ترکمن",
    "name_en": "ترکمن",
    "province_id": 24,
    "latitude": 35.6265946,
    "longitude": 50.9601084
  },
  {
    "city_id": 982,
    "name_fa": "آوا",
    "name_en": "Ava",
    "province_id": 12,
    "latitude": 37.4777242,
    "longitude": 56.7394623
  },
  {
    "city_id": 532,
    "name_fa": "پلدشت",
    "name_en": "Poldasht",
    "province_id": 2,
    "latitude": 39.34933,
    "longitude": 45.0699185
  },
  {
    "city_id": 1445,
    "name_fa": "سیمین شهر",
    "name_en": "Siminshahr",
    "province_id": 24,
    "latitude": 37.0112938,
    "longitude": 54.2317085
  },
  {
    "city_id": 484,
    "name_fa": "شربیان",
    "name_en": "Sharabiyan",
    "province_id": 1,
    "latitude": 37.881101,
    "longitude": 47.1008161
  },
  {
    "city_id": 1270,
    "name_fa": "قم",
    "name_en": "Qom",
    "province_id": 19,
    "latitude": 34.6422939,
    "longitude": 50.8801184
  },
  {
    "city_id": 674,
    "name_fa": "زاینده رود",
    "name_en": "Zayandeh Rud",
    "province_id": 4,
    "latitude": 32.3880514,
    "longitude": 51.269889
  },
  {
    "city_id": 1382,
    "name_fa": "جوانرود",
    "name_en": "Javanrud",
    "province_id": 22,
    "latitude": 34.808461,
    "longitude": 46.4930805
  },
  {
    "city_id": 120,
    "name_fa": "تنگستان",
    "name_en": "تنگستان",
    "province_id": 7,
    "latitude": 32.7541488,
    "longitude": 52.8903441
  },
  {
    "city_id": 894,
    "name_fa": "شهراباد",
    "name_en": "شهراباد",
    "province_id": 11,
    "latitude": 31.2566629,
    "longitude": 56.8253035
  },
  {
    "city_id": 755,
    "name_fa": "سعد آباد",
    "name_en": "سعد آباد",
    "province_id": 7,
    "latitude": 34.3809755,
    "longitude": 56.9029157
  },
  {
    "city_id": 697,
    "name_fa": "نطنز",
    "name_en": "Natanz",
    "province_id": 4,
    "latitude": 33.5071275,
    "longitude": 51.9135547
  },
  {
    "city_id": 1558,
    "name_fa": "ساری",
    "name_en": "Sari",
    "province_id": 27,
    "latitude": 36.5537458,
    "longitude": 53.0602761
  },
  {
    "city_id": 1632,
    "name_fa": "کیش",
    "name_en": "Kish",
    "province_id": 29,
    "latitude": 26.5439032,
    "longitude": 54.0135966
  },
  {
    "city_id": 1335,
    "name_fa": "بلورد",
    "name_en": "Balvard",
    "province_id": 21,
    "latitude": 29.4205935,
    "longitude": 56.0488998
  },
  {
    "city_id": 577,
    "name_fa": "گیوی",
    "name_en": "گیوی",
    "province_id": 3,
    "latitude": 37.6893255,
    "longitude": 48.3486789
  },
  {
    "city_id": 1324,
    "name_fa": "صفاییه",
    "name_en": "صفاییه",
    "province_id": 21,
    "latitude": 36.6871423,
    "longitude": 52.5992515
  },
  {
    "city_id": 613,
    "name_fa": "خورزوق",
    "name_en": "خورزوق",
    "province_id": 4,
    "latitude": 32.7822616,
    "longitude": 51.6544343
  }
]